Address 1,Address 2,City,State,Zip,,Address
50 GREENTREE DR,,DOVER,DE,199042684,,50 GREENTREE DRDOVERDE
2720 CONCORD PIKE,,WILMINGTON,DE,198035007,,2720 CONCORD PIKEWILMINGTONDE
18585 COASTAL HWY,14 MIDWAY SHOPPING CENTER,REHOBOTH BCH,DE,199716147,,18585 COASTAL HWYREHOBOTH BCHDE
210 2ND ST,,REHOBOTH BCH,DE,199712261,,210 2ND STREHOBOTH BCHDE
1308 COASTAL HWY,,DEWEY BEACH,DE,199712409,,1308 COASTAL HWYDEWEY BEACHDE
501 STANTON CHRISTIANA RD,,NEWARK,DE,197132126,,501 STANTON CHRISTIANA RDNEWARKDE
5329 LIMESTONE RD,,WILMINGTON,DE,198081222,,5329 LIMESTONE RDWILMINGTONDE
35265 ATLANTIC AVE UNIT 6,,MILLVILLE,DE,199676963,,35265 ATLANTIC AVE UNIT 6MILLVILLEDE
13 POLLY DRUMMOND SHPG CTR,,NEWARK,DE,197114859,,13 POLLY DRUMMOND SHPG CTRNEWARKDE
10912 COUNTY SEAT HWY,,LAUREL,DE,199563688,,10912 COUNTY SEAT HWYLAURELDE
25939 PLAZA DR,,MILLSBORO,DE,199664999,,25939 PLAZA DRMILLSBORODE
39 BALTIMORE AVE,,REHOBOTH BCH,DE,199712183,,39 BALTIMORE AVEREHOBOTH BCHDE
45 E MAIN ST STE 205,,NEWARK,DE,197114600,,45 E MAIN ST STE 205NEWARKDE
31457 RIVER RD,,MILLSBORO,DE,199664570,,31457 RIVER RDMILLSBORODE
1000 RENAISSANCE WAY,,WILMINGTON,DE,198033744,,1000 RENAISSANCE WAYWILMINGTONDE
37320 LIGHTHOUSE RD,,SELBYVILLE,DE,199754453,,37320 LIGHTHOUSE RDSELBYVILLEDE
201 2ND ST,,LEWES,DE,199581325,,201 2ND STLEWESDE
LONG NECK RD,SHELLPOINTE,MILLSBORO,DE,19966,,LONG NECK RDMILLSBORODE
318 8TH AVE,,WILMINGTON,DE,198054744,,318 8TH AVEWILMINGTONDE
23A REHOBOTH AVE,,REHOBOTH BCH,DE,199712119,,23A REHOBOTH AVEREHOBOTH BCHDE
33168 MAIN ST,,DAGSBORO,DE,199393808,,33168 MAIN STDAGSBORODE
37140 REHOBOTH AVENUE EXT,,REHOBOTH BCH,DE,199713196,,37140 REHOBOTH AVENUE EXTREHOBOTH BCHDE
134 N DUPONT BLVD,,SMYRNA,DE,199771510,,134 N DUPONT BLVDSMYRNADE
19724 COASTAL HWY,,REHOBOTH BCH,DE,199716198,,19724 COASTAL HWYREHOBOTH BCHDE
17467 COASTAL HWY,GROTTO PIZZA INC,LEWES,DE,199581686,,17467 COASTAL HWYLEWESDE
1666 S DUPONT HWY,SPORT BAR,DOVER,DE,199015120,,1666 S DUPONT HWYDOVERDE
1722 N SCOTT ST,,WILMINGTON,DE,198062316,,1722 N SCOTT STWILMINGTONDE
222 S CHAPEL ST RM 133,,NEWARK,DE,197164701,,222 S CHAPEL ST RM 133NEWARKDE
190 JOHN HUNN BROWN RD,,DOVER,DE,199014708,,190 JOHN HUNN BROWN RDDOVERDE
27344 BAY WALK,,MILLSBORO,DE,199666392,,27344 BAY WALKMILLSBORODE
101 JOHN F CAMPBELL RD,,NEWARK,DE,197115457,,101 JOHN F CAMPBELL RDNEWARKDE
1249 NEW CHURCHMAN'S RD,,NEWARK,DE,19713,,1249 NEW CHURCHMAN'S RDNEWARKDE
1616 DELAWARE AVE,,WILMINGTON,DE,198063304,,1616 DELAWARE AVEWILMINGTONDE
18659 COASTAL HWY,,REHOBOTH BCH,DE,199716141,,18659 COASTAL HWYREHOBOTH BCHDE
792A GARFIELD PKWY,,BETHANY BEACH,DE,199309723,,792A GARFIELD PKWYBETHANY BEACHDE
PO BOX 668,,NEW CASTLE,DE,197200668,,PO BOX 668NEW CASTLEDE
220 FOXHUNT DR,,BEAR,DE,197012536,,220 FOXHUNT DRBEARDE
203 GORDY PL,,NEW CASTLE,DE,197204703,,203 GORDY PLNEW CASTLEDE
100 GARFIELD PKWY UNIT 8,,BETHANY BEACH,DE,199307705,,100 GARFIELD PKWY UNIT 8BETHANY BEACHDE
812 MARYLAND AVE,,WILMINGTON,DE,198054868,,812 MARYLAND AVEWILMINGTONDE
3 N 1ST ST,,REHOBOTH BCH,DE,199712115,,3 N 1ST STREHOBOTH BCHDE
140 N DUPONT HWY,,NEW CASTLE,DE,197203102,,140 N DUPONT HWYNEW CASTLEDE
15 S BOARDWALK,,REHOBOTH BCH,DE,199712941,,15 S BOARDWALKREHOBOTH BCHDE
865 N DUPONT HWY,,DOVER,DE,199012013,,865 N DUPONT HWYDOVERDE
5812 KENNETT PIKE,,WILMINGTON,DE,198071116,,5812 KENNETT PIKEWILMINGTONDE
606 BRIDGEVILLE HWY,,SEAFORD,DE,199731524,,606 BRIDGEVILLE HWYSEAFORDDE
1535 W 4TH ST,,WILMINGTON,DE,198053554,,1535 W 4TH STWILMINGTONDE
701 N UNION ST,,WILMINGTON,DE,198053031,,701 N UNION STWILMINGTONDE
200 SAULSBURY RD,,DOVER,DE,199042721,,200 SAULSBURY RDDOVERDE
3624 BAYARD DR,,CLAYMONT,DE,197032118,,3624 BAYARD DRCLAYMONTDE
32 FOXHUNT DR,,BEAR,DE,197012534,,32 FOXHUNT DRBEARDE
448 MOORES LN,,HST NEWCASTLE,DE,197204481,,448 MOORES LNHST NEWCASTLEDE
2106 N MARKET ST,,WILMINGTON,DE,198024226,,2106 N MARKET STWILMINGTONDE
5329A LIMESTONE RD,,WILMINGTON,DE,198081222,,5329A LIMESTONE RDWILMINGTONDE
50 N DUPONT HWY,,DOVER,DE,199014292,,50 N DUPONT HWYDOVERDE
1600 W NEWPORT PIKE,,WILMINGTON,DE,198043500,,1600 W NEWPORT PIKEWILMINGTONDE
18878 COASTAL HWY,,REHOBOTH BCH,DE,199716150,,18878 COASTAL HWYREHOBOTH BCHDE
4010 N DUPONT HWY,,NEW CASTLE,DE,197206314,,4010 N DUPONT HWYNEW CASTLEDE
293 N DUPONT HWY,,DOVER,DE,199017509,,293 N DUPONT HWYDOVERDE
1400 N DUPONT ST,,WILMINGTON,DE,198064030,,1400 N DUPONT STWILMINGTONDE
58 W CHURCH ST,,SELBYVILLE,DE,199752008,,58 W CHURCH STSELBYVILLEDE
17300 N VILLAGE MAIN BLVD,UNIT 62,LEWES,DE,199587236,,17300 N VILLAGE MAIN BLVDLEWESDE
3700 KIRKWOOD HWY,,WILMINGTON,DE,198085106,,3700 KIRKWOOD HWYWILMINGTONDE
201 N DUPONT HWY,,NEW CASTLE,DE,197206450,,201 N DUPONT HWYNEW CASTLEDE
3060 NEW CASTLE AVE,,NEW CASTLE,DE,197202248,,3060 NEW CASTLE AVENEW CASTLEDE
201 OWLS NEST RD,,WILMINGTON,DE,198071129,,201 OWLS NEST RDWILMINGTONDE
37169 REHOBOTH AVENUE EXT UNIT 2,,REHOBOTH BCH,DE,199711683,,37169 REHOBOTH AVENUE EXT UNIT 2REHOBOTH BCHDE
2200 CONCORD PIKE,,WILMINGTON,DE,198032909,,2200 CONCORD PIKEWILMINGTONDE
12 GEORGETOWN PLZ,US RTE 9 & US RTE 113,GEORGETOWN,DE,199472300,,12 GEORGETOWN PLZGEORGETOWNDE
4737 CONCORD PIKE STE 800,,WILMINGTON,DE,198031453,,4737 CONCORD PIKE STE 800WILMINGTONDE
113 W MARKET ST,,LEWES,DE,199581309,,113 W MARKET STLEWESDE
13239 S OLD STATE RD,,ELLENDALE,DE,199413344,,13239 S OLD STATE RDELLENDALEDE
2931 N MARKET ST,,WILMINGTON,DE,198023148,,2931 N MARKET STWILMINGTONDE
20298 COASTAL HWY,,REHOBOTH BCH,DE,199718021,,20298 COASTAL HWYREHOBOTH BCHDE
768 WALKER RD,,DOVER,DE,199042725,,768 WALKER RDDOVERDE
768 WALKER RD,,DOVER,DE,199042725,,768 WALKER RDDOVERDE
38224 DUPONT BLVD,,SELBYVILLE,DE,199753047,,38224 DUPONT BLVDSELBYVILLEDE
18585 COASTAL HWY UNIT 6,,REHOBOTH BCH,DE,199716147,,18585 COASTAL HWY UNIT 6REHOBOTH BCHDE
1141 SAVANNAH RD,,LEWES,DE,199581524,,1141 SAVANNAH RDLEWESDE
440 EDEN CIR,,BEAR,DE,197014304,,440 EDEN CIRBEARDE
2725 PULASKI HWY,,NEWARK,DE,197023910,,2725 PULASKI HWYNEWARKDE
30155 COMMERCE DR,,MILLSBORO,DE,199663591,,30155 COMMERCE DRMILLSBORODE
2690 KIRKWOOD HIGHWAY,,NEWARK,DE,19711,,2690 KIRKWOOD HIGHWAYNEWARKDE
505 N DUPONT HWY,,DOVER,DE,199013960,,505 N DUPONT HWYDOVERDE
19884 COASTAL HWY,,REHOBOTH BCH,DE,199716199,,19884 COASTAL HWYREHOBOTH BCHDE
3 LIBERTY PLZ,,NEWARK,DE,197115539,,3 LIBERTY PLZNEWARKDE
307 ROCKY RUN PKWY,,WILMINGTON,DE,198031522,,307 ROCKY RUN PKWYWILMINGTONDE
657 MIDDLETOWN WARWICK RD,,MIDDLETOWN,DE,197099639,,657 MIDDLETOWN WARWICK RDMIDDLETOWNDE
2201 S DUPONT HWY,,DOVER,DE,199015512,,2201 S DUPONT HWYDOVERDE
4403 KIRKWOOD HWY,,WILMINGTON,DE,198085115,,4403 KIRKWOOD HWYWILMINGTONDE
18757 SUSSEX HWY,,BRIDGEVILLE,DE,199334617,,18757 SUSSEX HWYBRIDGEVILLEDE
1204 CENTERVILLE RD,,WILMINGTON,DE,198086218,,1204 CENTERVILLE RDWILMINGTONDE
2808 PULASKI HWY,,NEWARK,DE,197023913,,2808 PULASKI HWYNEWARKDE
222 S CHAPEL ST RM 133,,NEWARK,DE,197164701,,222 S CHAPEL ST RM 133NEWARKDE
16680 S DUPONT HWY,,HARRINGTON,DE,199522400,,16680 S DUPONT HWYHARRINGTONDE
119 N DUPONT BLVD STE C,,SMYRNA,DE,199771597,,119 N DUPONT BLVD STE CSMYRNADE
102 SILICATO PKWY,,MILFORD,DE,199631266,,102 SILICATO PKWYMILFORDDE
19331 LIGHTHOUSE PLAZA BLVD UNIT 1,,REHOBOTH BCH,DE,199711997,,19331 LIGHTHOUSE PLAZA BLVD UNIT 1REHOBOTH BCHDE
319 RIBLETT LN,,WILMINGTON,DE,198081301,,319 RIBLETT LNWILMINGTONDE
319 S REHOBOTH BLVD,,MILFORD,DE,199631531,,319 S REHOBOTH BLVDMILFORDDE
3322 OLD CAPITOL TRL,,WILMINGTON,DE,198086236,,3322 OLD CAPITOL TRLWILMINGTONDE
219 NE FRONT ST,,MILFORD,DE,199631431,,219 NE FRONT STMILFORDDE
503 BLACKSMITH LN,503 BLACKSMITH LN,NEWARK,DE,197025923,,503 BLACKSMITH LNNEWARKDE
POST 1 2535 VETERANS DR,,WILMINGTON,DE,19810,,POST 1 2535 VETERANS DRWILMINGTONDE
230 W MAIN ST STE 15,,NEWARK,DE,197113235,,230 W MAIN ST STE 15NEWARKDE
623 MARYLAND AVE,,WILMINGTON,DE,198054428,,623 MARYLAND AVEWILMINGTONDE
209 GOVERNORS PL,,BEAR,DE,197013026,,209 GOVERNORS PLBEARDE
206 N RACE ST,,GEORGETOWN,DE,199471409,,206 N RACE STGEORGETOWNDE
1204 CENTERVILLE RD,,WILMINGTON,DE,198086218,,1204 CENTERVILLE RDWILMINGTONDE
PO BOX 1172,,REHOBOTH BCH,DE,199710812,,PO BOX 1172REHOBOTH BCHDE
12 N 1ST ST,,REHOBOTH BEACH,DE,199712116,,12 N 1ST STREHOBOTH BEACHDE
212 ANN DR,,MIDDLETOWN,DE,197092606,,212 ANN DRMIDDLETOWNDE
4028 ROSETREE LN,,NEWARK,DE,197022141,,4028 ROSETREE LNNEWARKDE
37310 LIGHTHOUSE RD,,SELBYVILLE,DE,199754453,,37310 LIGHTHOUSE RDSELBYVILLEDE
1300 PEOPLES PLZ,,NEWARK,DE,197025607,,1300 PEOPLES PLZNEWARKDE
9537 BRIDGEVILLE CTR STE 2AND3,SUITE 2 AND 3,BRIDGEVILLE,DE,199334679,,9537 BRIDGEVILLE CTR STE 2AND3BRIDGEVILLEDE
809 GOVERNORS PL,,BEAR,DE,197013046,,809 GOVERNORS PLBEARDE
134 N DUPONT HWY,A C W CORP,NEW CASTLE,DE,197203102,,134 N DUPONT HWYNEW CASTLEDE
349 N DUPONT BLVD,,SMYRNA,DE,199771081,,349 N DUPONT BLVDSMYRNADE
2480 PULASKI HWY,BAR,NEWARK,DE,197023906,,2480 PULASKI HWYNEWARKDE
654A N DUPONT BLVD,,MILFORD,DE,199631002,,654A N DUPONT BLVDMILFORDDE
30661 SUSSEX HWY,,LAUREL,DE,199564420,,30661 SUSSEX HWYLAURELDE
100 SANDHILL DR,,MIDDLETOWN,DE,197095806,,100 SANDHILL DRMIDDLETOWNDE
13203 SEASHORE HWY,,GEORGETOWN,DE,199474392,,13203 SEASHORE HWYGEORGETOWNDE
17965 MORGAN DR,,LINCOLN,DE,199603355,,17965 MORGAN DRLINCOLNDE
340 NE FRONT ST,,MILFORD,DE,199631434,,340 NE FRONT STMILFORDDE
1810 COASTAL HWY,,DEWEY BEACH,DE,199712332,,1810 COASTAL HWYDEWEY BEACHDE
431 E MAIN ST,,MIDDLETOWN,DE,197091463,,431 E MAIN STMIDDLETOWNDE
809 N DUPONT BLVD,,MILFORD,DE,199631066,,809 N DUPONT BLVDMILFORDDE
132 CHRISTIANA MALL SPC 1820,,NEWARK,DE,197023202,,132 CHRISTIANA MALL SPC 1820NEWARKDE
24 REHOBOTH AVE,,REHOBOTH BCH,DE,199712120,,24 REHOBOTH AVEREHOBOTH BCHDE
512 N BROOM ST,,WILMINGTON,DE,198053115,,512 N BROOM STWILMINGTONDE
4755 OGLETOWN STANTON RD,,NEWARK,DE,197180001,,4755 OGLETOWN STANTON RDNEWARKDE
4200 N DUPONT HWY STE 4,,DOVER,DE,199012400,,4200 N DUPONT HWY STE 4DOVERDE
222 DELAWARE AVE STE 103,,WILMINGTON,DE,198011681,,222 DELAWARE AVE STE 103WILMINGTONDE
10 SURF AVE,,REHOBOTH BCH,DE,199712828,,10 SURF AVEREHOBOTH BCHDE
PO BOX 134,,BETHANY BEACH,DE,199300134,,PO BOX 134BETHANY BEACHDE
42 W COMMERCE ST # 44,,SMYRNA,DE,199771160,,42 W COMMERCE ST # 44SMYRNADE
698 N DUPONT BLVD,MILFORD PLAZA SHOPPING CTR,MILFORD,DE,199631002,,698 N DUPONT BLVDMILFORDDE
3301 LANCASTER PIKE STE 1C,,WILMINGTON,DE,198051436,,3301 LANCASTER PIKE STE 1CWILMINGTONDE
761 MAIN ST,,CHESWOLD,DE,19936,,761 MAIN STCHESWOLDDE
3209B CONCORD PIKE,,WILMINGTON,DE,198035014,,3209B CONCORD PIKEWILMINGTONDE
2714 NAAMANS RD,,WILMINGTON,DE,198101139,,2714 NAAMANS RDWILMINGTONDE
7460 LANCASTER PIKE STE 3,,HOCKESSIN,DE,197079276,,7460 LANCASTER PIKE STE 3HOCKESSINDE
144 LANTANA DR,,HOCKESSIN,DE,197078800,,144 LANTANA DRHOCKESSINDE
1020 N UNION ST STE B,,WILMINGTON,DE,198052736,,1020 N UNION ST STE BWILMINGTONDE
100 N FRANKLIN ST,,WILMINGTON,DE,198053641,,100 N FRANKLIN STWILMINGTONDE
38215 DUPONT BLVD,,SELBYVILLE,DE,199753045,,38215 DUPONT BLVDSELBYVILLEDE
698B N DUPONT BLVD,,MILFORD,DE,199631002,,698B N DUPONT BLVDMILFORDDE
25 GREENTREE DR,,DOVER,DE,199042685,,25 GREENTREE DRDOVERDE
407 MARSH RD,,WILMINGTON,DE,198092118,,407 MARSH RDWILMINGTONDE
1548 SAVANNAH RD,,LEWES,DE,199581624,,1548 SAVANNAH RDLEWESDE
3215 KIRKWOOD HWY,,WILMINGTON,DE,198086129,,3215 KIRKWOOD HWYWILMINGTONDE
1530 N DUPONT HWY,,NEW CASTLE,DE,197201902,,1530 N DUPONT HWYNEW CASTLEDE
645 S BAY RD,,DOVER,DE,199014601,,645 S BAY RDDOVERDE
36 E MAIN ST,,NEWARK,DE,197114639,,36 E MAIN STNEWARKDE
320 SUBURBAN DR,,NEWARK,DE,197113599,,320 SUBURBAN DRNEWARKDE
1 DELAWARE ST,,SAINT GEORGES,DE,197332013,,1 DELAWARE STSAINT GEORGESDE
374 WALMART DR STE 5,,CAMDEN,DE,199341372,,374 WALMART DR STE 5CAMDENDE
260 CHAPMAN RD,,NEWARK,DE,197025490,,260 CHAPMAN RDNEWARKDE
455 STANTON CHRISTIANA RD,,NEWARK,DE,197132119,,455 STANTON CHRISTIANA RDNEWARKDE
32267 CLUBHOUSE WAY,,MILLSBORO,DE,199666259,,32267 CLUBHOUSE WAYMILLSBORODE
507 STANTON CHRISTIANA RD,,NEWARK,DE,197132126,,507 STANTON CHRISTIANA RDNEWARKDE
2038 FOULK RD,,WILMINGTON,DE,198103665,,2038 FOULK RDWILMINGTONDE
12 LIBERTY PLZ,KIRKWOOD HWY,NEWARK,DE,197115539,,12 LIBERTY PLZNEWARKDE
821 N MARKET ST,,WILMINGTON,DE,198013010,,821 N MARKET STWILMINGTONDE
1101 GOVERNORS PL,,BEAR,DE,197016024,,1101 GOVERNORS PLBEARDE
4080 S DUPONT HWY,,CAMDEN,DE,199341370,,4080 S DUPONT HWYCAMDENDE
RR 1,,REHOBOTH BEACH,DE,199719801,,RR 1REHOBOTH BEACHDE
101 S BOARDWALK FL 2,,REHOBOTH BCH,DE,199712931,,101 S BOARDWALK FL 2REHOBOTH BCHDE
PO BOX 1327,,OCEAN VIEW,DE,199701327,,PO BOX 1327OCEAN VIEWDE
1255 S STATE ST STE 14,,DOVER,DE,199016932,,1255 S STATE ST STE 14DOVERDE
3000 N MARKET ST,,WILMINGTON,DE,198023151,,3000 N MARKET STWILMINGTONDE
119 S WEST ST,,WILMINGTON,DE,198015014,,119 S WEST STWILMINGTONDE
115 E MAIN ST,,NEWARK,DE,197117312,,115 E MAIN STNEWARKDE
9-11 FIRST ST,,REHOBOTH BCH,DE,19971,,9-11 FIRST STREHOBOTH BCHDE
7288 LANCASTER PIKE STE 4B,,HOCKESSIN,DE,197079274,,7288 LANCASTER PIKE STE 4BHOCKESSINDE
28632 DUPONT BLVD UNIT 20,,MILLSBORO,DE,199664793,,28632 DUPONT BLVD UNIT 20MILLSBORODE
38069 TOWN CENTER DR UNIT 5,,MILLVILLE,DE,199676968,,38069 TOWN CENTER DR UNIT 5MILLVILLEDE
3701 LANCASTER PIKE,,WILMINGTON,DE,198051510,,3701 LANCASTER PIKEWILMINGTONDE
PERKINS STUDENT CTR # 2881,,NEWARK,DE,197166199,,PERKINS STUDENT CTR # 2881NEWARKDE
4708 LIMESTONE RD,,WILMINGTON,DE,198081928,,4708 LIMESTONE RDWILMINGTONDE
4563 NEW LINDEN HILL RD,,WILMINGTON,DE,198082923,,4563 NEW LINDEN HILL RDWILMINGTONDE
121 E MAIN ST,,NEWARK,DE,197117312,,121 E MAIN STNEWARKDE
26 BALTIMORE AVE,,REHOBOTH BCH,DE,199712429,,26 BALTIMORE AVEREHOBOTH BCHDE
805 N BROOM ST,,WILMINGTON,DE,198064641,,805 N BROOM STWILMINGTONDE
110 N DUPONT HWY,,NEW CASTLE,DE,197203102,,110 N DUPONT HWYNEW CASTLEDE
408 PHILADELPHIA PIKE STE 1,,WILMINGTON,DE,198092153,,408 PHILADELPHIA PIKE STE 1WILMINGTONDE
PO BOX 1566,,MILLSBORO,DE,199665566,,PO BOX 1566MILLSBORODE
519 S BAY RD,,DOVER,DE,199014624,,519 S BAY RDDOVERDE
570 PEOPLES PLZ,,NEWARK,DE,197024798,,570 PEOPLES PLZNEWARKDE
3902 CONCORD PIKE,,WILMINGTON,DE,198031716,,3902 CONCORD PIKEWILMINGTONDE
1171 S BAY RD,,DOVER,DE,199014641,,1171 S BAY RDDOVERDE
201 W MAIN ST,,CHRISTIANA,DE,197021572,,201 W MAIN STCHRISTIANADE
2136 FASHION CENTER BLVD,,NEWARK,DE,197023256,,2136 FASHION CENTER BLVDNEWARKDE
22954 SUSSEX HWY,,SEAFORD,DE,199735861,,22954 SUSSEX HWYSEAFORDDE
1300 ROCKY RUN PKWY,,WILMINGTON,DE,198031458,,1300 ROCKY RUN PKWYWILMINGTONDE
273 E COMMERCE ST,,SMYRNA,DE,199771555,,273 E COMMERCE STSMYRNADE
4000 S DUPONT HWY STE 103,,DOVER,DE,199016010,,4000 S DUPONT HWY STE 103DOVERDE
1300 VEALE RD,,WILMINGTON,DE,198104602,,1300 VEALE RDWILMINGTONDE
110 BROADKILL RD,,MILTON,DE,199681008,,110 BROADKILL RDMILTONDE
250 E HAMPDEN RD,HOSPITAL OF MIDDLETOWN LLC,MIDDLETOWN,DE,197095303,,250 E HAMPDEN RDMIDDLETOWNDE
2467 SOUTH ST,,DOVER,DE,19901,,2467 SOUTH STDOVERDE
752 E CHESTNUT HILL RD,,NEWARK,DE,197131830,,752 E CHESTNUT HILL RDNEWARKDE
1812 MARSH RD STE 10,,WILMINGTON,DE,198104533,,1812 MARSH RD STE 10WILMINGTONDE
425 STANTON CHRISTIANA RD,,NEWARK,DE,197132119,,425 STANTON CHRISTIANA RDNEWARKDE
14 S HARRISON ST,,WILMINGTON,DE,198054002,,14 S HARRISON STWILMINGTONDE
18756 COASTAL HWY UNIT 3,,REHOBOTH BEACH,DE,199716155,,18756 COASTAL HWY UNIT 3REHOBOTH BEACHDE
2671 KIRKWOOD HWY,,NEWARK,DE,197117242,,2671 KIRKWOOD HWYNEWARKDE
1201 SAVANNAH RD,,LEWES,DE,199581553,,1201 SAVANNAH RDLEWESDE
17064 S DUPONT HWY,,HARRINGTON,DE,199522477,,17064 S DUPONT HWYHARRINGTONDE
221 W SIDE DR,,REHOBOTH BCH,DE,199711308,,221 W SIDE DRREHOBOTH BCHDE
1596 S DUPONT HWY,,DOVER,DE,199014901,,1596 S DUPONT HWYDOVERDE
784 OLD BALTIMORE PIKE,,NEWARK,DE,197021396,,784 OLD BALTIMORE PIKENEWARKDE
50 MARROWS RD,,NEWARK,DE,197133702,,50 MARROWS RDNEWARKDE
148 N DUPONT HWY,,NEW CASTLE,DE,197203102,,148 N DUPONT HWYNEW CASTLEDE
219 GOVERNORS PL,,BEAR,DE,197013026,,219 GOVERNORS PLBEARDE
27 E GLENWOOD AVE,,SMYRNA,DE,199771472,,27 E GLENWOOD AVESMYRNADE
21 E MARKET ST,,GEORGETOWN,DE,199471401,,21 E MARKET STGEORGETOWNDE
301 REHOBOTH AVE,,REHOBOTH BCH,DE,199713236,,301 REHOBOTH AVEREHOBOTH BCHDE
1700 MARSH RD,,WILMINGTON,DE,198104606,,1700 MARSH RDWILMINGTONDE
37300 REHOBOTH AVENUE EXT UNIT 1,,REHOBOTH BCH,DE,199713199,,37300 REHOBOTH AVENUE EXT UNIT 1REHOBOTH BCHDE
INC,SO DELAWARE TRUCK GROWERS ASS,LAUREL,DE,19956,,INCLAURELDE
123 N MARYLAND AVE,,WILMINGTON,DE,198041335,,123 N MARYLAND AVEWILMINGTONDE
223 S DUPONT HWY,,DOVER,DE,199014732,,223 S DUPONT HWYDOVERDE
153 E MAIN ST,,NEWARK,DE,197117313,,153 E MAIN STNEWARKDE
2205 KIRKWOOD HWY,,WILMINGTON,DE,198054903,,2205 KIRKWOOD HWYWILMINGTONDE
707 ACE MEMORIAL DR,,HOCKESSIN,DE,197071037,,707 ACE MEMORIAL DRHOCKESSINDE
19791 COASTAL HWY,,REHOBOTH BCH,DE,199716157,,19791 COASTAL HWYREHOBOTH BCHDE
3100 NAAMANS RD,STORE #9,WILMINGTON,DE,198102100,,3100 NAAMANS RDWILMINGTONDE
950 N STATE ST,,DOVER,DE,199013903,,950 N STATE STDOVERDE
1237 CHURCHMANS RD UNIT EF,,NEWARK,DE,197132149,,1237 CHURCHMANS RD UNIT EFNEWARKDE
510 REHOBOTH AVE,,REHOBOTH BCH,DE,199712185,,510 REHOBOTH AVEREHOBOTH BCHDE
7454 LANCASTER PIKE STE A,,HOCKESSIN,DE,197079399,,7454 LANCASTER PIKE STE AHOCKESSINDE
36 JEROME DR,,DOVER,DE,199012300,,36 JEROME DRDOVERDE
125 2ND ST,,LEWES,DE,199581331,,125 2ND STLEWESDE
PO BOX 10943,,WILMINGTON,DE,198500943,,PO BOX 10943WILMINGTONDE
2062 LIMESTONE RD,,WILMINGTON,DE,198085506,,2062 LIMESTONE RDWILMINGTONDE
120 LAKS DR,,MIDDLETOWN,DE,197099390,,120 LAKS DRMIDDLETOWNDE
4110 S DUPONT HWY,,CAMDEN,DE,199341369,,4110 S DUPONT HWYCAMDENDE
224 W MARKET ST,,WILMINGTON,DE,198043152,,224 W MARKET STWILMINGTONDE
1243 N DUPONT HWY,,DOVER,DE,199018703,,1243 N DUPONT HWYDOVERDE
3838 KENNETT PIKE STE 100,,WILMINGTON,DE,198072310,,3838 KENNETT PIKE STE 100WILMINGTONDE
18 SALEM VILLAGE SQ,,NEWARK,DE,197132976,,18 SALEM VILLAGE SQNEWARKDE
185 SAULSBURY RD,,DOVER,DE,199042719,,185 SAULSBURY RDDOVERDE
3218 KIRKWOOD HWY,PRICES CORNER SHOPPING CTR,WILMINGTON,DE,198086130,,3218 KIRKWOOD HWYWILMINGTONDE
124 DELAWARE ST,,HST NEWCASTLE,DE,197204859,,124 DELAWARE STHST NEWCASTLEDE
120 MULLET RUN,,MILFORD,DE,19963,,120 MULLET RUNMILFORDDE
3804 LANCASTER PIKE,,WILMINGTON,DE,198051513,,3804 LANCASTER PIKEWILMINGTONDE
4902 KIRKWOOD HWY,,WILMINGTON,DE,198085012,,4902 KIRKWOOD HWYWILMINGTONDE
322 SUBURBAN DR,,NEWARK,DE,197113599,,322 SUBURBAN DRNEWARKDE
1574 N DUPONT HWY,,DOVER,DE,199012253,,1574 N DUPONT HWYDOVERDE
1643 PULASKI PULASKI HWY,,BEAR,DE,197011453,,1643 PULASKI PULASKI HWYBEARDE
147 E MAIN ST,,NEWARK,DE,197117313,,147 E MAIN STNEWARKDE
PO BOX 49,,REHOBOTH BCH,DE,199710049,,PO BOX 49REHOBOTH BCHDE
2360 PULASKI HWY,,NEWARK,DE,197023408,,2360 PULASKI HWYNEWARKDE
4553 KIRKWOOD HWY,,WILMINGTON,DE,198085117,,4553 KIRKWOOD HWYWILMINGTONDE
98 GARFIELD PKWY,,BETHANY BEACH,DE,199307753,,98 GARFIELD PKWYBETHANY BEACHDE
714 MAIN ST,,ELLENDALE,DE,199412066,,714 MAIN STELLENDALEDE
PO BOX 487,,REHOBOTH BCH,DE,199710487,,PO BOX 487REHOBOTH BCHDE
5600 OLD CAPITOL TRL,,WILMINGTON,DE,198084951,,5600 OLD CAPITOL TRLWILMINGTONDE
33364 S PENNSYLVANIA AVE,,BETHANY BEACH,DE,199303446,,33364 S PENNSYLVANIA AVEBETHANY BEACHDE
250 GATEWAY SOUTH BLVD,,DOVER,DE,199015861,,250 GATEWAY SOUTH BLVDDOVERDE
3209 MILLER RD STE J-&K,,WILMINGTON,DE,198022507,,3209 MILLER RD STE J-&KWILMINGTONDE
5502 S DUPONT HWY STE 6,,DOVER,DE,199016440,,5502 S DUPONT HWY STE 6DOVERDE
325 ACADEMY ST,,NEWARK,DE,197166199,,325 ACADEMY STNEWARKDE
2000 COASTAL HWY STE 101,,DEWEY BEACH,DE,199712355,,2000 COASTAL HWY STE 101DEWEY BEACHDE
2101 MID COUNTY DR,,NEW CASTLE,DE,197205638,,2101 MID COUNTY DRNEW CASTLEDE
12 CROYDON RD,,REHOBOTH BCH,DE,199713506,,12 CROYDON RDREHOBOTH BCHDE
1300 COASTAL HWY,,DEWEY BEACH,DE,199712409,,1300 COASTAL HWYDEWEY BEACHDE
59 LAKE AVE,,REHOBOTH BCH,DE,199712107,,59 LAKE AVEREHOBOTH BCHDE
499 MITCHELL ST,,MILLSBORO,DE,199669408,,499 MITCHELL STMILLSBORODE
2675 KIRKWOOD HWY,,NEWARK,DE,197117242,,2675 KIRKWOOD HWYNEWARKDE
27099 COASTAL HWY,,BETHANY BEACH,DE,199303643,,27099 COASTAL HWYBETHANY BEACHDE
122 E GLENWOOD AVE,,SMYRNA,DE,199771003,,122 E GLENWOOD AVESMYRNADE
1404 N DUPONT HWY,,NEW CASTLE,DE,197201844,,1404 N DUPONT HWYNEW CASTLEDE
1350 N DUPONT HWY,,DOVER,DE,199012211,,1350 N DUPONT HWYDOVERDE
28635 COASTAL HIGHWAY,,BETHANY BEACH,DE,19930,,28635 COASTAL HIGHWAYBETHANY BEACHDE
101 W MAIN ST,,CHRISTIANA,DE,197021590,,101 W MAIN STCHRISTIANADE
801 CHRISTIANA RD,,NEWARK,DE,197133200,,801 CHRISTIANA RDNEWARKDE
17 WOOD ST,,MIDDLETOWN,DE,197091048,,17 WOOD STMIDDLETOWNDE
39817 HICKMAN PLAZA RD,,BETHANY BEACH,DE,199303700,,39817 HICKMAN PLAZA RDBETHANY BEACHDE
2500 S DUPONT HWY,CR PLAZA,CAMDEN,DE,199341379,,2500 S DUPONT HWYCAMDENDE
700 CAPITOL TRL,,NEWARK,DE,197113914,,700 CAPITOL TRLNEWARKDE
40 GEOFFREY DR,,NEWARK,DE,197133603,,40 GEOFFREY DRNEWARKDE
300 N DUPONT HIGHWAY,,SEAFORD,DE,19973,,300 N DUPONT HIGHWAYSEAFORDDE
435 S NEW ST,,DOVER,DE,199046715,,435 S NEW STDOVERDE
110 N DUPONT HWY,NEW CASTLE FARMERS MARKET,NEW CASTLE,DE,197203102,,110 N DUPONT HWYNEW CASTLEDE
300 W MAIN ST,,NEWARK,DE,197113287,,300 W MAIN STNEWARKDE
30123 COMMERCE DR,,MILLSBORO,DE,199663591,,30123 COMMERCE DRMILLSBORODE
6 CANNERY VLG,,MILTON,DE,199681308,,6 CANNERY VLGMILTONDE
2150 FASHION CENTER BLVD,,NEWARK,DE,197023256,,2150 FASHION CENTER BLVDNEWARKDE
501 W MAIN ST,,MIDDLETOWN,DE,197099654,,501 W MAIN STMIDDLETOWNDE
112 FOXHUNT DR,,BEAR,DE,197012535,,112 FOXHUNT DRBEARDE
42 REHOBOTH AVE STE 7,#6 PENNY LN MALL,REHOBOTH BCH,DE,199712122,,42 REHOBOTH AVE STE 7REHOBOTH BCHDE
1225 N DUPONT HWY STE A,,DOVER,DE,199012264,,1225 N DUPONT HWY STE ADOVERDE
456 W GLENWOOD AVE,,SMYRNA,DE,199771087,,456 W GLENWOOD AVESMYRNADE
1481 N DUPONT HWY,,DOVER,DE,199012212,,1481 N DUPONT HWYDOVERDE
2000 COASTAL HWY,,DEWEY BEACH,DE,199712355,,2000 COASTAL HWYDEWEY BEACHDE
1120 PULASKI HWY,,BEAR,DE,197011306,,1120 PULASKI HWYBEARDE
1710 CEDARCHASE DRIVE,,DOVER,DE,19901,,1710 CEDARCHASE DRIVEDOVERDE
227 N MARYLAND AVE,,WILMINGTON,DE,198041388,,227 N MARYLAND AVEWILMINGTONDE
7 S BOARDWALK,,REHOBOTH BCH,DE,199712941,,7 S BOARDWALKREHOBOTH BCHDE
2463 S STATE ST,,DOVER,DE,199016304,,2463 S STATE STDOVERDE
30 CHESTNUT HILL PLZ,,NEWARK,DE,197132701,,30 CHESTNUT HILL PLZNEWARKDE
729 PHILADELPHIA PIKE,,WILMINGTON,DE,198092559,,729 PHILADELPHIA PIKEWILMINGTONDE
21553 RUDDER LN,,GEORGETOWN,DE,199472029,,21553 RUDDER LNGEORGETOWNDE
29494 CRIPPLE CREEK DR,,DAGSBORO,DE,199393423,,29494 CRIPPLE CREEK DRDAGSBORODE
4793 WHEATLEYS POND RD,,SMYRNA,DE,199773732,,4793 WHEATLEYS POND RDSMYRNADE
3031 NEW CASTLE AVE,,NEW CASTLE,DE,197202215,,3031 NEW CASTLE AVENEW CASTLEDE
266 S DUPONT HWY,,DOVER,DE,199014733,,266 S DUPONT HWYDOVERDE
837 N MARKET ST,,WILMINGTON,DE,198013010,,837 N MARKET STWILMINGTONDE
112 N DUPONT HWY,,NEW CASTLE,DE,197203102,,112 N DUPONT HWYNEW CASTLEDE
464 W MAIN ST,,MIDDLETOWN,DE,197091063,,464 W MAIN STMIDDLETOWNDE
30739 SUSSEX HWY,,LAUREL,DE,199564425,,30739 SUSSEX HWYLAURELDE
643 N DUPONT BLVD,,MILFORD,DE,199631098,,643 N DUPONT BLVDMILFORDDE
4391 KIRKWOOD HWY,,WILMINGTON,DE,198085113,,4391 KIRKWOOD HWYWILMINGTONDE
65 MARROWS RD,,NEWARK,DE,197133701,,65 MARROWS RDNEWARKDE
39064 HARPOON RD,,FENWICK ISLAND,DE,199444015,,39064 HARPOON RDFENWICK ISLANDDE
4111 N MARKET ST,,WILMINGTON,DE,198022221,,4111 N MARKET STWILMINGTONDE
113 S DUPONT HWY,,NEW CASTLE,DE,197204127,,113 S DUPONT HWYNEW CASTLEDE
207 SYCAMORE LN,,TOWNSEND,DE,197349108,,207 SYCAMORE LNTOWNSENDDE
3697 BAY RD,,MILFORD,DE,199636031,,3697 BAY RDMILFORDDE
1600 ROCKY RUN PKWY,,WILMINGTON,DE,198035404,,1600 ROCKY RUN PKWYWILMINGTONDE
123 MCMULLEN CIR,,WILMINGTON,DE,198022840,,123 MCMULLEN CIRWILMINGTONDE
3608 MILLER RD,,WILMINGTON,DE,198022524,,3608 MILLER RDWILMINGTONDE
1900 LANCASTER AVE,,WILMINGTON,DE,198053808,,1900 LANCASTER AVEWILMINGTONDE
115A S DUPONT HWY,,NEW CASTLE,DE,197204127,,115A S DUPONT HWYNEW CASTLEDE
72 HONOLULU RD,,FRANKFORD,DE,199452023,,72 HONOLULU RDFRANKFORDDE
101 E HAZELDELL AVE,,NEW CASTLE,DE,197201346,,101 E HAZELDELL AVENEW CASTLEDE
17 SALEM VILLAGE SQ,,NEWARK,DE,197132976,,17 SALEM VILLAGE SQNEWARKDE
426 N MARKET ST,,WILMINGTON,DE,198013078,,426 N MARKET STWILMINGTONDE
301 W STEIN HWY,,SEAFORD,DE,199731334,,301 W STEIN HWYSEAFORDDE
20633 DUPONT BLVD,,GEORGETOWN,DE,199473172,,20633 DUPONT BLVDGEORGETOWNDE
37242 LIGHTHOUSE RD,,SELBYVILLE,DE,199753981,,37242 LIGHTHOUSE RDSELBYVILLEDE
305 ROCKY RUN PKWY,,WILMINGTON,DE,198031522,,305 ROCKY RUN PKWYWILMINGTONDE
720 JUSTISON ST,,WILMINGTON,DE,198015141,,720 JUSTISON STWILMINGTONDE
16994 S DUPONT HWY,,HARRINGTON,DE,199522476,,16994 S DUPONT HWYHARRINGTONDE
991 FOREST ST,,DOVER,DE,199043447,,991 FOREST STDOVERDE
312 HIGH ST,,SEAFORD,DE,199733912,,312 HIGH STSEAFORDDE
222 W 8TH ST,,LAUREL,DE,199561944,,222 W 8TH STLAURELDE
1603 SAVANNAH ROAD,,LEWES,DE,199581625,,1603 SAVANNAH ROADLEWESDE
27 POSSUM PARK MALL,,NEWARK,DE,197115591,,27 POSSUM PARK MALLNEWARKDE
1115 S GOVERNORS AVE,,DOVER,DE,199046903,,1115 S GOVERNORS AVEDOVERDE
3826 KENNETT PIKE,,WILMINGTON,DE,198072302,,3826 KENNETT PIKEWILMINGTONDE
2706 CONCORD PIKE,,WILMINGTON,DE,198035007,,2706 CONCORD PIKEWILMINGTONDE
105 KIRKWOOD SQ,,WILMINGTON,DE,198084859,,105 KIRKWOOD SQWILMINGTONDE
626 N UNION ST,,WILMINGTON,DE,198053030,,626 N UNION STWILMINGTONDE
24 GEORGETOWN PLZ,,GEORGETOWN,DE,199472300,,24 GEORGETOWN PLZGEORGETOWNDE
831 1/2 N CHURCH ST,,WILMINGTON,DE,198014342,,831 1/2 N CHURCH STWILMINGTONDE
1042 N WALNUT ST,,MILFORD,DE,199631222,,1042 N WALNUT STMILFORDDE
36 REHOBOTH AVE,,REHOBOTH BCH,DE,199712120,,36 REHOBOTH AVEREHOBOTH BCHDE
11122 COON DEN RD,,GREENWOOD,DE,199505234,,11122 COON DEN RDGREENWOODDE
1501 GOVERNORS PL,,BEAR,DE,197013053,,1501 GOVERNORS PLBEARDE
17232 N VILLAGE MAIN BLVD,,MILTON,DE,19968,,17232 N VILLAGE MAIN BLVDMILTONDE
34067 DUPONT BLVD,,FRANKFORD,DE,199453808,,34067 DUPONT BLVDFRANKFORDDE
5799 LIGHTHOUSE COVE,,FENWICK ISLE,DE,19944,,5799 LIGHTHOUSE COVEFENWICK ISLEDE
16 POLLY DRUMMOND HILL RD STE B,16 POLLY DRUMMOND RD,NEWARK,DE,197115703,,16 POLLY DRUMMOND HILL RD STE BNEWARKDE
18831 COASTAL HWY,,REHOBOTH BCH,DE,199716153,,18831 COASTAL HWYREHOBOTH BCHDE
201 COLLEGE PARK LN STE 1,,GEORGETOWN,DE,199472147,,201 COLLEGE PARK LN STE 1GEORGETOWNDE
17252 N VILLAGE MAIN BLVD,,LEWES,DE,199586292,,17252 N VILLAGE MAIN BLVDLEWESDE
1146 PULASKI HWY,,BEAR,DE,197011306,,1146 PULASKI HWYBEARDE
386 WALMART DR STE 6,,CAMDEN,DE,199341374,,386 WALMART DR STE 6CAMDENDE
13 POSSUM PARK MALL,,NEWARK,DE,197115591,,13 POSSUM PARK MALLNEWARKDE
107 W LOOCKERMAN ST,,DOVER,DE,199047325,,107 W LOOCKERMAN STDOVERDE
111 W 10TH ST,,WILMINGTON,DE,198011609,,111 W 10TH STWILMINGTONDE
900 5TH ST,,DELAWARE CITY,DE,197067736,,900 5TH STDELAWARE CITYDE
100 COASTAL HWY,#1 FENWICK CENTER,FENWICK ISLE,DE,199444474,,100 COASTAL HWYFENWICK ISLEDE
716 HARVARD LN,,NEWARK,DE,197113135,,716 HARVARD LNNEWARKDE
30261 COMMERCE DR,,MILLSBORO,DE,199663592,,30261 COMMERCE DRMILLSBORODE
401 E MAIN ST UNIT 3B,,MIDDLETOWN,DE,197091491,,401 E MAIN ST UNIT 3BMIDDLETOWNDE
300 COASTAL HWY,,FENWICK ISLE,DE,199444490,,300 COASTAL HWYFENWICK ISLEDE
400 FOULK RD APT 4C4,#4C4 WILMINGTON,WILMINGTON,DE,198033826,,400 FOULK RD APT 4C4WILMINGTONDE
17252 N VILLAGE MAIN BLVD UNIT 5,,LEWES,DE,199586292,,17252 N VILLAGE MAIN BLVD UNIT 5LEWESDE
1440 N DUPONT HWY,,DOVER,DE,199012213,,1440 N DUPONT HWYDOVERDE
134 REHOBOTH AVE,,REHOBOTH BCH,DE,199712136,,134 REHOBOTH AVEREHOBOTH BCHDE
20 W LOOCKERMAN ST,,DOVER,DE,199047324,,20 W LOOCKERMAN STDOVERDE
1001 W NEWPORT PIKE,,WILMINGTON,DE,198043398,,1001 W NEWPORT PIKEWILMINGTONDE
1247 NEW CHUECHMAN'S RD,,NEWARK,DE,19713,,1247 NEW CHUECHMAN'S RDNEWARKDE
2719 PHILADELPHIA PIKE,A C W CORP,CLAYMONT,DE,197032523,,2719 PHILADELPHIA PIKECLAYMONTDE
1206 N WASHINGTON ST,,WILMINGTON,DE,198011020,,1206 N WASHINGTON STWILMINGTONDE
200 NE FRONT ST,,MILFORD,DE,199631432,,200 NE FRONT STMILFORDDE
41 E GLENWOOD AVE,,SMYRNA,DE,199771472,,41 E GLENWOOD AVESMYRNADE
111 E MARKET ST,,GEORGETOWN,DE,199471405,,111 E MARKET STGEORGETOWNDE
18756 COASTAL HWY UNIT 6,,REHOBOTH BCH,DE,199716155,,18756 COASTAL HWY UNIT 6REHOBOTH BCHDE
374 E CHESTNUT HILL RD,,NEWARK,DE,197132759,,374 E CHESTNUT HILL RDNEWARKDE
56 BALTIMORE AVE,,REHOBOTH BCH,DE,199712144,,56 BALTIMORE AVEREHOBOTH BCHDE
101 KIRKWOOD SQ,,WILMINGTON,DE,198084859,,101 KIRKWOOD SQWILMINGTONDE
2667 KIRKWOOD HWY,,NEWARK,DE,197117242,,2667 KIRKWOOD HWYNEWARKDE
26089 LONGNECK RD UNIT 3,,MILLSBORO,DE,19966,,26089 LONGNECK RD UNIT 3MILLSBORODE
1200 BEAVER BROOK PLZ,,NEW CASTLE,DE,197208632,,1200 BEAVER BROOK PLZNEW CASTLEDE
1650 N DUPONT HWY,,DOVER,DE,199012217,,1650 N DUPONT HWYDOVERDE
101 W 8TH ST,,WILMINGTON,DE,198011980,,101 W 8TH STWILMINGTONDE
3006 NEW CASTLE AVE,,NEW CASTLE,DE,197202244,,3006 NEW CASTLE AVENEW CASTLEDE
230 E GLENWOOD AVE,,SMYRNA,DE,199771080,,230 E GLENWOOD AVESMYRNADE
606 E BASIN RD,,NEW CASTLE,DE,197204202,,606 E BASIN RDNEW CASTLEDE
25935 PLAZA DR UNIT 6,,MILLSBORO,DE,199666289,,25935 PLAZA DR UNIT 6MILLSBORODE
1812 MARSH RD,,WILMINGTON,DE,198104581,,1812 MARSH RDWILMINGTONDE
4495 SUMMIT BRIDGE RD,,MIDDLETOWN,DE,197099549,,4495 SUMMIT BRIDGE RDMIDDLETOWNDE
32 LAKE AVE,,REHOBOTH BCH,DE,199712109,,32 LAKE AVEREHOBOTH BCHDE
34 HODGKINS PL,,NEW CASTLE,DE,197204708,,34 HODGKINS PLNEW CASTLEDE
PO BOX 1447,,BETHANY BEACH,DE,199301447,,PO BOX 1447BETHANY BEACHDE
3130 KIRKWOOD HWY,,WILMINGTON,DE,198086150,,3130 KIRKWOOD HWYWILMINGTONDE
1222 BEAVER BROOK PLZ,,NEW CASTLE,DE,197208632,,1222 BEAVER BROOK PLZNEW CASTLEDE
2400 PEOPLES PLZ,,NEWARK,DE,197025700,,2400 PEOPLES PLZNEWARKDE
27981 WILLOW LN,,MILLSBORO,DE,199663925,,27981 WILLOW LNMILLSBORODE
2089 S DUPONT HWY,,DOVER,DE,199015566,,2089 S DUPONT HWYDOVERDE
30 CLINTON ST,,DELAWARE CITY,DE,197067700,,30 CLINTON STDELAWARE CITYDE
900 CENTER BLVD,,NEWARK,DE,197023221,,900 CENTER BLVDNEWARKDE
320 DOVE RUN CENTRE DR,,MIDDLETOWN,DE,197097912,,320 DOVE RUN CENTRE DRMIDDLETOWNDE
818 SHIPYARD DR,,WILMINGTON,DE,198015195,,818 SHIPYARD DRWILMINGTONDE
302 UNION ST,,MILTON,DE,199681622,,302 UNION STMILTONDE
4231 CONCORD PIKE,,WILMINGTON,DE,198031403,,4231 CONCORD PIKEWILMINGTONDE
117 ATLANTIC AVE,,OCEAN VIEW,DE,19970,,117 ATLANTIC AVEOCEAN VIEWDE
2644 CAPITOL TRL,,NEWARK,DE,197117268,,2644 CAPITOL TRLNEWARKDE
784 GARFIELD PKWY,,BETHANY BEACH,DE,199309219,,784 GARFIELD PKWYBETHANY BEACHDE
132 CHRISTIANA MALL STE 1474,,NEWARK,DE,197023202,,132 CHRISTIANA MALL STE 1474NEWARKDE
1400 CAPITOL TRL,,NEWARK,DE,197115782,,1400 CAPITOL TRLNEWARKDE
8 SPINET RD,,NEWARK,DE,197133512,,8 SPINET RDNEWARKDE
619 AMBERLEY RD,,WILMINGTON,DE,198032434,,619 AMBERLEY RDWILMINGTONDE
36644 LIGHTHOUSE RD UNIT 1,,SELBYVILLE,DE,199754086,,36644 LIGHTHOUSE RD UNIT 1SELBYVILLEDE
580 MIDDLETOWN WARWICK RD,,MIDDLETOWN,DE,197098873,,580 MIDDLETOWN WARWICK RDMIDDLETOWNDE
410 W 4TH ST,,WILMINGTON,DE,198012104,,410 W 4TH STWILMINGTONDE
67 REHOBOTH AVE,,REHOBOTH BCH,DE,199712119,,67 REHOBOTH AVEREHOBOTH BCHDE
8111 SMITH'S MILL RD,,CAMDEN,DE,43054,,8111 SMITH'S MILL RDCAMDENDE
HARDEES OF SMYRNA 100 JIMMY DR,,SMYRNA,DE,19977,,HARDEES OF SMYRNA 100 JIMMY DRSMYRNADE
12418 SUSSEX HWY,,GREENWOOD,DE,199505447,,12418 SUSSEX HWYGREENWOODDE
22168 DUPONT BLVD,,GEORGETOWN,DE,199473181,,22168 DUPONT BLVDGEORGETOWNDE
3826 KENNETT PIKE,,WILMINGTON,DE,198072302,,3826 KENNETT PIKEWILMINGTONDE
24832 JOHN J WILLIAMS HWY UNIT 3,,MILLSBORO,DE,199664997,,24832 JOHN J WILLIAMS HWY UNIT 3MILLSBORODE
3549 SILVERSIDE RD,,WILMINGTON,DE,198104922,,3549 SILVERSIDE RDWILMINGTONDE
19238 COASTAL HWY,,REHOBOTH BCH,DE,199716116,,19238 COASTAL HWYREHOBOTH BCHDE
84 ATLANTIC AVE,,OCEAN VIEW,DE,199709107,,84 ATLANTIC AVEOCEAN VIEWDE
610 NEWARK SHOPPING CTR,,NEWARK,DE,197117326,,610 NEWARK SHOPPING CTRNEWARKDE
545 N DUPONT HWY,,DOVER,DE,199013960,,545 N DUPONT HWYDOVERDE
430 OLD BALTIMORE PIKE STE 5,UNITS C & D JENMAR PLAZA,NEWARK,DE,197028410,,430 OLD BALTIMORE PIKE STE 5NEWARKDE
7288 LANCASTER PIKE STE 2B,,HOCKESSIN,DE,197079274,,7288 LANCASTER PIKE STE 2BHOCKESSINDE
1704-1706 FAULKLAND RD,,WILMINGTON,DE,19805,,1704-1706 FAULKLAND RDWILMINGTONDE
2113 CONCORD PIKE,,WILMINGTON,DE,198032906,,2113 CONCORD PIKEWILMINGTONDE
101 GARFIELD PARKWAY STORE # 10,,BETHANY BEACH,DE,19930,,101 GARFIELD PARKWAY STORE # 10BETHANY BEACHDE
1100 KIRKWOOD HWY APT 3,,WILMINGTON,DE,198052105,,1100 KIRKWOOD HWY APT 3WILMINGTONDE
800 N DUPONT RD,,WILMINGTON,DE,198072920,,800 N DUPONT RDWILMINGTONDE
18742 COASTAL HWY,,REHOBOTH BCH,DE,199716149,,18742 COASTAL HWYREHOBOTH BCHDE
675 N DUPONT BLVD,,MILFORD,DE,199631001,,675 N DUPONT BLVDMILFORDDE
270 E MAIN ST,,NEWARK,DE,197117390,,270 E MAIN STNEWARKDE
1323 CHURCHMANS RD,,NEWARK,DE,197132100,,1323 CHURCHMANS RDNEWARKDE
213 ANGLERS RD,,LEWES,DE,199581151,,213 ANGLERS RDLEWESDE
3609 PHILADELPHIA PIKE,,CLAYMONT,DE,197033111,,3609 PHILADELPHIA PIKECLAYMONTDE
2122 SILVERSIDE RD,,WILMINGTON,DE,198104148,,2122 SILVERSIDE RDWILMINGTONDE
5337B LIMESTONE RD,,WILMINGTON,DE,198081222,,5337B LIMESTONE RDWILMINGTONDE
60 GEOFFREY DR STE 106,,NEWARK,DE,197133603,,60 GEOFFREY DR STE 106NEWARKDE
PO BOX 508,ITALIAN RESTAURANT,FREDERICA,DE,199460508,,PO BOX 508FREDERICADE
2507 CONCORD PIKE,,WILMINGTON,DE,198035002,,2507 CONCORD PIKEWILMINGTONDE
30428 SUSSEX HWY,,LAUREL,DE,199563832,,30428 SUSSEX HWYLAURELDE
100 FITNESS WAY,,HOCKESSIN,DE,197072423,,100 FITNESS WAYHOCKESSINDE
123 E DUPONT HWY,,MILLSBORO,DE,199661804,,123 E DUPONT HWYMILLSBORODE
36707 CROOKED HAMMOCK WAY,,LEWES,DE,199584877,,36707 CROOKED HAMMOCK WAYLEWESDE
3505 SILVERSIDE RD STE 101,101,WILMINGTON,DE,198104905,,3505 SILVERSIDE RD STE 101WILMINGTONDE
230 EAST MAIN ST STE 618,,NEWARK,DE,197113235,,230 EAST MAIN ST STE 618NEWARKDE
4738 LIMESTONE RD UNIT 16,,WILMINGTON,DE,198081928,,4738 LIMESTONE RD UNIT 16WILMINGTONDE
2909 1/2 CONCORD PIKE,,WILMINGTON,DE,198035010,,2909 1/2 CONCORD PIKEWILMINGTONDE
20750 JOHN J WILLIAMS HWY,UNIT 11,LEWES,DE,199584399,,20750 JOHN J WILLIAMS HWYLEWESDE
907 S CHAPEL ST,,NEWARK,DE,197133419,,907 S CHAPEL STNEWARKDE
2496 PULASKI HWY,,NEWARK,DE,197023906,,2496 PULASKI HWYNEWARKDE
29A TROLLEY SQ,,WILMINGTON,DE,198063334,,29A TROLLEY SQWILMINGTONDE
851 NORMAN ESKRIDGE HWY,,SEAFORD,DE,199731717,,851 NORMAN ESKRIDGE HWYSEAFORDDE
90 E MAIN ST,,NEWARK,DE,197114683,,90 E MAIN STNEWARKDE
136 LANTONA SQUARE DR,,HOCKESSIN,DE,19707,,136 LANTONA SQUARE DRHOCKESSINDE
941 N DUPONT BLVD,,MILFORD,DE,199631069,,941 N DUPONT BLVDMILFORDDE
316 S MARYLAND AVE,,WILMINGTON,DE,198041345,,316 S MARYLAND AVEWILMINGTONDE
26454 LEWES GEORGETOWN HWY,,HARBESON,DE,199519990,,26454 LEWES GEORGETOWN HWYHARBESONDE
36453 SEASIDE OUTLET DR,,REHOBOTH BCH,DE,199711211,,36453 SEASIDE OUTLET DRREHOBOTH BCHDE
1801 GILPIN AVE,,WILMINGTON,DE,198062305,,1801 GILPIN AVEWILMINGTONDE
1211 N DUPONT HWY,,DOVER,DE,199012250,,1211 N DUPONT HWYDOVERDE
313 PLANTATION DR,,SEAFORD,DE,199735778,,313 PLANTATION DRSEAFORDDE
1503 N DUPONT HWY,,NEW CASTLE,DE,197201901,,1503 N DUPONT HWYNEW CASTLEDE
30141 COMMERCE DR # 9,,MILLSBORO,DE,199663591,,30141 COMMERCE DR # 9MILLSBORODE
3604 LANCASTER PIKE,,WILMINGTON,DE,198051600,,3604 LANCASTER PIKEWILMINGTONDE
RT 1 OCEAN BAY PLAZA #6,,SELBYVILLE,DE,199759801,,RT 1 OCEAN BAY PLAZA #6SELBYVILLEDE
17644 COASTAL HWY STE 5,,LEWES,DE,199586257,,17644 COASTAL HWY STE 5LEWESDE
115 E MARKET ST,,GEORGETOWN,DE,199471405,,115 E MARKET STGEORGETOWNDE
290 UNIVERSITY PLZ,,NEWARK,DE,197021550,,290 UNIVERSITY PLZNEWARKDE
1700 PHILADELPHIA PIKE,,WILMINGTON,DE,198091543,,1700 PHILADELPHIA PIKEWILMINGTONDE
42 GREENBRIDGE DR,,NEWARK,DE,197131642,,42 GREENBRIDGE DRNEWARKDE
72 E MAIN ST,,NEWARK,DE,197114640,,72 E MAIN STNEWARKDE
PO BOX 5599,,NEWARK,DE,197145599,,PO BOX 5599NEWARKDE
2072 NAAMANS RD,,WILMINGTON,DE,198102655,,2072 NAAMANS RDWILMINGTONDE
RT 13 - DUPONT HWY,,SMYRNA,DE,19977,,RT 13 - DUPONT HWYSMYRNADE
1301 GOVERNORS PL,,BEAR,DE,197013051,,1301 GOVERNORS PLBEARDE
2802 CONCORD PIKE,,WILMINGTON,DE,198035009,,2802 CONCORD PIKEWILMINGTONDE
1812 MARSH RD STE 11,,WILMINGTON,DE,198104533,,1812 MARSH RD STE 11WILMINGTONDE
1663 PULASKI HWY,,BEAR,DE,197011453,,1663 PULASKI HWYBEARDE
269 N DUPONT HWY,,NEW CASTLE,DE,197206454,,269 N DUPONT HWYNEW CASTLEDE
3 S MAIN ST,,MAGNOLIA,DE,199626208,,3 S MAIN STMAGNOLIADE
203 NEWARK SHOPPING CTR,,NEWARK,DE,197117301,,203 NEWARK SHOPPING CTRNEWARKDE
4713 KIRKWOOD HWY,,WILMINGTON,DE,198085007,,4713 KIRKWOOD HWYWILMINGTONDE
368 MILFORD HARRINGTON HWY,,MILFORD,DE,199635304,,368 MILFORD HARRINGTON HWYMILFORDDE
40 MARROWS RD,,NEWARK,DE,197133702,,40 MARROWS RDNEWARKDE
3322 OLD CAPITOL TRL,,WILMINGTON,DE,198086236,,3322 OLD CAPITOL TRLWILMINGTONDE
17 W MAIN ST,,NEWARK,DE,197166197,,17 W MAIN STNEWARKDE
417 N CENTRAL AVE,,LAUREL,DE,199561127,,417 N CENTRAL AVELAURELDE
1323 MCKENNANS CHURCH RD STE 102,,WILMINGTON,DE,198082132,,1323 MCKENNANS CHURCH RD STE 102WILMINGTONDE
100 CREEK VIEW RD,,NEWARK,DE,197118538,,100 CREEK VIEW RDNEWARKDE
381 S DUPONT HWY,,NEW CASTLE,DE,197204641,,381 S DUPONT HWYNEW CASTLEDE
20376 COASTAL HWY BLDG C,BUILDING C,REHOBOTH BCH,DE,199718015,,20376 COASTAL HWY BLDG CREHOBOTH BCHDE
8 THE STRAND,,HST NEWCASTLE,DE,197204826,,8 THE STRANDHST NEWCASTLEDE
815 S COLLEGE AVE,,NEWARK,DE,197134001,,815 S COLLEGE AVENEWARKDE
243 CHRISTIANA RD,,NEW CASTLE,DE,197202907,,243 CHRISTIANA RDNEW CASTLEDE
37085 COASTAL HWY,,FENWICK ISLAND,DE,199444057,,37085 COASTAL HWYFENWICK ISLANDDE
1047 WALKER RD,,DOVER,DE,199046572,,1047 WALKER RDDOVERDE
22277 LEWES GEORGETOWN HWY,22277LEWES GEORGETOWN HWY,GEORGETOWN,DE,199475526,,22277 LEWES GEORGETOWN HWYGEORGETOWNDE
111 DELAWARE AVE,,LAUREL,DE,199561104,,111 DELAWARE AVELAURELDE
301 COLLEGE PARK LN,,GEORGETOWN,DE,199472111,,301 COLLEGE PARK LNGEORGETOWNDE
9781 ROUTE 13 NORTH,,FELTON,DE,19943,,9781 ROUTE 13 NORTHFELTONDE
2515 KIRKWOOD HWY # 41,,NEWARK,DE,197117249,,2515 KIRKWOOD HWY # 41NEWARKDE
2351 GLASGOW AVE,,NEWARK,DE,197023920,,2351 GLASGOW AVENEWARKDE
1020 N UNION ST STE B,,WILMINGTON,DE,198052736,,1020 N UNION ST STE BWILMINGTONDE
231 SHETLAND DR,,NEW CASTLE,DE,197208800,,231 SHETLAND DRNEW CASTLEDE
37254 SANDPIPER RD,,MILLSBORO,DE,199666840,,37254 SANDPIPER RDMILLSBORODE
194 S DUPONT HWY,,NEW CASTLE,DE,197204265,,194 S DUPONT HWYNEW CASTLEDE
309 ROCKY RUN PKWY,,WILMINGTON,DE,198031522,,309 ROCKY RUN PKWYWILMINGTONDE
403 N CENTRAL AVE,,LAUREL,DE,199561108,,403 N CENTRAL AVELAURELDE
103 N LINCOLN ST,,WILMINGTON,DE,198053411,,103 N LINCOLN STWILMINGTONDE
1000 MIDWAY SHOPPING CENTER,,HARRINGTON,DE,19952,,1000 MIDWAY SHOPPING CENTERHARRINGTONDE
34814 LONG NECK RD,,MILLSBORO,DE,199664323,,34814 LONG NECK RDMILLSBORODE
680 S BAY RD,,DOVER,DE,199014604,,680 S BAY RDDOVERDE
1505 N DUPONT HWY,,NEW CASTLE,DE,197201901,,1505 N DUPONT HWYNEW CASTLEDE
3211 CONCORD PIKE,,WILMINGTON,DE,198035014,,3211 CONCORD PIKEWILMINGTONDE
53 E GLENWOOD AVE,,SMYRNA,DE,199771475,,53 E GLENWOOD AVESMYRNADE
23412 SUSSEX HWY,,SEAFORD,DE,199735867,,23412 SUSSEX HWYSEAFORDDE
514 CASAPULLA AVENUE,,ELSMERE,DE,19805,,514 CASAPULLA AVENUEELSMEREDE
120 LANTANA DR,,HOCKESSIN,DE,197078800,,120 LANTANA DRHOCKESSINDE
34527 BRANCH SCHOOL RD,,LAUREL,DE,199564182,,34527 BRANCH SCHOOL RDLAURELDE
1159 N DUPONT HWY,,DOVER,DE,199012008,,1159 N DUPONT HWYDOVERDE
100 GARFIELD PKWY,,BETHANY BEACH,DE,199307705,,100 GARFIELD PKWYBETHANY BEACHDE
30415 CEDAR NECK RD,,OCEAN VIEW,DE,199702744,,30415 CEDAR NECK RDOCEAN VIEWDE
MARSH RD & SILVERSIDE RD,SHOPPES OF GRAYLYN,WILMINGTON,DE,19803,,MARSH RD & SILVERSIDE RDWILMINGTONDE
18423 COASTAL HWY STE 201,,REHOBOTH BCH,DE,199716189,,18423 COASTAL HWY STE 201REHOBOTH BCHDE
33544 MARKET PL,,BETHANY BEACH,DE,199303721,,33544 MARKET PLBETHANY BEACHDE
10 POSSUM PARK RD,,NEWARK,DE,197113858,,10 POSSUM PARK RDNEWARKDE
108 SILICATO PKWY,,MILFORD,DE,199631266,,108 SILICATO PKWYMILFORDDE
4019 KENNETT PIKE,,GREENVILLE,DE,198072018,,4019 KENNETT PIKEGREENVILLEDE
5234 SUMMIT BRIDGE RD,,MIDDLETOWN,DE,197098822,,5234 SUMMIT BRIDGE RDMIDDLETOWNDE
2499 S DUPONT BLVD STE F,,SMYRNA,DE,199778222,,2499 S DUPONT BLVD STE FSMYRNADE
122A REHOBOTH AVE,,REHOBOTH BCH,DE,199712136,,122A REHOBOTH AVEREHOBOTH BCHDE
222 S CHAPEL ST RM 133,UNIVERSITY OF DELAWARE,NEWARK,DE,197164701,,222 S CHAPEL ST RM 133NEWARKDE
802 KOHL AVE,,MIDDLETOWN,DE,197094703,,802 KOHL AVEMIDDLETOWNDE
802 DELAWARE AVE,,WILMINGTON,DE,198011377,,802 DELAWARE AVEWILMINGTONDE
4657 OGLETOWN STANTON RD,,NEWARK,DE,197132006,,4657 OGLETOWN STANTON RDNEWARKDE
9C UNIVERSITY PLZ,,NEWARK,DE,197021549,,9C UNIVERSITY PLZNEWARKDE
CONCORD MALL,CONCORD MALL,WILMINGTON,DE,198031442,,CONCORD MALLWILMINGTONDE
301 LITTLE FALLS DR,,WILMINGTON,DE,198081675,,301 LITTLE FALLS DRWILMINGTONDE
110 ASTRO SHOPPING CTR,,NEWARK,DE,197117254,,110 ASTRO SHOPPING CTRNEWARKDE
19330 LIGHTHOUSE PLAZA BLVD,UNIT 1,REHOBOTH BCH,DE,199716161,,19330 LIGHTHOUSE PLAZA BLVDREHOBOTH BCHDE
801 MCKENNANS CHURCH RD,,WILMINGTON,DE,198082183,,801 MCKENNANS CHURCH RDWILMINGTONDE
1382 S DUPONT BLVD,,SMYRNA,DE,199771804,,1382 S DUPONT BLVDSMYRNADE
1401 GOVERNORS PL,,BEAR,DE,197013052,,1401 GOVERNORS PLBEARDE
2502 FOULK RD,,WILMINGTON,DE,198101420,,2502 FOULK RDWILMINGTONDE
1819 PENNSYLVANIA AVE,,WILMINGTON,DE,198064037,,1819 PENNSYLVANIA AVEWILMINGTONDE
1017 W STEIN HWY,,SEAFORD,DE,199731146,,1017 W STEIN HWYSEAFORDDE
26370 BAY FARM RD UNIT 1,,MILLSBORO,DE,199664904,,26370 BAY FARM RD UNIT 1MILLSBORODE
31806 GOOD EARTH LN,,OCEAN VIEW,DE,199703561,,31806 GOOD EARTH LNOCEAN VIEWDE
329 SAVANNAH RD,,LEWES,DE,199581438,,329 SAVANNAH RDLEWESDE
488 BEAR CHRISTIANA RD,,BEAR,DE,197011039,,488 BEAR CHRISTIANA RDBEARDE
25938 PLAZA DR # D-31,,MILLSBORO,DE,199666290,,25938 PLAZA DR # D-31MILLSBORODE
23 S DUPONT HWY,,DOVER,DE,199017430,,23 S DUPONT HWYDOVERDE
4147 CONCORD PIKE,,WILMINGTON,DE,198031487,,4147 CONCORD PIKEWILMINGTONDE
1365 N DUPONT HWY,DOVER MALL,DOVER,DE,199018710,,1365 N DUPONT HWYDOVERDE
519 E BASIN RD,,NEW CASTLE,DE,197204230,,519 E BASIN RDNEW CASTLEDE
32A WILMINGTON AVE,,REHOBOTH BCH,DE,199712217,,32A WILMINGTON AVEREHOBOTH BCHDE
103 S BOARDWALK,,REHOBOTH BEACH,DE,199712931,,103 S BOARDWALKREHOBOTH BEACHDE
20 N PENNSYLVANIA AVE,,DELMAR,DE,199401132,,20 N PENNSYLVANIA AVEDELMARDE
23415 SUSSEX HWY,,SEAFORD,DE,199735875,,23415 SUSSEX HWYSEAFORDDE
296 W CLARENDON DR,,SMYRNA,DE,199774045,,296 W CLARENDON DRSMYRNADE
2707 CONCORD PIKE,,WILMINGTON,DE,198035006,,2707 CONCORD PIKEWILMINGTONDE
413 N MARKET ST,,WILMINGTON,DE,198013002,,413 N MARKET STWILMINGTONDE
1002 S COLLEGE AVE,,NEWARK,DE,197132306,,1002 S COLLEGE AVENEWARKDE
5611 CONCORD PIKE,LLC,WILMINGTON,DE,198031428,,5611 CONCORD PIKEWILMINGTONDE
1228 CAPITOL TRL,,NEWARK,DE,197113924,,1228 CAPITOL TRLNEWARKDE
2461 S STATE ST,,DOVER,DE,199016304,,2461 S STATE STDOVERDE
515 COLLEGE PARK LN,SHOPPES AT COLLEGE PARK,GEORGETOWN,DE,199472113,,515 COLLEGE PARK LNGEORGETOWNDE
649 N DUPONT BLVD,,MILFORD,DE,199631098,,649 N DUPONT BLVDMILFORDDE
108 LOUVIERS DR,,NEWARK,DE,197114163,,108 LOUVIERS DRNEWARKDE
3801 KENNETT PIKE STE E220,E220,GREENVILLE,DE,198072340,,3801 KENNETT PIKE STE E220GREENVILLEDE
1307 CHURCHMANS RD,,NEWARK,DE,197132100,,1307 CHURCHMANS RDNEWARKDE
241 N DUPONT HWY,,NEW CASTLE,DE,197206454,,241 N DUPONT HWYNEW CASTLEDE
5343 LIMESTONE RD,,WILMINGTON,DE,198081222,,5343 LIMESTONE RDWILMINGTONDE
1607 PULASKI HWY,,BEAR,DE,197011453,,1607 PULASKI HWYBEARDE
215 NE FRONT ST,,MILFORD,DE,199631431,,215 NE FRONT STMILFORDDE
907 COASTAL HWY,,FENWICK ISLE,DE,199444418,,907 COASTAL HWYFENWICK ISLEDE
624 N SCOTT ST,,WILMINGTON,DE,198053022,,624 N SCOTT STWILMINGTONDE
402 EAGLE RUN RD,,NEWARK,DE,197021603,,402 EAGLE RUN RDNEWARKDE
320 REHOBOTH AVE,,REHOBOTH BCH,DE,199713108,,320 REHOBOTH AVEREHOBOTH BCHDE
1 WILMINGTON AVE,,REHOBOTH BCH,DE,199712925,,1 WILMINGTON AVEREHOBOTH BCHDE
2709 N MARKET ST,,WILMINGTON,DE,198023626,,2709 N MARKET STWILMINGTONDE
605 SMYRNA LANDING RD,,SMYRNA,DE,199779651,,605 SMYRNA LANDING RDSMYRNADE
28523 DUPONT BLVD,,MILLSBORO,DE,199664798,,28523 DUPONT BLVDMILLSBORODE
146 REHOBOTH AVE # UNIN2,,DEWEY BEACH,DE,199712199,,146 REHOBOTH AVE # UNIN2DEWEY BEACHDE
RR 1,MIDWAY SHOPPING CTR,REHOBOTH BCH,DE,199719801,,RR 1REHOBOTH BCHDE
32580 RIVER RD,serendipity restaurant,MILLSBORO,DE,199662552,,32580 RIVER RDMILLSBORODE
412 5TH AVE,,WILMINGTON,DE,198084916,,412 5TH AVEWILMINGTONDE
150 STADIUM ST,,SMYRNA,DE,199772813,,150 STADIUM STSMYRNADE
400 DAVID HOLLOWELL DR,,NEWARK,DE,197167448,,400 DAVID HOLLOWELL DRNEWARKDE
3 PRESIDENT DR,,DOVER,DE,199015269,,3 PRESIDENT DRDOVERDE
230 S DUPONT BLVD,,SMYRNA,DE,199771573,,230 S DUPONT BLVDSMYRNADE
23A REHOBOTH AVE,,REHOBOTH BCH,DE,199712119,,23A REHOBOTH AVEREHOBOTH BCHDE
315 REHOBOTH AVE,,REHOBOTH BCH,DE,199713127,,315 REHOBOTH AVEREHOBOTH BCHDE
723 ACE MEMORIAL DR,,HOCKESSIN,DE,197071037,,723 ACE MEMORIAL DRHOCKESSINDE
34401 TENLEY CT,,LEWES,DE,199584200,,34401 TENLEY CTLEWESDE
3858 KENNETT PIKE,,GREENVILLE,DE,198072302,,3858 KENNETT PIKEGREENVILLEDE
698 OLD BALTIMORE PIKE,,NEWARK,DE,197021312,,698 OLD BALTIMORE PIKENEWARKDE
209 B-E NE FRONT ST,,MILFORD,DE,19963,,209 B-E NE FRONT STMILFORDDE
3901A CONCORD PIKE,,WILMINGTON,DE,198031715,,3901A CONCORD PIKEWILMINGTONDE
24043 SUSSEX HWY,,SEAFORD,DE,199735873,,24043 SUSSEX HWYSEAFORDDE
3 BACK BAY PARK CENTER STE F,,MILLSBORO,DE,199668789,,3 BACK BAY PARK CENTER STE FMILLSBORODE
247 REHOBOTH AVE UNIT C,,REHOBOTH BCH,DE,199711908,,247 REHOBOTH AVE UNIT CREHOBOTH BCHDE
4302 KIRKWOOD HWY,,WILMINGTON,DE,198085114,,4302 KIRKWOOD HWYWILMINGTONDE
1301 COASTAL HWY,,DEWEY BEACH,DE,199712416,,1301 COASTAL HWYDEWEY BEACHDE
108 PEOPLES PLZ,,NEWARK,DE,197024794,,108 PEOPLES PLZNEWARKDE
789 GARFIELD PKWY,ROBERT DIFEBO,BETHANY BEACH,DE,199309717,,789 GARFIELD PKWYBETHANY BEACHDE
117 HIGH ST UNIT 101,,SEAFORD,DE,199733948,,117 HIGH ST UNIT 101SEAFORDDE
20750 JOHN J WILLIAMS HWY UNIT 4,,LEWES,DE,199584399,,20750 JOHN J WILLIAMS HWY UNIT 4LEWESDE
3 GEORGETOWN PLZ,,GEORGETOWN,DE,199472300,,3 GEORGETOWN PLZGEORGETOWNDE
11290 TRUSSUM POND RD,,LAUREL,DE,199564592,,11290 TRUSSUM POND RDLAURELDE
400 LANTANA DR,,HOCKESSIN,DE,197078809,,400 LANTANA DRHOCKESSINDE
20 CARPENTER PLZ,,WILMINGTON,DE,198102049,,20 CARPENTER PLZWILMINGTONDE
110 E GLENWOOD AVE,,SMYRNA,DE,199771003,,110 E GLENWOOD AVESMYRNADE
2320 N MARKET ST,,WILMINGTON,DE,198024230,,2320 N MARKET STWILMINGTONDE
5240 SUMMIT BRIDGE RD,STORE 44,MIDDLETOWN,DE,197098822,,5240 SUMMIT BRIDGE RDMIDDLETOWNDE
425 HOCKESSIN CORS,425 HOCKESSIN CORS,HOCKESSIN,DE,197079586,,425 HOCKESSIN CORSHOCKESSINDE
511 N BOARDWALK,,REHOBOTH BCH,DE,199712162,,511 N BOARDWALKREHOBOTH BCHDE
815 ARTHUR SPRINGS LN,,NEW CASTLE,DE,197208773,,815 ARTHUR SPRINGS LNNEW CASTLEDE
401 N MARKET ST,,WILMINGTON,DE,198013002,,401 N MARKET STWILMINGTONDE
1531 MARYLAND AVE,,WILMINGTON,DE,198054770,,1531 MARYLAND AVEWILMINGTONDE
96 SALT CREEK DR UNIT 8,,DOVER,DE,199012437,,96 SALT CREEK DR UNIT 8DOVERDE
4723 KIRKWOOD HWY,,WILMINGTON,DE,198085014,,4723 KIRKWOOD HWYWILMINGTONDE
300 ROCKY RUN PKWY,,WILMINGTON,DE,198031515,,300 ROCKY RUN PKWYWILMINGTONDE
1611 PENNSYLVANIA AVE,,WILMINGTON,DE,198064017,,1611 PENNSYLVANIA AVEWILMINGTONDE
328 W STEIN HWY,,SEAFORD,DE,199731335,,328 W STEIN HWYSEAFORDDE
30904 COASTAL HWY,,BETHANY BEACH,DE,199303414,,30904 COASTAL HWYBETHANY BEACHDE
300 EDEN CIR,,BEAR,DE,197014303,,300 EDEN CIRBEARDE
2702 PHILADELPHIA PIKE,,CLAYMONT,DE,197032512,,2702 PHILADELPHIA PIKECLAYMONTDE
13A TROLLEY SQ,,WILMINGTON,DE,198063334,,13A TROLLEY SQWILMINGTONDE
1318 OLD LANCASTER PIKE,,HOCKESSIN,DE,197079557,,1318 OLD LANCASTER PIKEHOCKESSINDE
221 NE FRONT ST,,MILFORD,DE,199631431,,221 NE FRONT STMILFORDDE
75 KINGS CREEK CIR,,REHOBOTH BCH,DE,199711059,,75 KINGS CREEK CIRREHOBOTH BCHDE
1412 N DUPONT ST,,WILMINGTON,DE,198064030,,1412 N DUPONT STWILMINGTONDE
22920 SUSSEX HWY,,SEAFORD,DE,199735868,,22920 SUSSEX HWYSEAFORDDE
2271 S STATE ST,,DOVER,DE,199016302,,2271 S STATE STDOVERDE
1030 FORREST AVE STE 106,,DOVER,DE,199043382,,1030 FORREST AVE STE 106DOVERDE
240 FOXHUNT DR,,BEAR,DE,197012536,,240 FOXHUNT DRBEARDE
6 N PENNSYLVANIA AVE,,BETHANY BEACH,DE,199309746,,6 N PENNSYLVANIA AVEBETHANY BEACHDE
1809 JAYBEE RD,,WILMINGTON,DE,198033345,,1809 JAYBEE RDWILMINGTONDE
4301 KIRKWOOD HWY,,WILMINGTON,DE,198085113,,4301 KIRKWOOD HWYWILMINGTONDE
35 CHESTNUT HILL PLZ,,NEWARK,DE,197132701,,35 CHESTNUT HILL PLZNEWARKDE
1917 LANCASTER AVE,,WILMINGTON,DE,198053807,,1917 LANCASTER AVEWILMINGTONDE
614 HEATHERFIELD DR,,BEAR,DE,197012590,,614 HEATHERFIELD DRBEARDE
1812 MARSH RD STE 306,BRANMAR PLAZA,WILMINGTON,DE,198104532,,1812 MARSH RD STE 306WILMINGTONDE
101 N BOARDWALK,,REHOBOTH BCH,DE,199712160,,101 N BOARDWALKREHOBOTH BCHDE
230 W MAIN ST STE 209,,NEWARK,DE,197113235,,230 W MAIN ST STE 209NEWARKDE
107 UNION ST,,MILTON,DE,199681617,,107 UNION STMILTONDE
4805 LIMESTONE RD,,WILMINGTON,DE,198081902,,4805 LIMESTONE RDWILMINGTONDE
20214 COASTAL HWY # 1,,REHOBOTH BCH,DE,199718021,,20214 COASTAL HWY # 1REHOBOTH BCHDE
560 PEOPLES PLZ STE 310,,NEWARK,DE,197024798,,560 PEOPLES PLZ STE 310NEWARKDE
416 E SAVANNAH RD,,LEWES,DE,199581133,,416 E SAVANNAH RDLEWESDE
126 E MAIN ST,,NEWARK,DE,197117308,,126 E MAIN STNEWARKDE
RT 273 & CHAPMAN RD,,NEW CASTLE,DE,19720,,RT 273 & CHAPMAN RDNEW CASTLEDE
349 N DUPONT BLVD,,SMYRNA,DE,199771081,,349 N DUPONT BLVDSMYRNADE
72 RACHEL DR,,HARRINGTON,DE,199522495,,72 RACHEL DRHARRINGTONDE
36347 DERRICKSON DR,,SELBYVILLE,DE,199753941,,36347 DERRICKSON DRSELBYVILLEDE
30214 SUSSEX HWY UNIT 6,,LAUREL,DE,199563880,,30214 SUSSEX HWY UNIT 6LAURELDE
33260 COASTAL HWY UNIT 8,,BETHANY BEACH,DE,199303780,,33260 COASTAL HWY UNIT 8BETHANY BEACHDE
4601 OGLETOWN STANTON RD,,NEWARK,DE,197132006,,4601 OGLETOWN STANTON RDNEWARKDE
38932 MADISON AVE.,,SELBYVILLE,DE,19975,,38932 MADISON AVE.SELBYVILLEDE
755 MIDDLETOWN WARWICK RD,,MIDDLETOWN,DE,197099095,,755 MIDDLETOWN WARWICK RDMIDDLETOWNDE
1319 CARRUTHERS LN,,WILMINGTON,DE,198034601,,1319 CARRUTHERS LNWILMINGTONDE
US RT 113 &STATE ROAD 338,,MILLSBORO,DE,19966,,US RT 113 &STATE ROAD 338MILLSBORODE
38650 SUSSEX HWY UNIT 4,,DELMAR,DE,199403527,,38650 SUSSEX HWY UNIT 4DELMARDE
1100 N MARKET ST,,WILMINGTON,DE,198011243,,1100 N MARKET STWILMINGTONDE
306 MAIN ST UNIT A,,CLAYTON,DE,199387701,,306 MAIN ST UNIT ACLAYTONDE
31225 AMERICANA PKWY UNIT 6,,SELBYVILLE,DE,199753793,,31225 AMERICANA PKWY UNIT 6SELBYVILLEDE
18544 BEAVER DAM RD,,LEWES,DE,199584531,,18544 BEAVER DAM RDLEWESDE
30217 COMMERCE DR,,MILLSBORO,DE,199663591,,30217 COMMERCE DRMILLSBORODE
1801 W 14TH ST,,WILMINGTON,DE,198064050,,1801 W 14TH STWILMINGTONDE
23 PENN MART SHOPPING CTR,,NEW CASTLE,DE,197204206,,23 PENN MART SHOPPING CTRNEW CASTLEDE
127 E MAIN ST,,NEWARK,DE,197117312,,127 E MAIN STNEWARKDE
15 E GLENWOOD AVE,,SMYRNA,DE,199771423,,15 E GLENWOOD AVESMYRNADE
287 CHRISTIANA RD STE 26,,NEW CASTLE,DE,197202978,,287 CHRISTIANA RD STE 26NEW CASTLEDE
1735 MARSH RD,,WILMINGTON,DE,198104607,,1735 MARSH RDWILMINGTONDE
19287 MILLER RD UNIT 1,,REHOBOTH BCH,DE,199716124,,19287 MILLER RD UNIT 1REHOBOTH BCHDE
301 S MARYLAND AVE,,WILMINGTON,DE,198041377,,301 S MARYLAND AVEWILMINGTONDE
223 NE FRONT ST,,MILFORD,DE,199631431,,223 NE FRONT STMILFORDDE
18388 COASTAL HWY UNIT 1,,LEWES,DE,199584204,,18388 COASTAL HWY UNIT 1LEWESDE
22079 DUPONT BLVD,,GEORGETOWN,DE,199473166,,22079 DUPONT BLVDGEORGETOWNDE
883 ALLABANDS MILL RD,,CAMDEN WYO,DE,199342132,,883 ALLABANDS MILL RDCAMDEN WYODE
1224 FORREST AVE,,DOVER,DE,199043311,,1224 FORREST AVEDOVERDE
743 N BROAD ST,,MIDDLETOWN,DE,197091166,,743 N BROAD STMIDDLETOWNDE
2009 COASTAL HWY,,DEWEY BEACH,DE,199712318,,2009 COASTAL HWYDEWEY BEACHDE
615 S MARYLAND AVE,,WILMINGTON,DE,198041631,,615 S MARYLAND AVEWILMINGTONDE
100 S MAIN ST,,NEWARK,DE,197117963,,100 S MAIN STNEWARKDE
17065 S DUPONT HWY,,HARRINGTON,DE,199527403,,17065 S DUPONT HWYHARRINGTONDE
1225 CHURCHMANS RD STE 125,,NEWARK,DE,197132149,,1225 CHURCHMANS RD STE 125NEWARKDE
20376 COASTAL HWY,GROTTO PIZZA,REHOBOTH BCH,DE,199718015,,20376 COASTAL HWYREHOBOTH BCHDE
PO BOX 653,,REHOBOTH BCH,DE,199710653,,PO BOX 653REHOBOTH BCHDE
550-560 EDEN CIRCLE,,BEAR,DE,19701,,550-560 EDEN CIRCLEBEARDE
1508 COASTAL HWY,,REHOBOTH BCH,DE,199712335,,1508 COASTAL HWYREHOBOTH BCHDE
707 PULASKI HWY STE 105,,BEAR,DE,197011200,,707 PULASKI HWY STE 105BEARDE
3252 FASHION CENTER BLVD,,NEWARK,DE,197023254,,3252 FASHION CENTER BLVDNEWARKDE
620 JUSTISON ST,,WILMINGTON,DE,198015153,,620 JUSTISON STWILMINGTONDE
13 SOUTH BOARDWALK,WILMINGTON AVE & BOARDWALK,REHOBOTH BEACH,DE,199710423,,13 SOUTH BOARDWALKREHOBOTH BEACHDE
3416 PHILADELPHIA PIKE,,CLAYMONT,DE,197033112,,3416 PHILADELPHIA PIKECLAYMONTDE
301 REHOBOTH AVE UNIT I,,REHOBOTH BCH,DE,199713237,,301 REHOBOTH AVE UNIT IREHOBOTH BCHDE
1607 PHILADELPHIA PIKE,,WILMINGTON,DE,198091540,,1607 PHILADELPHIA PIKEWILMINGTONDE
110 N DUPONT HWY # 104,NEW CASTLE FARMERS MKT,NEW CASTLE,DE,197203102,,110 N DUPONT HWY # 104NEW CASTLEDE
PO BOX 975,,BETHANY BEACH,DE,199300975,,PO BOX 975BETHANY BEACHDE
15 W RIDER RD,,HARRINGTON,DE,199523322,,15 W RIDER RDHARRINGTONDE
325 MAIN ST,,TOWNSEND,DE,197347725,,325 MAIN STTOWNSENDDE
1100 W 2ND ST,,WILMINGTON,DE,198053619,,1100 W 2ND STWILMINGTONDE
36347 LIGHTHOUSE RD,,SELBYVILLE,DE,199753985,,36347 LIGHTHOUSE RDSELBYVILLEDE
23 BELLEVUE ST,,DEWEY BEACH,DE,199712301,,23 BELLEVUE STDEWEY BEACHDE
4209 CONCORD PIKE,,WILMINGTON,DE,198031403,,4209 CONCORD PIKEWILMINGTONDE
830 KOHL AVE,HEDGELAWN PLAZA,MIDDLETOWN,DE,197094703,,830 KOHL AVEMIDDLETOWNDE
391 N DUPONT HWY,,DOVER,DE,199013901,,391 N DUPONT HWYDOVERDE
941 N DUPONT BLVD,,MILFORD,DE,199631069,,941 N DUPONT BLVDMILFORDDE
7 E MARKET ST,,GEORGETOWN,DE,199471401,,7 E MARKET STGEORGETOWNDE
RT 4 BOX 490 US 13 & RD 468,,LAUREL,DE,199569515,,RT 4 BOX 490 US 13 & RD 468LAURELDE
127 REHOBOTH AVE STE B,,REHOBOTH BCH,DE,199712157,,127 REHOBOTH AVE STE BREHOBOTH BCHDE
1500 PEOPLES PLZ,,NEWARK,DE,197025608,,1500 PEOPLES PLZNEWARKDE
261 N DUPONT HWY STE 3B,,DOVER,DE,199017540,,261 N DUPONT HWY STE 3BDOVERDE
201 HUBBARD AVE,,FREDERICA,DE,199461249,,201 HUBBARD AVEFREDERICADE
1000 MIDWAY DR STE 12,,HARRINGTON,DE,199522448,,1000 MIDWAY DR STE 12HARRINGTONDE
701 N BROAD ST,,MIDDLETOWN,DE,197091166,,701 N BROAD STMIDDLETOWNDE
323 ATLANTIC AVE,,MILLVILLE,DE,199676702,,323 ATLANTIC AVEMILLVILLEDE
206 FOXHUNT DR,,BEAR,DE,197012536,,206 FOXHUNT DRBEARDE
800 W 4TH ST STE 302,,WILMINGTON,DE,198012044,,800 W 4TH ST STE 302WILMINGTONDE
115 MACARTHUR DR,,WILMINGTON,DE,198043534,,115 MACARTHUR DRWILMINGTONDE
5132 N DUPONT HWY,,DOVER,DE,199012338,,5132 N DUPONT HWYDOVERDE
113 DICKINSON ST,,DEWEY BEACH,DE,199712403,,113 DICKINSON STDEWEY BEACHDE
125 MCKINLEY AVE,,DEWEY BEACH,DE,199713204,,125 MCKINLEY AVEDEWEY BEACHDE
REED ST & HWY ONE,,DEWEY BEACH,DE,19971,,REED ST & HWY ONEDEWEY BEACHDE
101 S MARKET ST,,WILMINGTON,DE,198015201,,101 S MARKET STWILMINGTONDE
264 DOVE RUN CENTRE DR,,MIDDLETOWN,DE,197097971,,264 DOVE RUN CENTRE DRMIDDLETOWNDE
650 S COLLEGE AVE,,NEWARK,DE,197131315,,650 S COLLEGE AVENEWARKDE
401 E MAIN ST,,MIDDLETOWN,DE,197091491,,401 E MAIN STMIDDLETOWNDE
101 NEW RD,,WILMINGTON,DE,198054117,,101 NEW RDWILMINGTONDE
1015 S COLLEGE AVE,,NEWARK,DE,197132305,,1015 S COLLEGE AVENEWARKDE
4737 CONCORD PIKE STE 340,CONCORD MALL STORE 57,WILMINGTON,DE,198031438,,4737 CONCORD PIKE STE 340WILMINGTONDE
1365 N DUPONT HWY STE 3054,,DOVER,DE,199018724,,1365 N DUPONT HWY STE 3054DOVERDE
4301 CONCORD PIKE,,WILMINGTON,DE,198031461,,4301 CONCORD PIKEWILMINGTONDE
4003 CONCORD PIKE,,WILMINGTON,DE,198031717,,4003 CONCORD PIKEWILMINGTONDE
2160 NEW CASTLE AVE,,NEW CASTLE,DE,197202009,,2160 NEW CASTLE AVENEW CASTLEDE
511 S RED HAVEN LN,,DOVER,DE,199016483,,511 S RED HAVEN LNDOVERDE
39401 INLET RD,,REHOBOTH BCH,DE,199712600,,39401 INLET RDREHOBOTH BCHDE
2 NANTICOKE CROSSING PLZ UNIT 4,UNIT 4,MILLSBORO,DE,199669511,,2 NANTICOKE CROSSING PLZ UNIT 4MILLSBORODE
YORK BEACH MALL UNIT 4,,BETHANY BEACH,DE,19930,,YORK BEACH MALL UNIT 4BETHANY BEACHDE
27F ATLANTIC AVE,,OCEAN VIEW,DE,199709115,,27F ATLANTIC AVEOCEAN VIEWDE
1401 MIDDLEFORD RD,,SEAFORD,DE,199733613,,1401 MIDDLEFORD RDSEAFORDDE
2 W BASIN RD,,NEW CASTLE,DE,19707,,2 W BASIN RDNEW CASTLEDE
121 N MAIN ST STE 1,,CAMDEN,DE,199341253,,121 N MAIN ST STE 1CAMDENDE
2222 SILVERSIDE RD,,WILMINGTON,DE,198104502,,2222 SILVERSIDE RDWILMINGTONDE
867 S DUPONT HWY STE 1,,NEW CASTLE,DE,197204600,,867 S DUPONT HWY STE 1NEW CASTLEDE
20628 LONG BEACH DR,,MILLSBORO,DE,199664331,,20628 LONG BEACH DRMILLSBORODE
1230 FORREST AVE,,DOVER,DE,199043311,,1230 FORREST AVEDOVERDE
3900 N DUPONT HWY,,NEW CASTLE,DE,197206311,,3900 N DUPONT HWYNEW CASTLEDE
2601 CARPENTER STATION RD,2601 CARPENTER STATION ROAD,WILMINGTON,DE,198102056,,2601 CARPENTER STATION RDWILMINGTONDE
104 N UNION ST,,WILMINGTON,DE,198053428,,104 N UNION STWILMINGTONDE
18585 COASTAL HWY UNIT 8,,REHOBOTH BCH,DE,199716147,,18585 COASTAL HWY UNIT 8REHOBOTH BCHDE
6 STANTON RD,,WILMINGTON,DE,198043600,,6 STANTON RDWILMINGTONDE
920 N MONROE ST,,WILMINGTON,DE,198011383,,920 N MONROE STWILMINGTONDE
126 BROADKILL RD,,MILTON,DE,199681008,,126 BROADKILL RDMILTONDE
1810 S STATE ST,,DOVER,DE,199015810,,1810 S STATE STDOVERDE
136 E MAIN ST STE 500,,NEWARK,DE,197117308,,136 E MAIN ST STE 500NEWARKDE
308 FOXHUNT DR,,BEAR,DE,197012537,,308 FOXHUNT DRBEARDE
19917 SEA BLOSSOM BLVD,,REHOBOTH BCH,DE,199717142,,19917 SEA BLOSSOM BLVDREHOBOTH BCHDE
105 WILTON BLVD,,NEW CASTLE,DE,197203979,,105 WILTON BLVDNEW CASTLEDE
57 S MAIN ST STE 102,,NEWARK,DE,197114671,,57 S MAIN ST STE 102NEWARKDE
10 CREST DR,,HOCKESSIN,DE,197079772,,10 CREST DRHOCKESSINDE
19266 COASTAL HWY UNIT 6,,REHOBOTH BCH,DE,199716117,,19266 COASTAL HWY UNIT 6REHOBOTH BCHDE
22933 SUSSEX HWY,,SEAFORD,DE,199735871,,22933 SUSSEX HWYSEAFORDDE
200 BUCKLEY BLVD,,BEAR,DE,197011299,,200 BUCKLEY BLVDBEARDE
210 SAVANNAH RD,,LEWES,DE,199581448,,210 SAVANNAH RDLEWESDE
2015 LIMESTONE RD,,WILMINGTON,DE,198085529,,2015 LIMESTONE RDWILMINGTONDE
1151 E LEBANON RD # STOREA,,DOVER,DE,199015829,,1151 E LEBANON RD # STOREADOVERDE
1606 BAY RD,,MILFORD,DE,199636106,,1606 BAY RDMILFORDDE
21 S LITTLE CREEK RD,,DOVER,DE,199014798,,21 S LITTLE CREEK RDDOVERDE
42 W 11TH STREET,,WILMINGTON,DE,19801,,42 W 11TH STREETWILMINGTONDE
30511 CAVE NECK RD,,MILTON,DE,199683657,,30511 CAVE NECK RDMILTONDE
1 KINGS CREEK CIR,,REHOBOTH BCH,DE,199711034,,1 KINGS CREEK CIRREHOBOTH BCHDE
7288 LANCASTER PIKE STE 4A,,HOCKESSIN,DE,197079274,,7288 LANCASTER PIKE STE 4AHOCKESSINDE
211 STADIUM ST,GATEWAY NORTH SHOPPING CTR,SMYRNA,DE,199772899,,211 STADIUM STSMYRNADE
236 CHRISTIANA MALL,,NEWARK,DE,197023204,,236 CHRISTIANA MALLNEWARKDE
110 EAST ST,,CAMDEN,DE,199341381,,110 EAST STCAMDENDE
6100 BRANDYWINE PKWY,,WILMINGTON,DE,198031475,,6100 BRANDYWINE PKWYWILMINGTONDE
5914 KIRKWOOD HWY # 5916,,WILMINGTON,DE,198084815,,5914 KIRKWOOD HWY # 5916WILMINGTONDE
114 GARFIELD PKWY,,BETHANY BEACH,DE,199307705,,114 GARFIELD PKWYBETHANY BEACHDE
1713 PULASKI HWY,,BEAR,DE,197011711,,1713 PULASKI HWYBEARDE
33079 MAIN ST,,DAGSBORO,DE,199393801,,33079 MAIN STDAGSBORODE
37298 REHOBOTH AVENUE EXT,,REHOBOTH BCH,DE,199711690,,37298 REHOBOTH AVENUE EXTREHOBOTH BCHDE
1101 N DUPONT HWY # 1109,,NEW CASTLE,DE,197202538,,1101 N DUPONT HWY # 1109NEW CASTLEDE
11290 TRUSSUM POND RD,,LAUREL,DE,199564592,,11290 TRUSSUM POND RDLAURELDE
4200 N DUPONT HWY STE 1,,DOVER,DE,199012400,,4200 N DUPONT HWY STE 1DOVERDE
108 W MAIN ST,,NEWARK,DE,197113272,,108 W MAIN STNEWARKDE
117 GREENBANK RD,,WILMINGTON,DE,198084721,,117 GREENBANK RDWILMINGTONDE
30 WILMINGTON AVE,,REHOBOTH BCH,DE,199712217,,30 WILMINGTON AVEREHOBOTH BCHDE
630 SUBURBAN DR,,NEWARK,DE,197113569,,630 SUBURBAN DRNEWARKDE
7 REHOBOTH AVE,,REHOBOTH BCH,DE,199712119,,7 REHOBOTH AVEREHOBOTH BCHDE
2509 PHILADELPHIA PIKE,,CLAYMONT,DE,197032501,,2509 PHILADELPHIA PIKECLAYMONTDE
20817 DUPONT BLVD,,GEORGETOWN,DE,199473170,,20817 DUPONT BLVDGEORGETOWNDE
28253 LEXUS DR,,MILFORD,DE,199632251,,28253 LEXUS DRMILFORDDE
30098 VETERANS WAY,,REHOBOTH BEACH,DE,199714217,,30098 VETERANS WAYREHOBOTH BEACHDE
131 E MAIN ST,,NEWARK,DE,197117376,,131 E MAIN STNEWARKDE
263 WALMART DR,,CAMDEN,DE,199341308,,263 WALMART DRCAMDENDE
432 E MARKET ST,,GEORGETOWN,DE,199472266,,432 E MARKET STGEORGETOWNDE
SUITE 55-57-59 INDEPENDENCE MALL,,WILMINGTON,DE,19803,,SUITE 55-57-59 INDEPENDENCE MALLWILMINGTONDE
24832 JOHN J WILLIAMS HWY,,MILLSBORO,DE,199664997,,24832 JOHN J WILLIAMS HWYMILLSBORODE
2008 W NEWPORT PIKE,,WILMINGTON,DE,198043723,,2008 W NEWPORT PIKEWILMINGTONDE
684 TULLAMORE CT,,MAGNOLIA,DE,199622603,,684 TULLAMORE CTMAGNOLIADE
1717 DELAWARE AVE,,WILMINGTON,DE,198062343,,1717 DELAWARE AVEWILMINGTONDE
51 E MAIN ST,,NEWARK,DE,197114676,,51 E MAIN STNEWARKDE
1700 MIDDLEFORD RD,,SEAFORD,DE,199731838,,1700 MIDDLEFORD RDSEAFORDDE
1 OLIVE AVE,,REHOBOTH BEACH,DE,199712805,,1 OLIVE AVEREHOBOTH BEACHDE
DELA STATE FAIR GROUNDS,,HARRINGTON,DE,19952,,DELA STATE FAIR GROUNDSHARRINGTONDE
1127 CHURCHMANS RD,,NEWARK,DE,197132112,,1127 CHURCHMANS RDNEWARKDE
19330 LIGHTHOUSE PLAZA BLVD,UNIT 1B,REHOBOTH BCH,DE,199716161,,19330 LIGHTHOUSE PLAZA BLVDREHOBOTH BCHDE
418 NEWPORT GAP PIKE,,WILMINGTON,DE,19804,,418 NEWPORT GAP PIKEWILMINGTONDE
1301 COASTAL HWY,,DEWEY BEACH,DE,199712416,,1301 COASTAL HWYDEWEY BEACHDE
230 E MAIN ST STE 241,,NEWARK,DE,197113235,,230 E MAIN ST STE 241NEWARKDE
136 DAGSWORTHY ST,,REHOBOTH BEACH,DE,199713223,,136 DAGSWORTHY STREHOBOTH BEACHDE
36839 COASTAL HIGHWAY,FENWICK STATE PARK CONCESSIONS,FENWICK ISLE,DE,19944,,36839 COASTAL HIGHWAYFENWICK ISLEDE
1000 MIDWAY DR STE 5,,HARRINGTON,DE,199522448,,1000 MIDWAY DR STE 5HARRINGTONDE
25935 PLAZA DR UNIT 7,,MILLSBORO,DE,199666289,,25935 PLAZA DR UNIT 7MILLSBORODE
640 CORBIT DR,,MIDDLETOWN,DE,197096846,,640 CORBIT DRMIDDLETOWNDE
1004 BUNKER HILL RD UNIT E,,MIDDLETOWN,DE,197094702,,1004 BUNKER HILL RD UNIT EMIDDLETOWNDE
28417 DUPONT BLVD UNIT 5,,MILLSBORO,DE,199661209,,28417 DUPONT BLVD UNIT 5MILLSBORODE
315 AUTO PARK DR,,MIDDLETOWN,DE,197099983,,315 AUTO PARK DRMIDDLETOWNDE
7 GREEN CT,,NEWARK,DE,197021355,,7 GREEN CTNEWARKDE
1223 QUINTILIO DR,,BEAR,DE,197011970,,1223 QUINTILIO DRBEARDE
4610 OGLETOWN STANTON RD,,NEWARK,DE,197132007,,4610 OGLETOWN STANTON RDNEWARKDE
50 WILMINGTON AVE,,REHOBOTH BCH,DE,199712217,,50 WILMINGTON AVEREHOBOTH BCHDE
4107 OLD CAPITOL TRL,,WILMINGTON,DE,198085727,,4107 OLD CAPITOL TRLWILMINGTONDE
18492 COASTAL HWY,,LEWES,DE,199584775,,18492 COASTAL HWYLEWESDE
2202 KIRKWOOD HWY,,WILMINGTON,DE,198054904,,2202 KIRKWOOD HWYWILMINGTONDE
6 COLLEGE PARK LN STE 15,,GEORGETOWN,DE,199472179,,6 COLLEGE PARK LN STE 15GEORGETOWNDE
913 BRANDYWINE BLVD,,WILMINGTON,DE,198092545,,913 BRANDYWINE BLVDWILMINGTONDE
BOARDWALK & BALTIMORE AVE,,REHOBOTH BCH,DE,19971,,BOARDWALK & BALTIMORE AVEREHOBOTH BCHDE
1618 S GOVERNORS AVE,,DOVER,DE,199047004,,1618 S GOVERNORS AVEDOVERDE
132 CHRISTIANA MALL SPC 1130,,NEWARK,DE,197023202,,132 CHRISTIANA MALL SPC 1130NEWARKDE
939 N DUPONT BLVD,,MILFORD,DE,199631072,,939 N DUPONT BLVDMILFORDDE
18146 SHILOH CHURCH RD,,GEORGETOWN,DE,199476006,,18146 SHILOH CHURCH RDGEORGETOWNDE
500 COASTAL HWY,,FENWICK ISLE,DE,199444406,,500 COASTAL HWYFENWICK ISLEDE
824 N MARKET ST,,WILMINGTON,DE,198013024,,824 N MARKET STWILMINGTONDE
903 N DUPONT HWY,,NEW CASTLE,DE,197202534,,903 N DUPONT HWYNEW CASTLEDE
813 N MARKET ST,,WILMINGTON,DE,198013010,,813 N MARKET STWILMINGTONDE
162 REHOBOTH AVE,,REHOBOTH BCH,DE,199712136,,162 REHOBOTH AVEREHOBOTH BCHDE
132 E MAIN ST,,NEWARK,DE,197117393,,132 E MAIN STNEWARKDE
11 BARONS CT,,DOVER,DE,199016135,,11 BARONS CTDOVERDE
3100 NAAMANS RD,MEXICAN POST,WILMINGTON,DE,198102100,,3100 NAAMANS RDWILMINGTONDE
804 BRANDYWINE BLVD,,WILMINGTON,DE,198092962,,804 BRANDYWINE BLVDWILMINGTONDE
695 E CHESTNUT HILL RD,,NEWARK,DE,197131827,,695 E CHESTNUT HILL RDNEWARKDE
1308 OBERLIN RD,,WILMINGTON,DE,198035110,,1308 OBERLIN RDWILMINGTONDE
1008 LAFFERTY LN,,DOVER,DE,199014642,,1008 LAFFERTY LNDOVERDE
283 FRONT ST,,LEIPSIC,DE,199011736,,283 FRONT STLEIPSICDE
1801 PULASKI HWY,,BEAR,DE,197011731,,1801 PULASKI HWYBEARDE
572 W MAIN ST,,MIDDLETOWN,DE,197091057,,572 W MAIN STMIDDLETOWNDE
16758 S DUPONT HWY,,HARRINGTON,DE,199522434,,16758 S DUPONT HWYHARRINGTONDE
344 WALMART DR,,CAMDEN,DE,199341365,,344 WALMART DRCAMDENDE
859 N DUPONT HWY,,DOVER,DE,199012000,,859 N DUPONT HWYDOVERDE
454 E MAIN ST,,MIDDLETOWN,DE,197091462,,454 E MAIN STMIDDLETOWNDE
32177 DUPONT BLVD,,DAGSBORO,DE,199395424,,32177 DUPONT BLVDDAGSBORODE
2470 PULASKI HWY UNIT 3,,NEWARK,DE,197023971,,2470 PULASKI HWY UNIT 3NEWARKDE
735 MIDDLETOWN WARWICK RD,,MIDDLETOWN,DE,197099095,,735 MIDDLETOWN WARWICK RDMIDDLETOWNDE
22426 SUSSEX PINES RD,,GEORGETOWN,DE,199476445,,22426 SUSSEX PINES RDGEORGETOWNDE
1808 MARSH RD,,WILMINGTON,DE,198104597,,1808 MARSH RDWILMINGTONDE
37314 LIGHTHOUSE RD,,SELBYVILLE,DE,199754453,,37314 LIGHTHOUSE RDSELBYVILLEDE
208 REHOBOTH AVE,,REHOBOTH BCH,DE,199712134,,208 REHOBOTH AVEREHOBOTH BCHDE
17300 N VILLAGE MAIN BLVD,UNIT 62,LEWES,DE,199587236,,17300 N VILLAGE MAIN BLVDLEWESDE
253 S MAIN ST,,NEWARK,DE,197114564,,253 S MAIN STNEWARKDE
2911 PHILADELPHIA PIKE,,CLAYMONT,DE,197032507,,2911 PHILADELPHIA PIKECLAYMONTDE
456 W GLENWOOD AVE STE D,,SMYRNA,DE,199771087,,456 W GLENWOOD AVE STE DSMYRNADE
31264 AMERICANA PKWY,,SELBYVILLE,DE,199754242,,31264 AMERICANA PKWYSELBYVILLEDE
800 N TATNALL ST,,WILMINGTON,DE,198011718,,800 N TATNALL STWILMINGTONDE
233 OLD CAMDEN RD,,CAMDEN,DE,199345524,,233 OLD CAMDEN RDCAMDENDE
1819 S DUPONT HWY,,DOVER,DE,199015128,,1819 S DUPONT HWYDOVERDE
101 E MARKET ST,,GEORGETOWN,DE,199471405,,101 E MARKET STGEORGETOWNDE
217-218 LOUVIERS DRIVE,,NEWARK,DE,19711,,217-218 LOUVIERS DRIVENEWARKDE
36670 BAYSIDE OUTLET DR,,REHOBOTH BCH,DE,199714200,,36670 BAYSIDE OUTLET DRREHOBOTH BCHDE
729 PHILADELPHIA PIKE,,WILMINGTON,DE,198092559,,729 PHILADELPHIA PIKEWILMINGTONDE
22 KIAMENSI RD,,WILMINGTON,DE,198042908,,22 KIAMENSI RDWILMINGTONDE
1705 HIGHWAY ONE,,REHOBOTH BCH,DE,19971,,1705 HIGHWAY ONEREHOBOTH BCHDE
1151 E LEBANON RD STE B,,DOVER,DE,199015829,,1151 E LEBANON RD STE BDOVERDE
101 W MARKET ST,,WILMINGTON,DE,198043149,,101 W MARKET STWILMINGTONDE
128 BROADKILL RD STE E,,MILTON,DE,199681008,,128 BROADKILL RD STE EMILTONDE
708 W BASIN RD,,NEW CASTLE,DE,197201706,,708 W BASIN RDNEW CASTLEDE
62 M & N SOUTHGATE BLVD,,NEW CASTLE,DE,19720,,62 M & N SOUTHGATE BLVDNEW CASTLEDE
1007 KINGS HWY,,LEWES,DE,199581731,,1007 KINGS HWYLEWESDE
4737 CONCORD PIKE STE 455,,WILMINGTON,DE,198031486,,4737 CONCORD PIKE STE 455WILMINGTONDE
300 LANTANA DR,,HOCKESSIN,DE,197078807,,300 LANTANA DRHOCKESSINDE
748 E CHESTNUT HILL RD,,NEWARK,DE,197131830,,748 E CHESTNUT HILL RDNEWARKDE
40055 LIGHTHOUSE RD UNIT 1,,FENWICK ISL,DE,19944,,40055 LIGHTHOUSE RD UNIT 1FENWICK ISLDE
90 UNIVERSITY PLZ,,NEWARK,DE,197021549,,90 UNIVERSITY PLZNEWARKDE
35 BALTIMORE AVE,,REHOBOTH BCH,DE,199712131,,35 BALTIMORE AVEREHOBOTH BCHDE
505 WILSON DR,,HOCKESSIN,DE,197071927,,505 WILSON DRHOCKESSINDE
22891 SUSSEX HWY,,SEAFORD,DE,199735851,,22891 SUSSEX HWYSEAFORDDE
1131 N DUPONT HWY,,DOVER,DE,199012008,,1131 N DUPONT HWYDOVERDE
1203 KIRKWOOD HWY,,WILMINGTON,DE,198052119,,1203 KIRKWOOD HWYWILMINGTONDE
105 N UNION ST,,WILMINGTON,DE,198053427,,105 N UNION STWILMINGTONDE
81 VERSAILLES CT,,NEWARK,DE,197025542,,81 VERSAILLES CTNEWARKDE
38069 TOWN CENTER DR # 19-20,,MILLVILLE,DE,199676968,,38069 TOWN CENTER DR # 19-20MILLVILLEDE
110 N RACE ST STE 106,,GEORGETOWN,DE,199471475,,110 N RACE ST STE 106GEORGETOWNDE
30255 COMMERCE DR,,MILLSBORO,DE,199663592,,30255 COMMERCE DRMILLSBORODE
1300 LANCASTER AVE,,WILMINGTON,DE,198053902,,1300 LANCASTER AVEWILMINGTONDE
1812 MARSH RD STE 8,,WILMINGTON,DE,198104533,,1812 MARSH RD STE 8WILMINGTONDE
3615 KIRKWOOD HWY,,WILMINGTON,DE,198085103,,3615 KIRKWOOD HWYWILMINGTONDE
55 NOIRTH CUMMINGS DRIVE,,MIDDLETOWN,DE,19709,,55 NOIRTH CUMMINGS DRIVEMIDDLETOWNDE
30182 SUSSEX HWY UNIT 2,,LAUREL,DE,199563884,,30182 SUSSEX HWY UNIT 2LAURELDE
19269 COASTAL HWY,,REHOBOTH BCH,DE,199716113,,19269 COASTAL HWYREHOBOTH BCHDE
663 MIDDLETOWN WARWICK RD,,MIDDLETOWN,DE,197099639,,663 MIDDLETOWN WARWICK RDMIDDLETOWNDE
9577 BRIDGEVILLE PRK CTR #E-2,,BRIDGEVILLE,DE,19933,,9577 BRIDGEVILLE PRK CTR #E-2BRIDGEVILLEDE
1222 PULASKI HWY,,BEAR,DE,197011321,,1222 PULASKI HWYBEARDE
505 E BASIN RD,,NEW CASTLE,DE,197204230,,505 E BASIN RDNEW CASTLEDE
3 S ORANGE ST,,WILMINGTON,DE,198015006,,3 S ORANGE STWILMINGTONDE
3559 SILVERSIDE RD STE D,,WILMINGTON,DE,198104938,,3559 SILVERSIDE RD STE DWILMINGTONDE
209 N BOARDWALK,,REHOBOTH BEACH,DE,199712161,,209 N BOARDWALKREHOBOTH BEACHDE
1111 CHURCHMANS RD,,NEWARK,DE,197132112,,1111 CHURCHMANS RDNEWARKDE
800 CHRISTIANA MALL,,NEWARK,DE,197023216,,800 CHRISTIANA MALLNEWARKDE
177 E MAIN ST,,NEWARK,DE,197117313,,177 E MAIN STNEWARKDE
17884 COASTAL HWY UNIT 3,,LEWES,DE,199586323,,17884 COASTAL HWY UNIT 3LEWESDE
2000 HWY ONE UNIT 102,,REHOBOTH BEACH,DE,19971,,2000 HWY ONE UNIT 102REHOBOTH BEACHDE
2070 NAAMANS RD,,WILMINGTON,DE,198102655,,2070 NAAMANS RDWILMINGTONDE
39610 JEFFERSON BRIDGE RD,,BETHANY BEACH,DE,199303723,,39610 JEFFERSON BRIDGE RDBETHANY BEACHDE
10 N DUPONT BLVD,,SMYRNA,DE,199771509,,10 N DUPONT BLVDSMYRNADE
56 W BIRDIE LN STE 8,,MAGNOLIA,DE,199621402,,56 W BIRDIE LN STE 8MAGNOLIADE
416 SUBURBAN DR,,NEWARK,DE,197113564,,416 SUBURBAN DRNEWARKDE
311 N BROAD ST,,MIDDLETOWN,DE,197091036,,311 N BROAD STMIDDLETOWNDE
18733 SUSSEX HWY,,BRIDGEVILLE,DE,199334617,,18733 SUSSEX HWYBRIDGEVILLEDE
410 E SAVANNAH RD,,LEWES,DE,199581133,,410 E SAVANNAH RDLEWESDE
136 S MAIN ST UNIT 103,,NEWARK,DE,197117974,,136 S MAIN ST UNIT 103NEWARKDE
205 N DUAL HWY,,LAUREL,DE,199561229,,205 N DUAL HWYLAURELDE
19312 LIGHTHOUSE PLAZA BLVD # 1,,REHOBOTH BCH,DE,199716158,,19312 LIGHTHOUSE PLAZA BLVD # 1REHOBOTH BCHDE
4000 CONCORD PIKE,A C W CORP,WILMINGTON,DE,198031718,,4000 CONCORD PIKEWILMINGTONDE
209 W 4TH ST,,WILMINGTON,DE,198012204,,209 W 4TH STWILMINGTONDE
2413 PULASKI HWY,,NEWARK,DE,197023905,,2413 PULASKI HWYNEWARKDE
101-102 SHOPPES OF RED MILL,,NEWARK,DE,19711,,101-102 SHOPPES OF RED MILLNEWARKDE
287 CHRISTIANA RD STE 10,,NEW CASTLE,DE,197202978,,287 CHRISTIANA RD STE 10NEW CASTLEDE
11 LOMBARD ST,,FELTON,DE,19943,,11 LOMBARD STFELTONDE
3031 NEW CASTLE AVE STE 2,,NEW CASTLE,DE,197202297,,3031 NEW CASTLE AVE STE 2NEW CASTLEDE
45 33322 E CHESAPEAKE ST,,LEWES,DE,19958,,45 33322 E CHESAPEAKE STLEWESDE
137 2ND ST,,LEWES,DE,199581323,,137 2ND STLEWESDE
691 N DUPONT HWY,,DOVER,DE,199013936,,691 N DUPONT HWYDOVERDE
132 CHRISTIANA MALL SPC 1845,,NEWARK,DE,197023202,,132 CHRISTIANA MALL SPC 1845NEWARKDE
14 CONSTITUTION BLVD,,NEW CASTLE,DE,197204404,,14 CONSTITUTION BLVDNEW CASTLEDE
501 W 9TH ST,,WILMINGTON,DE,198011401,,501 W 9TH STWILMINGTONDE
2535 VETERANS DR,,WILMINGTON,DE,198101239,,2535 VETERANS DRWILMINGTONDE
1717 ALLEY MILL RD,,CLAYTON,DE,199389723,,1717 ALLEY MILL RDCLAYTONDE
3204 FASHION CENTER BLVD,,NEWARK,DE,197023254,,3204 FASHION CENTER BLVDNEWARKDE
815 JUSTISON ST,,WILMINGTON,DE,198015156,,815 JUSTISON STWILMINGTONDE
1701 DELAWARE AVE,,WILMINGTON,DE,198062329,,1701 DELAWARE AVEWILMINGTONDE
4401 GOVERNOR PRINTZ BLVD,,WILMINGTON,DE,198021707,,4401 GOVERNOR PRINTZ BLVDWILMINGTONDE
20312 COASTAL HWY,,REHOBOTH BCH,DE,199718015,,20312 COASTAL HWYREHOBOTH BCHDE
703 ACE MEMORIAL DR,,HOCKESSIN,DE,197071037,,703 ACE MEMORIAL DRHOCKESSINDE
1208 KIRKWOOD HWY,,WILMINGTON,DE,198052120,,1208 KIRKWOOD HWYWILMINGTONDE
13 N CHAPEL ST,,NEWARK,DE,197112211,,13 N CHAPEL STNEWARKDE
1101 QUINTILIO DR,,BEAR,DE,197016003,,1101 QUINTILIO DRBEARDE
30182 SUSSEX HWY UNIT 3,,LAUREL,DE,199563884,,30182 SUSSEX HWY UNIT 3LAURELDE
1671 PULASKI HWY,,BEAR,DE,197011453,,1671 PULASKI HWYBEARDE
22812 SUSSEX HWY,,SEAFORD,DE,199735865,,22812 SUSSEX HWYSEAFORDDE
401 W STEIN HWY,,SEAFORD,DE,199731239,,401 W STEIN HWYSEAFORDDE
26 REHOBOTH AVE,,REHOBOTH BCH,DE,199712120,,26 REHOBOTH AVEREHOBOTH BCHDE
200 CASA DR,,MIDDLETOWN,DE,197095839,,200 CASA DRMIDDLETOWNDE
9996 S DUPONT HWY,,FELTON,DE,199435615,,9996 S DUPONT HWYFELTONDE
2622 B MEADOWOOD,CAPITAL TRAIL,NEWARK,DE,19711,,2622 B MEADOWOODNEWARKDE
500 BRIDGEVILLE HWY,,SEAFORD,DE,199731522,,500 BRIDGEVILLE HWYSEAFORDDE
520 N UNION ST,,WILMINGTON,DE,198053028,,520 N UNION STWILMINGTONDE
3517 OLD CAPITOL TRL,,WILMINGTON,DE,198086125,,3517 OLD CAPITOL TRLWILMINGTONDE
4557 LINDEN HILL RD,,WILMINGTON,DE,198082923,,4557 LINDEN HILL RDWILMINGTONDE
540 W MAIN ST,,MIDDLETOWN,DE,197091057,,540 W MAIN STMIDDLETOWNDE
1011 S COLLEGE AVE,,NEWARK,DE,197132305,,1011 S COLLEGE AVENEWARKDE
105 FOULK RD,,WILMINGTON,DE,198033740,,105 FOULK RDWILMINGTONDE
516 E SAVANNAH RD,,LEWES,DE,199581161,,516 E SAVANNAH RDLEWESDE
270 E MAIN ST,,NEWARK,DE,197117390,,270 E MAIN STNEWARKDE
3612 MILLER RD,,WILMINGTON,DE,198022524,,3612 MILLER RDWILMINGTONDE
101 N DUPONT HWY,,NEW CASTLE,DE,197203101,,101 N DUPONT HWYNEW CASTLEDE
16723 COASTAL HWY,,LEWES,DE,199583653,,16723 COASTAL HWYLEWESDE
22925 SUSSEX HWY,,SEAFORD,DE,199735871,,22925 SUSSEX HWYSEAFORDDE
905 N DUPONT BLVD STE 101,,MILFORD,DE,199631270,,905 N DUPONT BLVD STE 101MILFORDDE
220 TOWN CENTER DR,,MILLVILLE,DE,199676771,,220 TOWN CENTER DRMILLVILLEDE
413B NEW LONDON RD,FAIRFIELD SHOPPING CENTER,NEWARK,DE,197117009,,413B NEW LONDON RDNEWARKDE
501 S WALNUT ST,,WILMINGTON,DE,198015286,,501 S WALNUT STWILMINGTONDE
38016 FENWICK SHOALS BLVD UNIT 4,,SELBYVILLE,DE,199753986,,38016 FENWICK SHOALS BLVD UNIT 4SELBYVILLEDE
36731 OLD MILL RD,,MILLVILLE,DE,199676952,,36731 OLD MILL RDMILLVILLEDE
25910 PLAZA DR,,MILLSBORO,DE,199664998,,25910 PLAZA DRMILLSBORODE
110 N DUPONT HWY,,NEW CASTLE,DE,197203102,,110 N DUPONT HWYNEW CASTLEDE
707 PULASKI HWY STE 101,,BEAR,DE,197011200,,707 PULASKI HWY STE 101BEARDE
2015 CONCORD PIKE,,WILMINGTON,DE,198032904,,2015 CONCORD PIKEWILMINGTONDE
10 SW FRONT ST,,MILFORD,DE,199631998,,10 SW FRONT STMILFORDDE
422 DELAWARE AVE,,WILMINGTON,DE,198011508,,422 DELAWARE AVEWILMINGTONDE
2314 CARPENTER STATION RD,,WILMINGTON,DE,198103118,,2314 CARPENTER STATION RDWILMINGTONDE
601 W NEWPORT PIKE,GRAYSTONE PLAZA,WILMINGTON,DE,19804,,601 W NEWPORT PIKEWILMINGTONDE
2423 PULASKI HWY,,NEWARK,DE,197023905,,2423 PULASKI HWYNEWARKDE
37081 COASTAL HWY,,FENWICK ISLE,DE,199444057,,37081 COASTAL HWYFENWICK ISLEDE
42 REHOBOTH AVE,,REHOBOTH BCH,DE,199712122,,42 REHOBOTH AVEREHOBOTH BCHDE
19324 LIGHTHOUSE PLAZA BLVD,UNIT 2,REHOBOTH BCH,DE,199716163,,19324 LIGHTHOUSE PLAZA BLVDREHOBOTH BCHDE
36218 LIGHTHOUSE RD,,SELBYVILLE,DE,199753912,,36218 LIGHTHOUSE RDSELBYVILLEDE
379 E CHESTNUT HILL RD,,NEWARK,DE,197133735,,379 E CHESTNUT HILL RDNEWARKDE
132 CHRISTIANA MALL,,NEWARK,DE,197023202,,132 CHRISTIANA MALLNEWARKDE
401 COLLEGE PARK LN UNIT 7,,GEORGETOWN,DE,199472114,,401 COLLEGE PARK LN UNIT 7GEORGETOWNDE
2089 PHILADELPHIA PIKE,,CLAYMONT,DE,197032424,,2089 PHILADELPHIA PIKECLAYMONTDE
5350 SUMMIT BRIDGE RD STE 114,,MIDDLETOWN,DE,197094805,,5350 SUMMIT BRIDGE RD STE 114MIDDLETOWNDE
36666 BLUEWATER RUN W UNIT 9,,SELBYVILLE,DE,199754392,,36666 BLUEWATER RUN W UNIT 9SELBYVILLEDE
28669 DUPONT BLVD,,MILLSBORO,DE,199664784,,28669 DUPONT BLVDMILLSBORODE
21710 ROTH AVE,,GEORGETOWN,DE,199473239,,21710 ROTH AVEGEORGETOWNDE
603 PULASKI HWY,,BEAR,DE,197011235,,603 PULASKI HWYBEARDE
8 YORK BEACH MALL # 10,,BETHANY BEACH,DE,199309749,,8 YORK BEACH MALL # 10BETHANY BEACHDE
215 STADIUM ST,,SMYRNA,DE,199772891,,215 STADIUM STSMYRNADE
US RT 13 & STATE RT 54,,DELMAR,DE,19940,,US RT 13 & STATE RT 54DELMARDE
204 ASPEN DR,,NEWARK,DE,197026802,,204 ASPEN DRNEWARKDE
2000 MIDWAY DR STE 2,,HARRINGTON,DE,199522449,,2000 MIDWAY DR STE 2HARRINGTONDE
30115 VETERANS WAY,,REHOBOTH BCH,DE,199714220,,30115 VETERANS WAYREHOBOTH BCHDE
228 REHOBOTH AVE,,REHOBOTH BCH,DE,199712134,,228 REHOBOTH AVEREHOBOTH BCHDE
PO BOX 538,,DELAWARE CITY,DE,197060538,,PO BOX 538DELAWARE CITYDE
608 N UNION ST,,WILMINGTON,DE,198053030,,608 N UNION STWILMINGTONDE
19 REHOBOTH AVE,,REHOBOTH BCH,DE,199712119,,19 REHOBOTH AVEREHOBOTH BCHDE
430 CENTURY BLVD,,WILMINGTON,DE,198086271,,430 CENTURY BLVDWILMINGTONDE
340 DOVE RUN CENTRE DR,,MIDDLETOWN,DE,197097912,,340 DOVE RUN CENTRE DRMIDDLETOWNDE
1710A NEWPORT GAP PIKE,,WILMINGTON,DE,198086120,,1710A NEWPORT GAP PIKEWILMINGTONDE
10690 FAWN RD,,GREENWOOD,DE,199505801,,10690 FAWN RDGREENWOODDE
940 PEOPLES PLZ,,NEWARK,DE,197025603,,940 PEOPLES PLZNEWARKDE
4390 SUMMIT BRIDGE RD STE 1,,MIDDLETOWN,DE,197099828,,4390 SUMMIT BRIDGE RD STE 1MIDDLETOWNDE
1887 PULASKI HWY,,BEAR,DE,197011731,,1887 PULASKI HWYBEARDE
1212 N WASHINGTON ST,,WILMINGTON,DE,198011020,,1212 N WASHINGTON STWILMINGTONDE
100 GARFIELD PKWY,,BETHANY BEACH,DE,199307705,,100 GARFIELD PKWYBETHANY BEACHDE
432 GEORGIANA DR,,MIDDLETOWN,DE,197092613,,432 GEORGIANA DRMIDDLETOWNDE
1025 CHRISTIANA RD,,NEWARK,DE,197133268,,1025 CHRISTIANA RDNEWARKDE
500 CENTER BLVD,,NEWARK,DE,197023224,,500 CENTER BLVDNEWARKDE
14 N PENNSYLVANIA AVE,,BETHANY BEACH,DE,199309703,,14 N PENNSYLVANIA AVEBETHANY BEACHDE
34 CARTIER CT,,NEWARK,DE,197115954,,34 CARTIER CTNEWARKDE
211 BROADKILL RD,,MILTON,DE,199681009,,211 BROADKILL RDMILTONDE
99 S CORY LN,,SMYRNA,DE,199772890,,99 S CORY LNSMYRNADE
15 WILMINGTON AVE,LLC,REHOBOTH BCH,DE,199712925,,15 WILMINGTON AVEREHOBOTH BCHDE
30 E PINE ST,,GEORGETOWN,DE,199471904,,30 E PINE STGEORGETOWNDE
18385 COASTAL HWY,,LEWES,DE,199584778,,18385 COASTAL HWYLEWESDE
26506 VICTORIAS LANDING RD,UNIT 5,MILLSBORO,DE,199667064,,26506 VICTORIAS LANDING RDMILLSBORODE
697 N DUPONT BLVD,,MILFORD,DE,199631001,,697 N DUPONT BLVDMILFORDDE
18 MARROWS RD,,NEWARK,DE,197133702,,18 MARROWS RDNEWARKDE
1160 PULASKI HWY,OF GLENDALE,BEAR,DE,197011306,,1160 PULASKI HWYBEARDE
1113 N WALNUT ST,,MILFORD,DE,199631224,,1113 N WALNUT STMILFORDDE
45 E MAIN ST STE 100,SUITE 100,NEWARK,DE,197114600,,45 E MAIN ST STE 100NEWARKDE
1030 FORREST AVE STORE 112,,DOVER,DE,19904,,1030 FORREST AVE STORE 112DOVERDE
110 N DUPONT HWY,,NEW CASTLE,DE,197203102,,110 N DUPONT HWYNEW CASTLEDE
613 S MAIN ST,,BRIDGEVILLE,DE,199331314,,613 S MAIN STBRIDGEVILLEDE
1956 MARYLAND AVE,,WILMINGTON,DE,198054605,,1956 MARYLAND AVEWILMINGTONDE
745 MIDDLETOWN WARWICK RD,745 MIDDLETOWN WARWICK ROAD,MIDDLETOWN,DE,197099095,,745 MIDDLETOWN WARWICK RDMIDDLETOWNDE
720 TOWNSEND BLVD STE D,,DOVER,DE,199012539,,720 TOWNSEND BLVD STE DDOVERDE
795 PULASKI HWY,ESTRELLA,BEAR,DE,197011238,,795 PULASKI HWYBEARDE
220 NEW CASTLE AVE,,NEW CASTLE,DE,197202701,,220 NEW CASTLE AVENEW CASTLEDE
3234 KIRKWOOD HWY STE B,,WILMINGTON,DE,198086156,,3234 KIRKWOOD HWY STE BWILMINGTONDE
951 N DUPONT BLVD,,MILFORD,DE,199631072,,951 N DUPONT BLVDMILFORDDE
7 HICKMAN RD,,CLAYMONT,DE,197033501,,7 HICKMAN RDCLAYMONTDE
105 AERENSON DR,,MILFORD,DE,199631241,,105 AERENSON DRMILFORDDE
100 GARFIELD PKWY,,BETHANY BEACH,DE,199307705,,100 GARFIELD PKWYBETHANY BEACHDE
508 SE 2ND ST,,MILFORD,DE,199631506,,508 SE 2ND STMILFORDDE
14882 HARDSCRABBLE RD,,SEAFORD,DE,199738211,,14882 HARDSCRABBLE RDSEAFORDDE
906 N UNION ST,,WILMINGTON,DE,198055326,,906 N UNION STWILMINGTONDE
699 JIMMY DR STE 6-7,,SMYRNA,DE,199775809,,699 JIMMY DR STE 6-7SMYRNADE
36501 SEASIDE OUTLET DR,,REHOBOTH BCH,DE,199711210,,36501 SEASIDE OUTLET DRREHOBOTH BCHDE
2801 N MARKET ST,,WILMINGTON,DE,198023628,,2801 N MARKET STWILMINGTONDE
1707 DELAWARE AVE,,WILMINGTON,DE,198062329,,1707 DELAWARE AVEWILMINGTONDE
1912 MARSH RD,,WILMINGTON,DE,198103954,,1912 MARSH RDWILMINGTONDE
22939 SUSSEX HWY,,SEAFORD,DE,199735871,,22939 SUSSEX HWYSEAFORDDE
105 S DUPONT HWY,,DOVER,DE,199017432,,105 S DUPONT HWYDOVERDE
113 SHANNON BLVD,,MIDDLETOWN,DE,197092193,,113 SHANNON BLVDMIDDLETOWNDE
111 W 11TH ST,,WILMINGTON,DE,198011230,,111 W 11TH STWILMINGTONDE
7 ANGLERS RD,,LEWES,DE,199581100,,7 ANGLERS RDLEWESDE
20672 COASTAL HWY,,REHOBOTH BCH,DE,199718031,,20672 COASTAL HWYREHOBOTH BCHDE
7 ARDSLEY CIR,,DOVER,DE,199041979,,7 ARDSLEY CIRDOVERDE
101 SANDHILL DR,,MIDDLETOWN,DE,197095813,,101 SANDHILL DRMIDDLETOWNDE
240 E DELAWARE AVE,,NEWARK,DE,197114655,,240 E DELAWARE AVENEWARKDE
110 N DUPONT HWY,,NEW CASTLE,DE,197203102,,110 N DUPONT HWYNEW CASTLEDE
9537 BRIDGEVILLE CTR UNIT 1,,BRIDGEVILLE,DE,199334679,,9537 BRIDGEVILLE CTR UNIT 1BRIDGEVILLEDE
483 STANTON CHRISTIANA RD,,NEWARK,DE,197132119,,483 STANTON CHRISTIANA RDNEWARKDE
9843 SEASHORE HWY,,BRIDGEVILLE,DE,199334620,,9843 SEASHORE HWYBRIDGEVILLEDE
142 2ND ST,,LEWES,DE,199581396,,142 2ND STLEWESDE
205 N FORD AVE,,WILMINGTON,DE,198051833,,205 N FORD AVEWILMINGTONDE
167 S DUPONT HWY,,NEW CASTLE,DE,197204137,,167 S DUPONT HWYNEW CASTLEDE
721 N KING ST,,WILMINGTON,DE,198013503,,721 N KING STWILMINGTONDE
4437 SUMMIT BRIDGE RD,,MIDDLETOWN,DE,197099549,,4437 SUMMIT BRIDGE RDMIDDLETOWNDE
32 N DUPONT HWY,,SELBYVILLE,DE,199759454,,32 N DUPONT HWYSELBYVILLEDE
601 COASTAL HWY,,FENWICK ISLE,DE,199444469,,601 COASTAL HWYFENWICK ISLEDE
19219 COASTAL HWY,,REHOBOTH BCH,DE,199716112,,19219 COASTAL HWYREHOBOTH BCHDE
600 N BROAD ST,,MIDDLETOWN,DE,197091032,,600 N BROAD STMIDDLETOWNDE
401 COLLEGE PARK LN STE 1&2,,GEORGETOWN,DE,199472114,,401 COLLEGE PARK LN STE 1&2GEORGETOWNDE
28605 DUPONT BLVD,,MILLSBORO,DE,199664784,,28605 DUPONT BLVDMILLSBORODE
760 JUSTISON ST,,WILMINGTON,DE,198015141,,760 JUSTISON STWILMINGTONDE
1279 NEW CHURCHMAN'S RD,,NEWARK,DE,19702,,1279 NEW CHURCHMAN'S RDNEWARKDE
109 MAIN ST,,ODESSA,DE,197302005,,109 MAIN STODESSADE
777 DELAWARE PARK BLVD,,WILMINGTON,DE,198044122,,777 DELAWARE PARK BLVDWILMINGTONDE
470 S DUPONT HWY,,DOVER,DE,199014514,,470 S DUPONT HWYDOVERDE
414 N UNION ST,,WILMINGTON,DE,198053026,,414 N UNION STWILMINGTONDE
1605 PHILADELPHIA PIKE,,WILMINGTON,DE,198091540,,1605 PHILADELPHIA PIKEWILMINGTONDE
800 N STATE ST,,DOVER,DE,199013925,,800 N STATE STDOVERDE
1000 DEAN RD,,WILMINGTON,DE,198071648,,1000 DEAN RDWILMINGTONDE
1954 MARYLAND AVE,,WILMINGTON,DE,198054605,,1954 MARYLAND AVEWILMINGTONDE
28606 DUPONT BLVD,,MILLSBORO,DE,199664737,,28606 DUPONT BLVDMILLSBORODE
4522 KIRKWOOD HWY,,WILMINGTON,DE,198085118,,4522 KIRKWOOD HWYWILMINGTONDE
3211 KIRKWOOD HWY UNIT 631,UNIT 631,WILMINGTON,DE,198086129,,3211 KIRKWOOD HWY UNIT 631WILMINGTONDE
109 GARFIELD PKWY,,BETHANY BEACH,DE,199307706,,109 GARFIELD PKWYBETHANY BEACHDE
8829 WALLER RD,,DELMAR,DE,199403256,,8829 WALLER RDDELMARDE
101 SOUTH ST,,CAMDEN,DE,199341338,,101 SOUTH STCAMDENDE
609 NAAMANS RD,,CLAYMONT,DE,197032309,,609 NAAMANS RDCLAYMONTDE
825 HALLTOWN RD,,MARYDEL,DE,199642184,,825 HALLTOWN RDMARYDELDE
11 REHOBOTH AVE,,REHOBOTH BCH,DE,199712119,,11 REHOBOTH AVEREHOBOTH BCHDE
511 E KING ST FRNT,,SEAFORD,DE,199732737,,511 E KING ST FRNTSEAFORDDE
730 PEOPLES PLZ,,NEWARK,DE,197025601,,730 PEOPLES PLZNEWARKDE
23481 SUSSEX HWY,,SEAFORD,DE,199735875,,23481 SUSSEX HWYSEAFORDDE
4125 CONCORD PIKE,,WILMINGTON,DE,198031401,,4125 CONCORD PIKEWILMINGTONDE
1706 N DUPONT HWY,,DOVER,DE,199012219,,1706 N DUPONT HWYDOVERDE
1511 N DUPONT HWY STE 14,,NEW CASTLE,DE,197201900,,1511 N DUPONT HWY STE 14NEW CASTLEDE
700 PHILADELPHIA PIKE,,WILMINGTON,DE,198092540,,700 PHILADELPHIA PIKEWILMINGTONDE
44 E MAIN ST,,NEWARK,DE,197114639,,44 E MAIN STNEWARKDE
18784 COASTAL HWY,,REHOBOTH BCH,DE,199716156,,18784 COASTAL HWYREHOBOTH BCHDE
1 DRUMMAND CENTER,,NEWARK,DE,19711,,1 DRUMMAND CENTERNEWARKDE
19 CHESTNUT HILL PLZ,,NEWARK,DE,197132701,,19 CHESTNUT HILL PLZNEWARKDE
230 W MAIN ST UNIT 628,,NEWARK,DE,197113235,,230 W MAIN ST UNIT 628NEWARKDE
311 GARNET LN,,SMYRNA,DE,199779647,,311 GARNET LNSMYRNADE
212 BOXWOOD RD,,WILMINGTON,DE,198041825,,212 BOXWOOD RDWILMINGTONDE
1466 E LEBANON RD,,DOVER,DE,19901,,1466 E LEBANON RDDOVERDE
PO BOX 930,34960 ATLANTIC AVE UNIT 4,OCEAN VIEW,DE,19970,,PO BOX 930OCEAN VIEWDE
1301 S RODNEY ST,,WILMINGTON,DE,198054544,,1301 S RODNEY STWILMINGTONDE
1249 QUINTILIO DR,GOVERNORS SQUARE II SHOPPING CTR,BEAR,DE,197016005,,1249 QUINTILIO DRBEARDE
2217 CONCORD PIKE,FAIRFAX SHOPPING CENTER,WILMINGTON,DE,198032908,,2217 CONCORD PIKEWILMINGTONDE
216 N DUPONT BLVD,,SMYRNA,DE,199771511,,216 N DUPONT BLVDSMYRNADE
18364 SHOW JUMPER LN,,LEWES,DE,199584061,,18364 SHOW JUMPER LNLEWESDE
168 E MAIN ST,,NEWARK,DE,197117309,,168 E MAIN STNEWARKDE
26506 VICTORIAS LANDING RD,UNIT 2,LONG NECK,DE,199667064,,26506 VICTORIAS LANDING RDLONG NECKDE
223 CHRISTIANA MALL,,NEWARK,DE,197023203,,223 CHRISTIANA MALLNEWARKDE
19815 COASTAL HWY,,REHOBOTH BCH,DE,199716115,,19815 COASTAL HWYREHOBOTH BCHDE
4553 LINDEN HILL RD,,WILMINGTON,DE,198082923,,4553 LINDEN HILL RDWILMINGTONDE
250 DOVE RUN DRY,,MIDDLETOWN,DE,19709,,250 DOVE RUN DRYMIDDLETOWNDE
57 WILMINGTON AVE,,REHOBOTH BCH,DE,199712218,,57 WILMINGTON AVEREHOBOTH BCHDE
11460 S DUPONT HWY,,FELTON,DE,199434835,,11460 S DUPONT HWYFELTONDE
28280 JOHN J. WILLIAMS HWY,,MILLSBORO,DE,19966,,28280 JOHN J. WILLIAMS HWYMILLSBORODE
116 N DUPONT HWY,,NEW CASTLE,DE,197203102,,116 N DUPONT HWYNEW CASTLEDE
21 VILLAGE GREEN DRIVE,SUITE 200,OCEAN VIEW,DE,19970,,21 VILLAGE GREEN DRIVEOCEAN VIEWDE
556 S DUPONT BLVD,,MILFORD,DE,199631706,,556 S DUPONT BLVDMILFORDDE
23 BALTIMORE AVE,,REHOBOTH BCH,DE,199712103,,23 BALTIMORE AVEREHOBOTH BCHDE
329 JUSTISON ST,,WILMINGTON,DE,198015164,,329 JUSTISON STWILMINGTONDE
1601 CONCORD PIKE STE 43-47,STE 43-47,WILMINGTON,DE,198033612,,1601 CONCORD PIKE STE 43-47WILMINGTONDE
510 N UNION ST,,WILMINGTON,DE,198053028,,510 N UNION STWILMINGTONDE
4704 KIRKWOOD HWY,,WILMINGTON,DE,198085008,,4704 KIRKWOOD HWYWILMINGTONDE
141 E MAIN ST STE B,,NEWARK,DE,197117544,,141 E MAIN ST STE BNEWARKDE
4300 KIRKWOOD HWY,,WILMINGTON,DE,198085114,,4300 KIRKWOOD HWYWILMINGTONDE
88 SALT CREEK DR,,DOVER,DE,199012436,,88 SALT CREEK DRDOVERDE
22899 SUSSEX HWY,,SEAFORD,DE,199735851,,22899 SUSSEX HWYSEAFORDDE
14 WILMINGTON AVE,,REHOBOTH BCH,DE,199712926,,14 WILMINGTON AVEREHOBOTH BCHDE
1524 PHILADELPHIA PIKE,,WILMINGTON,DE,198091826,,1524 PHILADELPHIA PIKEWILMINGTONDE
105A GARFIELD PKWY,,BETHANY BEACH,DE,199307706,,105A GARFIELD PKWYBETHANY BEACHDE
707 PULASKI HWY,,BEAR,DE,197011200,,707 PULASKI HWYBEARDE
108 E GLENWOOD AVE,,SMYRNA,DE,199771003,,108 E GLENWOOD AVESMYRNADE
7237 MILFORD HARRINGTON HWY,,HARRINGTON,DE,199522304,,7237 MILFORD HARRINGTON HWYHARRINGTONDE
38452 DUPONT BLVD,,SELBYVILLE,DE,199753041,,38452 DUPONT BLVDSELBYVILLEDE
3194 FASHION CENTER BLVD,,NEWARK,DE,197023246,,3194 FASHION CENTER BLVDNEWARKDE
17719 COASTAL HWY,,LEWES,DE,199586215,,17719 COASTAL HWYLEWESDE
222 S CHAPEL ST RM 133,,NEWARK,DE,197164701,,222 S CHAPEL ST RM 133NEWARKDE
4044 S DUPONT HWY,,CAMDEN,DE,199341370,,4044 S DUPONT HWYCAMDENDE
38660 SUSSEX HWY UNIT 5,,DELMAR,DE,199403529,,38660 SUSSEX HWY UNIT 5DELMARDE
107 5TH ST,,DELAWARE CITY,DE,197067737,,107 5TH STDELAWARE CITYDE
1407 OAK HILL DR,,WILMINGTON,DE,198051335,,1407 OAK HILL DRWILMINGTONDE
19040 COASTAL HWY,,REHOBOTH BCH,DE,199716135,,19040 COASTAL HWYREHOBOTH BCHDE
137 JEROME DR STE 110,,DOVER,DE,199012513,,137 JEROME DR STE 110DOVERDE
1720 NAAMANS RD,,WILMINGTON,DE,198102610,,1720 NAAMANS RDWILMINGTONDE
5 MICA ST,,TOWNSEND,DE,197342026,,5 MICA STTOWNSENDDE
909 N DUPONT HWY,,DOVER,DE,199012004,,909 N DUPONT HWYDOVERDE
2127 N MARKET ST,,WILMINGTON,DE,198024225,,2127 N MARKET STWILMINGTONDE
492 SOUTH RED HAVEN LANE,,DOVER,DE,19901,,492 SOUTH RED HAVEN LANEDOVERDE
537 GREENHILL RD,,DOVER,DE,199013766,,537 GREENHILL RDDOVERDE
1110 NEWPORT GAP PIKE,,WILMINGTON,DE,198042842,,1110 NEWPORT GAP PIKEWILMINGTONDE
2044 NEW CASTLE AVE,,NEW CASTLE,DE,197202777,,2044 NEW CASTLE AVENEW CASTLEDE
2653 KIRKWOOD HWY,,NEWARK,DE,197117242,,2653 KIRKWOOD HWYNEWARKDE
167 REHOBOTH AVE,,REHOBOTH BCH,DE,199712138,,167 REHOBOTH AVEREHOBOTH BCHDE
45 WANOMA CIR,,REHOBOTH BCH,DE,199717704,,45 WANOMA CIRREHOBOTH BCHDE
28A TROLLEY SQ,,WILMINGTON,DE,198063334,,28A TROLLEY SQWILMINGTONDE
310 W GLENWOOD AVE,,SMYRNA,DE,199771005,,310 W GLENWOOD AVESMYRNADE
2476 N DUPONT PKWY,,MIDDLETOWN,DE,197099653,,2476 N DUPONT PKWYMIDDLETOWNDE
18 BALTIMORE AVE,,REHOBOTH BCH,DE,199712104,,18 BALTIMORE AVEREHOBOTH BCHDE
1708 E LEBANON RD STE 5,,DOVER,DE,199015813,,1708 E LEBANON RD STE 5DOVERDE
1708 E LEBANON RD STE 5,,DOVER,DE,199015813,,1708 E LEBANON RD STE 5DOVERDE
27052 BROADKILL RD,,MILTON,DE,199683736,,27052 BROADKILL RDMILTONDE
1460 PULASKI HWY,,NEWARK,DE,197025108,,1460 PULASKI HWYNEWARKDE
44 REHOBOTH AVE,,REHOBOTH BCH,DE,199712120,,44 REHOBOTH AVEREHOBOTH BCHDE
19287 MILLER RD UNIT 17,,REHOBOTH BCH,DE,199716124,,19287 MILLER RD UNIT 17REHOBOTH BCHDE
320 ROCKY RUN PKWY,,WILMINGTON,DE,198031515,,320 ROCKY RUN PKWYWILMINGTONDE
2044 NEW CASTLE AVE,,NEW CASTLE,DE,197202777,,2044 NEW CASTLE AVENEW CASTLEDE
1001 N DUPONT HWY,,NEW CASTLE,DE,197202536,,1001 N DUPONT HWYNEW CASTLEDE
1800 COASTAL HWY,INC,DEWEY BEACH,DE,199712332,,1800 COASTAL HWYDEWEY BEACHDE
200C ATLANTIC AVE,,MILLVILLE,DE,199676728,,200C ATLANTIC AVEMILLVILLEDE
1717 MARSH RD,MARSH TRIANGLE CENTER,WILMINGTON,DE,198104607,,1717 MARSH RDWILMINGTONDE
52 REHOBOTH AVE,,REHOBOTH BCH,DE,199712120,,52 REHOBOTH AVEREHOBOTH BCHDE
2470 PULASKI HWY STE A,,NEWARK,DE,197023971,,2470 PULASKI HWY STE ANEWARKDE
913 N DUPONT BLVD,,MILFORD,DE,199631045,,913 N DUPONT BLVDMILFORDDE
1705 PULASKI HWY,1705 PULASKI HIGHWAY,BEAR,DE,197011711,,1705 PULASKI HWYBEARDE
22873 SUSSEX HWY,,SEAFORD,DE,199735851,,22873 SUSSEX HWYSEAFORDDE
1142 ELKTON RD,,NEWARK,DE,197113509,,1142 ELKTON RDNEWARKDE
416 S RIDGE AVE,,MIDDLETOWN,DE,197094687,,416 S RIDGE AVEMIDDLETOWNDE
19406 COASTAL HWY,,REHOBOTH BCH,DE,199716126,,19406 COASTAL HWYREHOBOTH BCHDE
1336 OLD LANCASTER PIKE,,HOCKESSIN,DE,197079557,,1336 OLD LANCASTER PIKEHOCKESSINDE
122 MULBERRY ST,,MILTON,DE,199681644,,122 MULBERRY STMILTONDE
3109 NEW CASTLE AVE,,NEW CASTLE,DE,197202160,,3109 NEW CASTLE AVENEW CASTLEDE
1093 S DUPONT BLVD,,SMYRNA,DE,199772894,,1093 S DUPONT BLVDSMYRNADE
900 CHURCHMANS RD,,NEWARK,DE,197132117,,900 CHURCHMANS RDNEWARKDE
37468 LION DR,,SELBYVILLE,DE,199753879,,37468 LION DRSELBYVILLEDE
222 S DUPONT HWY,,DOVER,DE,199013797,,222 S DUPONT HWYDOVERDE
700 W 4TH ST,,WILMINGTON,DE,198012004,,700 W 4TH STWILMINGTONDE
21179 COLLEGE DR,,GEORGETOWN,DE,199474193,,21179 COLLEGE DRGEORGETOWNDE
1252 NORMAN ESKRIDGE HWY UNIT 2,,SEAFORD,DE,199731726,,1252 NORMAN ESKRIDGE HWY UNIT 2SEAFORDDE
4710 LIMESTONE RD,,WILMINGTON,DE,198081928,,4710 LIMESTONE RDWILMINGTONDE
2504 RED LION RD UNIT A,,BEAR,DE,197012446,,2504 RED LION RD UNIT ABEARDE
31221 AMERICANA PKWY,,SELBYVILLE,DE,199753785,,31221 AMERICANA PKWYSELBYVILLEDE
301 ROCKY RUN PKWY,,WILMINGTON,DE,198031522,,301 ROCKY RUN PKWYWILMINGTONDE
94 ROSE ST,,NEWARK,DE,197117008,,94 ROSE STNEWARKDE
628 N DUPONT BLVD,,MILFORD,DE,199631002,,628 N DUPONT BLVDMILFORDDE
PO BOX 338,,LEWES,DE,199580338,,PO BOX 338LEWESDE
2468 N DUPONT PKWY,,MIDDLETOWN,DE,197099653,,2468 N DUPONT PKWYMIDDLETOWNDE
348 N DUPONT HWY,,DOVER,DE,199013935,,348 N DUPONT HWYDOVERDE
300 W STEIN HWY,,SEAFORD,DE,199731335,,300 W STEIN HWYSEAFORDDE
67 CHRISTIANA RD,,NEW CASTLE,DE,197203104,,67 CHRISTIANA RDNEW CASTLEDE
23466 SUSSEX HWY,,SEAFORD,DE,199735869,,23466 SUSSEX HWYSEAFORDDE
344 E FRAZIER ST,,SMYRNA,DE,199771556,,344 E FRAZIER STSMYRNADE
243 REHOBOTH AVE,,REHOBOTH BCH,DE,199712137,,243 REHOBOTH AVEREHOBOTH BCHDE
38931 MADISON AVE,,SELBYVILLE,DE,199754447,,38931 MADISON AVESELBYVILLEDE
25938 PLAZA DR UNIT 4,,MILLSBORO,DE,199666290,,25938 PLAZA DR UNIT 4MILLSBORODE
17092 S DUPONT HWY STE 2A,,HARRINGTON,DE,199522477,,17092 S DUPONT HWY STE 2AHARRINGTONDE
374 E MAIN ST,,NEWARK,DE,197117149,,374 E MAIN STNEWARKDE
4737 CONCORD PIKE # 464,,WILMINGTON,DE,198031442,,4737 CONCORD PIKE # 464WILMINGTONDE
200 DOVE RUN CENTRE DR,,MIDDLETOWN,DE,197097971,,200 DOVE RUN CENTRE DRMIDDLETOWNDE
3007 NEW CASTLE AVE,,NEW CASTLE,DE,197202233,,3007 NEW CASTLE AVENEW CASTLEDE
1911 COASTAL HWY,,DEWEY BEACH,DE,199712320,,1911 COASTAL HWYDEWEY BEACHDE
1004A KINGS HWY,,LEWES,DE,199581707,,1004A KINGS HWYLEWESDE
29029 BLUEBIRD MEADOW LN,,FRANKFORD,DE,199452922,,29029 BLUEBIRD MEADOW LNFRANKFORDDE
701 PHILADELPHIA PIKE,,WILMINGTON,DE,198092539,,701 PHILADELPHIA PIKEWILMINGTONDE
1575 RED LION RD,,BEAR,DE,197011815,,1575 RED LION RDBEARDE
3 TOWN RD,,OCEAN VIEW,DE,199709132,,3 TOWN RDOCEAN VIEWDE
920 N KING ST LBBY 1,,WILMINGTON,DE,198013319,,920 N KING ST LBBY 1WILMINGTONDE
21 BURNS WAY,,NEWARK,DE,197025327,,21 BURNS WAYNEWARKDE
401 NEW LONDON RD,,NEWARK,DE,197117009,,401 NEW LONDON RDNEWARKDE
11420 HOLLY TREE RD,,LINCOLN,DE,199603041,,11420 HOLLY TREE RDLINCOLNDE
50 WILMINGTON AVE,50 WILMINGTON AVE,REHOBOTH BCH,DE,199712217,,50 WILMINGTON AVEREHOBOTH BCHDE
1106 COASTAL HWY,,FENWICK ISLE,DE,199444412,,1106 COASTAL HWYFENWICK ISLEDE
4641 WELDIN RD,,WILMINGTON,DE,198034829,,4641 WELDIN RDWILMINGTONDE
1253 CHURCHMANS RD,,NEWARK,DE,197132149,,1253 CHURCHMANS RDNEWARKDE
312 MAIN ST STE 213,,ODESSA,DE,197302001,,312 MAIN ST STE 213ODESSADE
8 POLLY DRUMMOND SHPG CTR,,NEWARK,DE,197114859,,8 POLLY DRUMMOND SHPG CTRNEWARKDE
17906 COASTAL HWY,,LEWES,DE,199587900,,17906 COASTAL HWYLEWESDE
5 N WASHINGTON ST,,MILFORD,DE,199631455,,5 N WASHINGTON STMILFORDDE
1572 N DUPONT HWY,,DOVER,DE,199012215,,1572 N DUPONT HWYDOVERDE
241 S DUPONT HWY,,DOVER,DE,199014732,,241 S DUPONT HWYDOVERDE
1200 N DUPONT HWY,,NEW CASTLE,DE,19720,,1200 N DUPONT HWYNEW CASTLEDE
947 N DUPONT BLVD,,MILFORD,DE,199631072,,947 N DUPONT BLVDMILFORDDE
2201 N MARKET ST,,WILMINGTON,DE,198024227,,2201 N MARKET STWILMINGTONDE
826 KOHL AVE,,MIDDLETOWN,DE,197094703,,826 KOHL AVEMIDDLETOWNDE
1203 N LINCOLN ST,,WILMINGTON,DE,198064035,,1203 N LINCOLN STWILMINGTONDE
788 GARFIELD PKWY,,BETHANY BEACH,DE,199309219,,788 GARFIELD PKWYBETHANY BEACHDE
287 CHRISTIANA RD STE 14,,NEW CASTLE,DE,197202978,,287 CHRISTIANA RD STE 14NEW CASTLEDE
21 GEORGETOWN PLZ,,GEORGETOWN,DE,199472300,,21 GEORGETOWN PLZGEORGETOWNDE
10 N 1ST ST,,REHOBOTH BCH,DE,199712116,,10 N 1ST STREHOBOTH BCHDE
32368 LONG NECK RD,,MILLSBORO,DE,199666668,,32368 LONG NECK RDMILLSBORODE
408 S STATE ST,,DOVER,DE,199016724,,408 S STATE STDOVERDE
265 S MAIN ST,,NEWARK,DE,197114564,,265 S MAIN STNEWARKDE
12 CHESTERFIELD DR,,NEW CASTLE,DE,197201249,,12 CHESTERFIELD DRNEW CASTLEDE
316 AUTO PARK DR,,MIDDLETOWN,DE,197099194,,316 AUTO PARK DRMIDDLETOWNDE
1836 LOVERING AVE,,WILMINGTON,DE,198062122,,1836 LOVERING AVEWILMINGTONDE
653 N DUPONT BLVD,,MILFORD,DE,199631001,,653 N DUPONT BLVDMILFORDDE
198 S DUPONT HWY,,NEW CASTLE,DE,197204149,,198 S DUPONT HWYNEW CASTLEDE
41 REHOBOTH AVE,,REHOBOTH BCH,DE,199712119,,41 REHOBOTH AVEREHOBOTH BCHDE
35308 ATLANTIC AVE,,MILLVILLE,DE,199676903,,35308 ATLANTIC AVEMILLVILLEDE
930 RUTH WAY,,DOVER,DE,199044031,,930 RUTH WAYDOVERDE
28662 DUPONT BLVD STE 3,,MILLSBORO,DE,199664794,,28662 DUPONT BLVD STE 3MILLSBORODE
1014 N DUPONT HWY,,CAMDEN,DE,19947,,1014 N DUPONT HWYCAMDENDE
26670 CENTERVIEW DR UNIT 15,,MILLSBORO,DE,199663584,,26670 CENTERVIEW DR UNIT 15MILLSBORODE
568 W MAIN ST,,MIDDLETOWN,DE,197091057,,568 W MAIN STMIDDLETOWNDE
600 S MADISON ST,,WILMINGTON,DE,198015118,,600 S MADISON STWILMINGTONDE
8 N PENNSYLVANIA AVE,,DELMAR,DE,199401132,,8 N PENNSYLVANIA AVEDELMARDE
1000 N WALNUT ST,,MILFORD,DE,199631245,,1000 N WALNUT STMILFORDDE
1314 N WASHINGTON ST,,WILMINGTON,DE,198011098,,1314 N WASHINGTON STWILMINGTONDE
39 NEW ST,CUISINE,MIDDLETOWN,DE,197091153,,39 NEW STMIDDLETOWNDE
22976 SUSSEX HWY,,SEAFORD,DE,199735861,,22976 SUSSEX HWYSEAFORDDE
1000 MIDWAY DR STE 8,,HARRINGTON,DE,199522448,,1000 MIDWAY DR STE 8HARRINGTONDE
57 S MAIN ST,,NEWARK,DE,197114631,,57 S MAIN STNEWARKDE
208 2ND ST,,REHOBOTH BCH,DE,199712261,,208 2ND STREHOBOTH BCHDE
2920 N DUPONT HWY,,DOVER,DE,199018784,,2920 N DUPONT HWYDOVERDE
333 N DUPONT BLVD,,SMYRNA,DE,199771547,,333 N DUPONT BLVDSMYRNADE
300 S MARYLAND AVE,,WILMINGTON,DE,198041345,,300 S MARYLAND AVEWILMINGTONDE
US HIGHWAY 1 & ABBEY ROAD,,BETHANY BEACH,DE,19930,,US HIGHWAY 1 & ABBEY ROADBETHANY BEACHDE
200 POWDER MILL RD BLDG 444,,WILMINGTON,DE,198032907,,200 POWDER MILL RD BLDG 444WILMINGTONDE
3311 CONCORD PIKE,,WILMINGTON,DE,198035016,,3311 CONCORD PIKEWILMINGTONDE
3541 PHILADELPHIA PIKE,,CLAYMONT,DE,197033106,,3541 PHILADELPHIA PIKECLAYMONTDE
35287 ATLANTIC AVE,,MILLVILLE,DE,199676912,,35287 ATLANTIC AVEMILLVILLEDE
4105 N DUPONT HWY,,DOVER,DE,199011561,,4105 N DUPONT HWYDOVERDE
705 N DUPONT HWY,,DOVER,DE,199013938,,705 N DUPONT HWYDOVERDE
1900 N TATNALL ST,,WILMINGTON,DE,198024819,,1900 N TATNALL STWILMINGTONDE
302 DELAWARE AVE,,BRIDGEVILLE,DE,199331119,,302 DELAWARE AVEBRIDGEVILLEDE
19452 BEAVER DAM RD,,LEWES,DE,199585552,,19452 BEAVER DAM RDLEWESDE
1723 W 4TH ST,,WILMINGTON,DE,198053547,,1723 W 4TH STWILMINGTONDE
42 E MAIN ST,,NEWARK,DE,197114639,,42 E MAIN STNEWARKDE
4317 FORREST AVE,,DOVER,DE,199045286,,4317 FORREST AVEDOVERDE
22932 SUSSEX HWY,,SEAFORD,DE,199735868,,22932 SUSSEX HWYSEAFORDDE
106 W COMMERCE ST,,SMYRNA,DE,199771119,,106 W COMMERCE STSMYRNADE
33548 MARKET PL,,BETHANY BEACH,DE,199303719,,33548 MARKET PLBETHANY BEACHDE
223 NE FRONT ST,,MILFORD,DE,199631431,,223 NE FRONT STMILFORDDE
3607 KIRKWOOD HWY,,WILMINGTON,DE,198085103,,3607 KIRKWOOD HWYWILMINGTONDE
1 S WALNUT ST,,MILFORD,DE,199631953,,1 S WALNUT STMILFORDDE
727 W 4TH ST,,WILMINGTON,DE,198012003,,727 W 4TH STWILMINGTONDE
4160 OGLETOWN STANTON RD,,NEWARK,DE,197134169,,4160 OGLETOWN STANTON RDNEWARKDE
1025 CHESTNUT ST,,WILMINGTON,DE,198054024,,1025 CHESTNUT STWILMINGTONDE
30133 VETERANS WAY,,REHOBOTH BCH,DE,199714220,,30133 VETERANS WAYREHOBOTH BCHDE
507 BRIDGEVILLE HWY,,SEAFORD,DE,199731521,,507 BRIDGEVILLE HWYSEAFORDDE
4624 KIRKWOOD HWY,,WILMINGTON,DE,198085006,,4624 KIRKWOOD HWYWILMINGTONDE
57 BALTIMORE AVE,,REHOBOTH BCH,DE,199712131,,57 BALTIMORE AVEREHOBOTH BCHDE
829 N TATNALL ST,,WILMINGTON,DE,198011717,,829 N TATNALL STWILMINGTONDE
37078 COASTAL HWY,,FENWICK ISLAND,DE,199444029,,37078 COASTAL HWYFENWICK ISLANDDE
3101 MILLER ROAD,,WILMINGTON,DE,19802,,3101 MILLER ROADWILMINGTONDE
2209 CONCORD PIKE,,WILMINGTON,DE,198032908,,2209 CONCORD PIKEWILMINGTONDE
34444 COASTAL HWY,,BETHANY BEACH,DE,199303465,,34444 COASTAL HWYBETHANY BEACHDE
2510 W 5TH ST,,WILMINGTON,DE,198052905,,2510 W 5TH STWILMINGTONDE
109 W MARKET ST # 1,,LEWES,DE,199581346,,109 W MARKET ST # 1LEWESDE
2922 N MARKET ST,,WILMINGTON,DE,198023149,,2922 N MARKET STWILMINGTONDE
422 E MAIN ST # 424,,MIDDLETOWN,DE,197091462,,422 E MAIN ST # 424MIDDLETOWNDE
305 TORBERT ST,,WILMINGTON,DE,198011045,,305 TORBERT STWILMINGTONDE
125 N MARKET ST,,WILMINGTON,DE,198012525,,125 N MARKET STWILMINGTONDE
1604 SAVANNAH RD UNIT D,,LEWES,DE,199581664,,1604 SAVANNAH RD UNIT DLEWESDE
4633 WHITE DEER RD,,DELMAR,DE,199403050,,4633 WHITE DEER RDDELMARDE
PO BOX 975,,BETHANY BEACH,DE,19930,,PO BOX 975BETHANY BEACHDE
204 W 10TH ST,,WILMINGTON,DE,198011602,,204 W 10TH STWILMINGTONDE
28245 WARWICK ROAD,,MILLSBORO,DE,19966,,28245 WARWICK ROADMILLSBORODE
1 SALEM VILLAGE SQ,,NEWARK,DE,197132976,,1 SALEM VILLAGE SQNEWARKDE
33247 FAIRFIELD RD UNIT 16,,LEWES,DE,199585458,,33247 FAIRFIELD RD UNIT 16LEWESDE
100 S MAIN ST STE 102,,SMYRNA,DE,199771478,,100 S MAIN ST STE 102SMYRNADE
804 N ORANGE ST,,WILMINGTON,DE,198011710,,804 N ORANGE STWILMINGTONDE
513 MAIN ST,,ODESSA,DE,197302013,,513 MAIN STODESSADE
1790 W NEWPORT PIKE,,WILMINGTON,DE,198043540,,1790 W NEWPORT PIKEWILMINGTONDE
206 DELAWARE ST,,HST NEWCASTLE,DE,197204816,,206 DELAWARE STHST NEWCASTLEDE
28263 LEXUS DR UNIT 2,,MILFORD,DE,199632252,,28263 LEXUS DR UNIT 2MILFORDDE
5604 CONCORD PIKE,,WILMINGTON,DE,198031425,,5604 CONCORD PIKEWILMINGTONDE
2924 N MARKET ST,,WILMINGTON,DE,198023149,,2924 N MARKET STWILMINGTONDE
50 N DUPONT HWY STE 1,,DOVER,DE,199014292,,50 N DUPONT HWY STE 1DOVERDE
501 W 7TH ST,,NEW CASTLE,DE,19720,,501 W 7TH STNEW CASTLEDE
1503 RIDGE RD,,WILMINGTON,DE,198091831,,1503 RIDGE RDWILMINGTONDE
4621 OGLETOWN STANTON RD,,NEWARK,DE,197132006,,4621 OGLETOWN STANTON RDNEWARKDE
2713 PULASKI HWY,,NEWARK,DE,197023960,,2713 PULASKI HWYNEWARKDE
1718 W GILPIN DR,,WILMINGTON,DE,198051201,,1718 W GILPIN DRWILMINGTONDE
1847 PULASKI HWY,,BEAR,DE,197011731,,1847 PULASKI HWYBEARDE
531 E BASIN RD,,NEW CASTLE,DE,197204230,,531 E BASIN RDNEW CASTLEDE
631 BAYVIEW RD,,MIDDLETOWN,DE,197099627,,631 BAYVIEW RDMIDDLETOWNDE
101 2ND ST,,LEWES,DE,199581356,,101 2ND STLEWESDE
907 N DUPONT BLVD,,MILFORD,DE,199631060,,907 N DUPONT BLVDMILFORDDE
1704 E LEBANON RD,,DOVER,DE,199015845,,1704 E LEBANON RDDOVERDE
37078 COASTAL HWY,,FENWICK ISLAND,DE,199444029,,37078 COASTAL HWYFENWICK ISLANDDE
18756 COASTAL HWY,,REHOBOTH BCH,DE,199716155,,18756 COASTAL HWYREHOBOTH BCHDE
100 WEST AVE,,NEW CASTLE,DE,197205949,,100 WEST AVENEW CASTLEDE
16394 SAMUEL PAYNTER BLVD,,MILTON,DE,199683560,,16394 SAMUEL PAYNTER BLVDMILTONDE
1404 LANCASTER AVE,,WILMINGTON,DE,198053905,,1404 LANCASTER AVEWILMINGTONDE
16388 SAMUEL PAYNTER BLVD UNIT 4,,MILTON,DE,199683559,,16388 SAMUEL PAYNTER BLVD UNIT 4MILTONDE
7181 LANCASTER PIKE UNIT 2,,HOCKESSIN,DE,197079270,,7181 LANCASTER PIKE UNIT 2HOCKESSINDE
108 N RAILROAD AVE,,WYOMING,DE,199341024,,108 N RAILROAD AVEWYOMINGDE
5600 CONCORD PIKE STE 5614,,WILMINGTON,DE,198031425,,5600 CONCORD PIKE STE 5614WILMINGTONDE
40 N DUPONT HWY,,DOVER,DE,199014261,,40 N DUPONT HWYDOVERDE
18693 COASTAL HWY,,REHOBOTH BCH,DE,199716141,,18693 COASTAL HWYREHOBOTH BCHDE
307 N BROAD ST,,MIDDLETOWN,DE,197091036,,307 N BROAD STMIDDLETOWNDE
2703 PHILADELPHIA PIKE,,CLAYMONT,DE,197032571,,2703 PHILADELPHIA PIKECLAYMONTDE
18701 COASTAL HWY UNIT 1,,REHOBOTH BCH,DE,199716190,,18701 COASTAL HWY UNIT 1REHOBOTH BCHDE
8 W MCCAULLEY CT,,WILMINGTON,DE,198014021,,8 W MCCAULLEY CTWILMINGTONDE
101 S DUPONT HWY,,NEW CASTLE,DE,197204127,,101 S DUPONT HWYNEW CASTLEDE
1365 N DUPONT HWY STE 3044,,DOVER,DE,199018724,,1365 N DUPONT HWY STE 3044DOVERDE
800 W 4TH ST STE 201,,WILMINGTON,DE,198012043,,800 W 4TH ST STE 201WILMINGTONDE
105 GARFIELD PKWY,,BETHANY BEACH,DE,199307706,,105 GARFIELD PKWYBETHANY BEACHDE
136 S MAIN ST UNIT 106,,NEWARK,DE,197117975,,136 S MAIN ST UNIT 106NEWARKDE
2136 W NEWPORT PIKE,,WILMINGTON,DE,198043720,,2136 W NEWPORT PIKEWILMINGTONDE
20859 COASTAL HWY,,REHOBOTH BCH,DE,199718008,,20859 COASTAL HWYREHOBOTH BCHDE
59 E MAIN ST,,NEWARK,DE,197114645,,59 E MAIN STNEWARKDE
830-840 PEOPLES PLZ,,NEWARK,DE,19702,,830-840 PEOPLES PLZNEWARKDE
700 N DUPONT HWY,,NEW CASTLE,DE,197202531,,700 N DUPONT HWYNEW CASTLEDE
17448 S DUPONT HWY,,HARRINGTON,DE,199522481,,17448 S DUPONT HWYHARRINGTONDE
1424 FORREST AVE,,DOVER,DE,199043315,,1424 FORREST AVEDOVERDE
521 S HARRISON ST,,WILMINGTON,DE,198054303,,521 S HARRISON STWILMINGTONDE
915 S DUPONT HWY,,DOVER,DE,19901,,915 S DUPONT HWYDOVERDE
14 JAMISON ST,,NEWARK,DE,197131623,,14 JAMISON STNEWARKDE
106 SANDHILL DR UNIT A,,MIDDLETOWN,DE,197095849,,106 SANDHILL DR UNIT AMIDDLETOWNDE
19 PRIMROSE CT E LOT 29,,DOVER,DE,199012532,,19 PRIMROSE CT E LOT 29DOVERDE
19 PRIMROSE CT E LOT 29,,DOVER,DE,199012532,,19 PRIMROSE CT E LOT 29DOVERDE
701 ACE MEMORIAL DR,,HOCKESSIN,DE,197071037,,701 ACE MEMORIAL DRHOCKESSINDE
2 S BAY SHORE DR,,MILTON,DE,199689747,,2 S BAY SHORE DRMILTONDE
1708 E LEBANON RD STE 2,,DOVER,DE,199015813,,1708 E LEBANON RD STE 2DOVERDE
97 GARFIELD PKWY UNIT 1,,BETHANY BEACH,DE,199307757,,97 GARFIELD PKWY UNIT 1BETHANY BEACHDE
38667 SUSSEX HWY,,DELMAR,DE,199403514,,38667 SUSSEX HWYDELMARDE
1203 CHRISTIANA RD,,NEWARK,DE,197133503,,1203 CHRISTIANA RDNEWARKDE
1232 W 4TH ST,,WILMINGTON,DE,198053606,,1232 W 4TH STWILMINGTONDE
305 CHRISTIANA MALL,,NEWARK,DE,197023205,,305 CHRISTIANA MALLNEWARKDE
18979 COASTAL HWY UNIT 105,,REHOBOTH BCH,DE,199716221,,18979 COASTAL HWY UNIT 105REHOBOTH BCHDE
737 N DUPONT HWY,,DOVER,DE,199013938,,737 N DUPONT HWYDOVERDE
135 KARLYN DR,,NEW CASTLE,DE,197201308,,135 KARLYN DRNEW CASTLEDE
110 TROUBADOR WAY,,NEWARK,DE,197024460,,110 TROUBADOR WAYNEWARKDE
16967 S DUPONT HWY,,HARRINGTON,DE,199522487,,16967 S DUPONT HWYHARRINGTONDE
19162 BUTLER AVE,,LINCOLN,DE,199602943,,19162 BUTLER AVELINCOLNDE
111 W 10TH ST # 7,,WILMINGTON,DE,198011609,,111 W 10TH ST # 7WILMINGTONDE
1788 N DUPONT HWY,,DOVER,DE,199012219,,1788 N DUPONT HWYDOVERDE
10 N DUPONT HWY,,DOVER,DE,199014261,,10 N DUPONT HWYDOVERDE
140 COMMERCE DR,,MIDDLETOWN,DE,197099039,,140 COMMERCE DRMIDDLETOWNDE
233 QUAILS NEST DR,,DOVER,DE,199045588,,233 QUAILS NEST DRDOVERDE
11 TAVERNIER DR,,NEW CASTLE,DE,197203533,,11 TAVERNIER DRNEW CASTLEDE
23594 LINKSIDE DR,,BRIDGEVILLE,DE,199334683,,23594 LINKSIDE DRBRIDGEVILLEDE
129 HIDDEN BROOK BLVD,,DOVER,DE,199041793,,129 HIDDEN BROOK BLVDDOVERDE
231 PARKER DR,,MIDDLETOWN,DE,197092623,,231 PARKER DRMIDDLETOWNDE
134 W MARKET ST,,LEWES,DE,199581340,,134 W MARKET STLEWESDE
36773 LIGHTHOUSE RD,,SELBYVILLE,DE,199753957,,36773 LIGHTHOUSE RDSELBYVILLEDE
4701 LIMESTONE RD,GOLDEY BEACOM COLLEGE,WILMINGTON,DE,198081927,,4701 LIMESTONE RDWILMINGTONDE
1314 N WASHINGTON ST,,WILMINGTON,DE,198011098,,1314 N WASHINGTON STWILMINGTONDE
3318 KIRKWOOD HWY,,WILMINGTON,DE,198086132,,3318 KIRKWOOD HWYWILMINGTONDE
200 UNIVERSITY PLZ,,NEWARK,DE,197021550,,200 UNIVERSITY PLZNEWARKDE
482 BEAR CHRISTIANA RD,,BEAR,DE,197011039,,482 BEAR CHRISTIANA RDBEARDE
22 FOXHUNT DR,,BEAR,DE,197012534,,22 FOXHUNT DRBEARDE
1 CHARRING LANE,,NEW CASTLE,DE,19720,,1 CHARRING LANENEW CASTLEDE
355 EVERETTS CORNER RD,,HARTLY,DE,199533475,,355 EVERETTS CORNER RDHARTLYDE
216 NEW CASTLE AVE,,NEW CASTLE,DE,197202701,,216 NEW CASTLE AVENEW CASTLEDE
115 DALLAS AVE,,NEWARK,DE,197115125,,115 DALLAS AVENEWARKDE
429 S WALNUT ST,,WILMINGTON,DE,198015288,,429 S WALNUT STWILMINGTONDE
18 COMMONWEALTH BLVD,,NEW CASTLE,DE,197204431,,18 COMMONWEALTH BLVDNEW CASTLEDE
2003 N MARKET ST,,WILMINGTON,DE,198024814,,2003 N MARKET STWILMINGTONDE
104 ALEXIS CT,,HOCKESSIN,DE,197071706,,104 ALEXIS CTHOCKESSINDE
101 SONANT DR,,NEWARK,DE,197133510,,101 SONANT DRNEWARKDE
410 E SAVANNAH RD,,LEWES,DE,199581133,,410 E SAVANNAH RDLEWESDE
3111 MILLER RD,,WILMINGTON,DE,198022543,,3111 MILLER RDWILMINGTONDE
11290 TRUSSUM POND RD,,LAUREL,DE,199564592,,11290 TRUSSUM POND RDLAURELDE
35983 BLUE RUNNER LN,,LEWES,DE,199585039,,35983 BLUE RUNNER LNLEWESDE
212 COLUMBIA ST,,MILFORD,DE,199632010,,212 COLUMBIA STMILFORDDE
10 SALEM VILLAGE SQ,,NEWARK,DE,197132976,,10 SALEM VILLAGE SQNEWARKDE
309 W 7TH ST,,WILMINGTON,DE,198012177,,309 W 7TH STWILMINGTONDE
1905 COASTAL HWY UNIT 3,,DEWEY BEACH,DE,199712388,,1905 COASTAL HWY UNIT 3DEWEY BEACHDE
20301 CHARLOTTE BLVD S,,MILLSBORO,DE,199667562,,20301 CHARLOTTE BLVD SMILLSBORODE
879 N DUPONT HWY,,DOVER,DE,199012000,,879 N DUPONT HWYDOVERDE
4598 S DUPONT HWY,,CAMDEN,DE,199341380,,4598 S DUPONT HWYCAMDENDE
333 BLUECOAT ST,,DOVER,DE,199018864,,333 BLUECOAT STDOVERDE
216 W 9TH ST,,WILMINGTON,DE,198011698,,216 W 9TH STWILMINGTONDE
210 W 7TH ST,,WILMINGTON,DE,198012239,,210 W 7TH STWILMINGTONDE
29629 FIELD RD,,LEWES,DE,199583979,,29629 FIELD RDLEWESDE
56 S OLD BALTIMORE PIKE,,NEWARK,DE,197021596,,56 S OLD BALTIMORE PIKENEWARKDE
323 N PHILLIPS ST,,SEAFORD,DE,199732303,,323 N PHILLIPS STSEAFORDDE
18289 COASTAL HWY,,LEWES,DE,199584779,,18289 COASTAL HWYLEWESDE
50 N DUPONT HWY STE 15,,DOVER,DE,199014292,,50 N DUPONT HWY STE 15DOVERDE
1 CLUBHOUSE DR,,CAMDEN WYO,DE,199349501,,1 CLUBHOUSE DRCAMDEN WYODE
528 MIDDLETOWN WARWICK RD,,MIDDLETOWN,DE,197098873,,528 MIDDLETOWN WARWICK RDMIDDLETOWNDE
150 PENCADER PLZ,,NEWARK,DE,197133408,,150 PENCADER PLZNEWARKDE
35553 ATLANTIC AVE,,MILLVILLE,DE,199676961,,35553 ATLANTIC AVEMILLVILLEDE
695 BETHANY LOOP,,BETHANY BEACH,DE,199309035,,695 BETHANY LOOPBETHANY BEACHDE
1212 E 22ND ST,,WILMINGTON,DE,198024601,,1212 E 22ND STWILMINGTONDE
484 E MAIN ST,,MIDDLETOWN,DE,197091462,,484 E MAIN STMIDDLETOWNDE
305 COASTAL HWY UNIT 1,,FENWICK ISLE,DE,199444467,,305 COASTAL HWY UNIT 1FENWICK ISLEDE
1710 NAAMANS RD,,WILMINGTON,DE,198102610,,1710 NAAMANS RDWILMINGTONDE
130 FOUR SEASONS PKWY,,NEWARK,DE,197022327,,130 FOUR SEASONS PKWYNEWARKDE
793-795 GARFIELD PKY,,REHOBOTH BCH,DE,19971,,793-795 GARFIELD PKYREHOBOTH BCHDE
3901 CONCORD PIKE,RESTAURANT INC,WILMINGTON,DE,198031715,,3901 CONCORD PIKEWILMINGTONDE
RT 13 & CITY RD 30,,WOODSIDE,DE,19980,,RT 13 & CITY RD 30WOODSIDEDE
263 N DUPONT HWY,,DOVER,DE,199017509,,263 N DUPONT HWYDOVERDE
133 SUMMER DR,,SMYRNA,DE,199774101,,133 SUMMER DRSMYRNADE
20376 COASTAL HWY BLDG C,BUILDING C,REHOBOTH BCH,DE,199718015,,20376 COASTAL HWY BLDG CREHOBOTH BCHDE
701 ACE MEMORIAL DR,,HOCKESSIN,DE,197071037,,701 ACE MEMORIAL DRHOCKESSINDE
700 LANTANA DR,,HOCKESSIN,DE,197078810,,700 LANTANA DRHOCKESSINDE
490 FIRST STATE BLVD,,WILMINGTON,DE,198043745,,490 FIRST STATE BLVDWILMINGTONDE
135 CHRISTIANA RD STE 7,,NEW CASTLE,DE,197203036,,135 CHRISTIANA RD STE 7NEW CASTLEDE
700 PLAZA DR,,NEWARK,DE,197026370,,700 PLAZA DRNEWARKDE
4702 LIMESTONE RD,,WILMINGTON,DE,198081928,,4702 LIMESTONE RDWILMINGTONDE
840 KOHL AVE,,MIDDLETOWN,DE,197094703,,840 KOHL AVEMIDDLETOWNDE
698 N DUPONT BLVD # C,,MILFORD,DE,199631002,,698 N DUPONT BLVD # CMILFORDDE
600 N UNION ST,,WILMINGTON,DE,198053030,,600 N UNION STWILMINGTONDE
1000 CHURCHMANS RD,,NEWARK,DE,19713,,1000 CHURCHMANS RDNEWARKDE
100 BELLEVUE PKWY,,WILMINGTON,DE,198093700,,100 BELLEVUE PKWYWILMINGTONDE
86 CHRISTIANA RD,,NEW CASTLE,DE,197203118,,86 CHRISTIANA RDNEW CASTLEDE
400 BELLEVUE PKWY,,WILMINGTON,DE,198093723,,400 BELLEVUE PKWYWILMINGTONDE
432 E MARKET ST UNIT 100,,GEORGETOWN,DE,199472266,,432 E MARKET ST UNIT 100GEORGETOWNDE
62A REHOBOTH AVE,,REHOBOTH BEACH,DE,199712120,,62A REHOBOTH AVEREHOBOTH BEACHDE
930 MARYLAND AVE,,WILMINGTON,DE,198054837,,930 MARYLAND AVEWILMINGTONDE
PO BOX 1802,,MILLSBORO,DE,199667802,,PO BOX 1802MILLSBORODE
52 BALTIMORE AVE,,REHOBOTH BEACH,DE,199712130,,52 BALTIMORE AVEREHOBOTH BEACHDE
2625 N MARKET ST,,WILMINGTON,DE,198024242,,2625 N MARKET STWILMINGTONDE
34 ROBERT OAKES DR,,NEWARK,DE,19713,,34 ROBERT OAKES DRNEWARKDE
4307 KIRKWOOD HWY,,WILMINGTON,DE,19808,,4307 KIRKWOOD HWYWILMINGTONDE
1724 S GOVERNORS AVE,,DOVER,DE,19904,,1724 S GOVERNORS AVEDOVERDE
837 N UNION ST,,WILMINGTON,DE,198055323,,837 N UNION STWILMINGTONDE
249 NE FRONT ST,,MILFORD,DE,199631431,,249 NE FRONT STMILFORDDE
5 N RAILROAD AVE,,WYOMING,DE,199341043,,5 N RAILROAD AVEWYOMINGDE
30425 SEAFORD RD,,LAUREL,DE,199563842,,30425 SEAFORD RDLAURELDE
301 N BRADFORD ST,,DOVER,DE,199043001,,301 N BRADFORD STDOVERDE
13 W MAIN ST,,MIDDLETOWN,DE,197091017,,13 W MAIN STMIDDLETOWNDE
29 BALTIMORE AVE,,REHOBOTH BEACH,DE,199712131,,29 BALTIMORE AVEREHOBOTH BEACHDE
19531 COASTAL HWY,,REHOBOTH BEACH,DE,199716139,,19531 COASTAL HWYREHOBOTH BEACHDE
4617 OGLETOWN STANTON RD,,NEWARK,DE,197132006,,4617 OGLETOWN STANTON RDNEWARKDE
27 ATLANTIC AVE,,OCEAN VIEW,DE,199709169,,27 ATLANTIC AVEOCEAN VIEWDE
72 VALLEY FORGE DR,,MILFORD,DE,199632109,,72 VALLEY FORGE DRMILFORDDE
1223 W 4TH ST,,WILMINGTON,DE,198053605,,1223 W 4TH STWILMINGTONDE
123 N DUPONT HWY,,DOVER,DE,199014263,,123 N DUPONT HWYDOVERDE
3240 KIRKWOOD HWY,,WILMINGTON,DE,198086130,,3240 KIRKWOOD HWYWILMINGTONDE
13 BELLECOR DR STE A,,NEW CASTLE,DE,197201745,,13 BELLECOR DR STE ANEW CASTLEDE
25189 DUPONT BLVD,,GEORGETOWN,DE,199472620,,25189 DUPONT BLVDGEORGETOWNDE
194 N DUPONT HWY,,NEW CASTLE,DE,197203103,,194 N DUPONT HWYNEW CASTLEDE
33260 COASTAL HWY,,BETHANY BEACH,DE,199303780,,33260 COASTAL HWYBETHANY BEACHDE
3135 SUMMIT BRIDGE RD,,BEAR,DE,197012001,,3135 SUMMIT BRIDGE RDBEARDE
227 NE FRONT ST,,MILFORD,DE,199631431,,227 NE FRONT STMILFORDDE
1620 W NEWPORT PIKE,,WILMINGTON,DE,198043500,,1620 W NEWPORT PIKEWILMINGTONDE
36908 SILICATO DR UNIT 12,,MILLSBORO,DE,199665006,,36908 SILICATO DR UNIT 12MILLSBORODE
1508 N DUPONT HWY,,NEW CASTLE,DE,19720,,1508 N DUPONT HWYNEW CASTLEDE
301 LOGANBERRY TER,,DOVER,DE,199011768,,301 LOGANBERRY TERDOVERDE
196 PENN MART SHOPPING CTR,,NEW CASTLE,DE,197204209,,196 PENN MART SHOPPING CTRNEW CASTLEDE
714 S MARYLAND AVE,,WILMINGTON,DE,198041634,,714 S MARYLAND AVEWILMINGTONDE
3216 KIRKWOOD HWY STE 8,,WILMINGTON,DE,198086130,,3216 KIRKWOOD HWY STE 8WILMINGTONDE
415 W STEIN HWY,,SEAFORD,DE,199731239,,415 W STEIN HWYSEAFORDDE
38450 HICKMAN RD,,OCEAN VIEW,DE,199704164,,38450 HICKMAN RDOCEAN VIEWDE
28 CORDELE RD,,NEWARK,DE,197115610,,28 CORDELE RDNEWARKDE
481 STANTON CHRISTIANA RD,,NEWARK,DE,197132119,,481 STANTON CHRISTIANA RDNEWARKDE
1644 W 4TH ST,,WILMINGTON,DE,198053590,,1644 W 4TH STWILMINGTONDE
31 WILDFIRE LN,,NEW CASTLE,DE,197203860,,31 WILDFIRE LNNEW CASTLEDE
107 S DUPONT HWY,,NEW CASTLE,DE,197204127,,107 S DUPONT HWYNEW CASTLEDE
4706 LIMESTONE RD,,WILMINGTON,DE,198081928,,4706 LIMESTONE RDWILMINGTONDE
21498 WITHERS WAY,,LINCOLN,DE,199602500,,21498 WITHERS WAYLINCOLNDE
700 COASTAL HWY,,FENWICK ISLAND,DE,199444408,,700 COASTAL HWYFENWICK ISLANDDE
137 E MAIN ST,,NEWARK,DE,197117562,,137 E MAIN STNEWARKDE
132 CHRISTIANA MALL SPC 1486,,NEWARK,DE,197023202,,132 CHRISTIANA MALL SPC 1486NEWARKDE
1012 WILMINGTON AVE,,ELSMERE,DE,198051560,,1012 WILMINGTON AVEELSMEREDE
7454 LANCASTER PIKE UNIT 2,,HOCKESSIN,DE,197079399,,7454 LANCASTER PIKE UNIT 2HOCKESSINDE
1200 PULASKI HWY,,BEAR,DE,197011321,,1200 PULASKI HWYBEARDE
1923 PULASKI HWY,,BEAR,DE,197013845,,1923 PULASKI HWYBEARDE
1901 PENNSYLVANIA AVE,,WILMINGTON,DE,198064039,,1901 PENNSYLVANIA AVEWILMINGTONDE
1327 MCKENNANS CHURCH RD,,WILMINGTON,DE,198082132,,1327 MCKENNANS CHURCH RDWILMINGTONDE
1275 N DUPONT HWY STE 100,,DOVER,DE,199018704,,1275 N DUPONT HWY STE 100DOVERDE
5 BROOKMONT DR,,NEWARK,DE,197024141,,5 BROOKMONT DRNEWARKDE
4 2ND ST,,REHOBOTH BEACH,DE,199712118,,4 2ND STREHOBOTH BEACHDE
1A REHOBOTH AVE,,REHOBOTH BEACH,DE,199712119,,1A REHOBOTH AVEREHOBOTH BEACHDE
1401 PHILADELPHIA PIKE,,WILMINGTON,DE,198091874,,1401 PHILADELPHIA PIKEWILMINGTONDE
412 N DUPONT ST,,WILMINGTON,DE,19805,,412 N DUPONT STWILMINGTONDE
102 2ND ST,,LEWES,DE,199581324,,102 2ND STLEWESDE
28 WILMINGTON AVE UNIT E,,REHOBOTH BEACH,DE,199712926,,28 WILMINGTON AVE UNIT EREHOBOTH BEACHDE
139 DOWNEY OAK CIR,,WYOMING,DE,199342284,,139 DOWNEY OAK CIRWYOMINGDE
30201 COMMERCE DR,,MILLSBORO,DE,199663591,,30201 COMMERCE DRMILLSBORODE
30 EAST ST,,CAMDEN,DE,199341355,,30 EAST STCAMDENDE
114 HIGH ST,,SEAFORD,DE,199733908,,114 HIGH STSEAFORDDE
288 S DUPONT HWY,,DOVER,DE,199014733,,288 S DUPONT HWYDOVERDE
236 REHOBOTH AVE,,REHOBOTH BEACH,DE,199712134,,236 REHOBOTH AVEREHOBOTH BEACHDE
974 CENTRE RD BLDG 730,,WILMINGTON,DE,198051269,,974 CENTRE RD BLDG 730WILMINGTONDE
220 CHRISTIANA MALL SPC 1491,,NEWARK,DE,197023204,,220 CHRISTIANA MALL SPC 1491NEWARKDE
36125 ZION CHURCH RD,,FRANKFORD,DE,199454546,,36125 ZION CHURCH RDFRANKFORDDE
250 COLLEGE SQ,,NEWARK,DE,197115451,,250 COLLEGE SQNEWARKDE
915 N DUPONT BLVD STE 103,,MILFORD,DE,199631093,,915 N DUPONT BLVD STE 103MILFORDDE
4007 KENNETT PIKE,,GREENVILLE,DE,198072043,,4007 KENNETT PIKEGREENVILLEDE
1256 NORMAN ESKRIDGE HWY,,SEAFORD,DE,199731726,,1256 NORMAN ESKRIDGE HWYSEAFORDDE
807 W NEWPORT PIKE,,WILMINGTON,DE,19804,,807 W NEWPORT PIKEWILMINGTONDE
PO BOX 162,,SAINT GEORGES,DE,197330162,,PO BOX 162SAINT GEORGESDE
600 N UNION ST,,WILMINGTON,DE,198053030,,600 N UNION STWILMINGTONDE
19749 PRINCESS ST,,REHOBOTH BEACH,DE,199713864,,19749 PRINCESS STREHOBOTH BEACHDE
584 MIDDLETOWN WARWICK RD,,MIDDLETOWN,DE,197098873,,584 MIDDLETOWN WARWICK RDMIDDLETOWNDE
505 BRIDGEVILLE HWY,,SEAFORD,DE,199731521,,505 BRIDGEVILLE HWYSEAFORDDE
913 S DUPONT HWY,,DOVER,DE,199014419,,913 S DUPONT HWYDOVERDE
3616 KIRKWOOD HWY STE A,,WILMINGTON,DE,198085124,,3616 KIRKWOOD HWY STE AWILMINGTONDE
223 NE FRONT ST,,MILFORD,DE,199631431,,223 NE FRONT STMILFORDDE
343 WILMORE DR,,MIDDLETOWN,DE,197098381,,343 WILMORE DRMIDDLETOWNDE
98 GARFIELD PKWY # 2,,BETHANY BEACH,DE,199307753,,98 GARFIELD PKWY # 2BETHANY BEACHDE
22095 DUPONT BLVD,,GEORGETOWN,DE,199473166,,22095 DUPONT BLVDGEORGETOWNDE
42 1/2 BALTIMORE AVE,,REHOBOTH BEACH,DE,199712130,,42 1/2 BALTIMORE AVEREHOBOTH BEACHDE
754 E CHESTNUT HILL RD,,NEWARK,DE,197131830,,754 E CHESTNUT HILL RDNEWARKDE
2705 PHILADELPHIA PIKE,,CLAYMONT,DE,197032523,,2705 PHILADELPHIA PIKECLAYMONTDE
103 E MAIN ST,,FELTON,DE,199437322,,103 E MAIN STFELTONDE
3734 KIRKWOOD HWY,,WILMINGTON,DE,198085106,,3734 KIRKWOOD HWYWILMINGTONDE
15 W REDMONT RD,,WILMINGTON,DE,198043713,,15 W REDMONT RDWILMINGTONDE
801 SHIPYARD DR,,WILMINGTON,DE,198015154,,801 SHIPYARD DRWILMINGTONDE
129 REHOBOTH AVE STE B,,REHOBOTH BEACH,DE,199712172,,129 REHOBOTH AVE STE BREHOBOTH BEACHDE
28606 DUPONT BLVD,,MILLSBORO,DE,199664737,,28606 DUPONT BLVDMILLSBORODE
3466 NAAMANS RD,,WILMINGTON,DE,198101066,,3466 NAAMANS RDWILMINGTONDE
620 PLAZA DR UNIT 10B,,NEWARK,DE,197026368,,620 PLAZA DR UNIT 10BNEWARKDE
18 MONTCEAU DR,,NEWARK,DE,197025534,,18 MONTCEAU DRNEWARKDE
414 DELAWARE ST,,HISTORIC NEW CASTLE,DE,197205040,,414 DELAWARE STHISTORIC NEW CASTLEDE
1601 CONCORD PIKE STE 7779,,WILMINGTON,DE,198033612,,1601 CONCORD PIKE STE 7779WILMINGTONDE
1651 E LEBANON RD,,DOVER,DE,199015841,,1651 E LEBANON RDDOVERDE
31507 OAK ORCHARD ROAD,,MILLSBORO,DE,19966,,31507 OAK ORCHARD ROADMILLSBORODE
1131 N DUPONT HWY,,DOVER,DE,199012008,,1131 N DUPONT HWYDOVERDE
4157 CONCORD PIKE,,WILMINGTON,DE,198031487,,4157 CONCORD PIKEWILMINGTONDE
711 ACE MEMORIAL DR,,HOCKESSIN,DE,19707,,711 ACE MEMORIAL DRHOCKESSINDE
3533 PHILADELPHIA PIKE UNIT D,,CLAYMONT,DE,19703,,3533 PHILADELPHIA PIKE UNIT DCLAYMONTDE
814 KOHL AVE,,MIDDLETOWN,DE,197094703,,814 KOHL AVEMIDDLETOWNDE
3731 KIRKWOOD HWY,,WILMINGTON,DE,198085105,,3731 KIRKWOOD HWYWILMINGTONDE
4132 OGLETOWN STANTON RD,,NEWARK,DE,197134169,,4132 OGLETOWN STANTON RDNEWARKDE
955 N DUPONT BLVD,,MILFORD,DE,199631072,,955 N DUPONT BLVDMILFORDDE
1350 S DUPONT BLVD,,SMYRNA,DE,199771804,,1350 S DUPONT BLVDSMYRNADE
27 CHRISTIANA RD,,NEW CASTLE,DE,197203117,,27 CHRISTIANA RDNEW CASTLEDE
19470 COASTAL HWY UNIT 15,,REHOBOTH BEACH,DE,199716128,,19470 COASTAL HWY UNIT 15REHOBOTH BEACHDE
200 EDEN CIR,,BEAR,DE,197014302,,200 EDEN CIRBEARDE
401 PHILADELPHIA PIKE,,WILMINGTON,DE,198092152,,401 PHILADELPHIA PIKEWILMINGTONDE
223 PHILLIPS DR,,MAGNOLIA,DE,199624623,,223 PHILLIPS DRMAGNOLIADE
1413 HAMILTON ST,,WILMINGTON,DE,198061316,,1413 HAMILTON STWILMINGTONDE
35 SPRUANCE RD,,DOVER,DE,199014048,,35 SPRUANCE RDDOVERDE
20612 BAY RD,,REHOBOTH BEACH,DE,199713707,,20612 BAY RDREHOBOTH BEACHDE
3150 N DUPONT HWY,,DOVER,DE,199018712,,3150 N DUPONT HWYDOVERDE
1051 N DUPONT HWY,,DOVER,DE,199012006,,1051 N DUPONT HWYDOVERDE
612 PLAZA DR,,NEWARK,DE,197026368,,612 PLAZA DRNEWARKDE
60 EAST ST,,CAMDEN,DE,199341355,,60 EAST STCAMDENDE
3401 CONCORD PIKE,,WILMINGTON,DE,198035018,,3401 CONCORD PIKEWILMINGTONDE
228 CHRISTIANA MALL STE 1516,,NEWARK,DE,197023204,,228 CHRISTIANA MALL STE 1516NEWARKDE
1159 S DUPONT HWY,,DOVER,DE,199014423,,1159 S DUPONT HWYDOVERDE
28615 LEWES GEORGETOWN HWY,,MILTON,DE,199683397,,28615 LEWES GEORGETOWN HWYMILTONDE
361 BUCKLEY MILL RD,,WILMINGTON,DE,198073035,,361 BUCKLEY MILL RDWILMINGTONDE
181 S DUPONT HWY,,NEW CASTLE,DE,197204140,,181 S DUPONT HWYNEW CASTLEDE
3240 KIRKWOOD HWY,,WILMINGTON,DE,198086130,,3240 KIRKWOOD HWYWILMINGTONDE
209 STADIUM ST,,SMYRNA,DE,199772899,,209 STADIUM STSMYRNADE
19178 COASTAL HWY,,REHOBOTH BEACH,DE,199716110,,19178 COASTAL HWYREHOBOTH BEACHDE
323 W MAIN ST,,CHRISTIANA,DE,197021534,,323 W MAIN STCHRISTIANADE
5800 KENNETT PIKE,,WILMINGTON,DE,198071116,,5800 KENNETT PIKEWILMINGTONDE
1700 KIRKWOOD HWY,,WILMINGTON,DE,198054919,,1700 KIRKWOOD HWYWILMINGTONDE
125 S WEST ST,,WILMINGTON,DE,198015014,,125 S WEST STWILMINGTONDE
761 GARFIELD PKWY,,BETHANY BEACH,DE,199309717,,761 GARFIELD PKWYBETHANY BEACHDE
3250 FASHION CENTER BLVD,,NEWARK,DE,197023254,,3250 FASHION CENTER BLVDNEWARKDE
1107 S COLLEGE AVE,,NEWARK,DE,197132307,,1107 S COLLEGE AVENEWARKDE
1211 N DUPONT HWY,,DOVER,DE,199012250,,1211 N DUPONT HWYDOVERDE
18598 COASTAL HWY UNIT 2,,REHOBOTH BEACH,DE,199716142,,18598 COASTAL HWY UNIT 2REHOBOTH BEACHDE
1004 BUNKER HILL RD UNIT D,,MIDDLETOWN,DE,197094702,,1004 BUNKER HILL RD UNIT DMIDDLETOWNDE
3228 KIRKWOOD HWY STE B,,WILMINGTON,DE,198086158,,3228 KIRKWOOD HWY STE BWILMINGTONDE
2150 FASHION CENTER BLVD,,NEWARK,DE,197023256,,2150 FASHION CENTER BLVDNEWARKDE
500 STANTON CHRISTIANA RD,,NEWARK,DE,197132105,,500 STANTON CHRISTIANA RDNEWARKDE
880 POWDER MILL RD,,WILMINGTON,DE,198032966,,880 POWDER MILL RDWILMINGTONDE
107 SAVANNAH RD,,LEWES,DE,199581437,,107 SAVANNAH RDLEWESDE
20200 COASTAL HWY,,REHOBOTH BEACH,DE,199718057,,20200 COASTAL HWYREHOBOTH BEACHDE
38 CARPENTER PLZ,,WILMINGTON,DE,198102049,,38 CARPENTER PLZWILMINGTONDE
4742 LIMESTONE RD,,WILMINGTON,DE,198081928,,4742 LIMESTONE RDWILMINGTONDE
68 ATLANTIC AVE,,OCEAN VIEW,DE,199709170,,68 ATLANTIC AVEOCEAN VIEWDE
301 W 11TH ST,,WILMINGTON,DE,198011519,,301 W 11TH STWILMINGTONDE
802 DELAWARE AVE,,WILMINGTON,DE,198011377,,802 DELAWARE AVEWILMINGTONDE
1801 AUGUSTINE CUT OFF,,WILMINGTON,DE,198034404,,1801 AUGUSTINE CUT OFFWILMINGTONDE
209 MAIN ST UNITS #10 11 12 13,,MILLSBORO,DE,19966,,209 MAIN ST UNITS #10 11 12 13MILLSBORODE
902 N MARKET ST,,WILMINGTON,DE,198013016,,902 N MARKET STWILMINGTONDE
941 N DUPONT BLVD STE H,,MILFORD,DE,199631069,,941 N DUPONT BLVD STE HMILFORDDE
1131 W 7TH ST,,WILMINGTON,DE,198053219,,1131 W 7TH STWILMINGTONDE
85 ATLANTIC AVE,,OCEAN VIEW,DE,199709168,,85 ATLANTIC AVEOCEAN VIEWDE
582 MIDDLETOWN WARWICK RD,,MIDDLETOWN,DE,197098873,,582 MIDDLETOWN WARWICK RDMIDDLETOWNDE
305 REHOBOTH AVE UNIT B,,REHOBOTH BEACH,DE,199713127,,305 REHOBOTH AVE UNIT BREHOBOTH BEACHDE
19010 COASTAL HWY,,REHOBOTH BEACH,DE,199716135,,19010 COASTAL HWYREHOBOTH BEACHDE
23475 SUSSEX HWY,,SEAFORD,DE,199735875,,23475 SUSSEX HWYSEAFORDDE
33 WILMINGTON AVE,,REHOBOTH BEACH,DE,199712218,,33 WILMINGTON AVEREHOBOTH BEACHDE
1912 MARSH RD,,WILMINGTON,DE,198103954,,1912 MARSH RDWILMINGTONDE
501 S HARMONY RD,,NEWARK,DE,197133338,,501 S HARMONY RDNEWARKDE
670 N DUPONT BLVD,,MILFORD,DE,199631002,,670 N DUPONT BLVDMILFORDDE
286 S DUPONT HWY,,DOVER,DE,199014733,,286 S DUPONT HWYDOVERDE
522 N BEDFORD ST,,GEORGETOWN,DE,199472175,,522 N BEDFORD STGEORGETOWNDE
807 GOVERNORS PL,,BEAR,DE,197013046,,807 GOVERNORS PLBEARDE
34902 ATLANTIC AVE,,OCEAN VIEW,DE,199703523,,34902 ATLANTIC AVEOCEAN VIEWDE
4737 CONCORD PIKE STE 760,,WILMINGTON,DE,198031452,,4737 CONCORD PIKE STE 760WILMINGTONDE
1103 CHURCHMANS RD,,NEWARK,DE,197132112,,1103 CHURCHMANS RDNEWARKDE
630 NAAMANS RD,,CLAYMONT,DE,197032310,,630 NAAMANS RDCLAYMONTDE
676 N DUPONT BLVD,,MILFORD,DE,199631002,,676 N DUPONT BLVDMILFORDDE
5335 LIMESTONE RD,,WILMINGTON,DE,198081222,,5335 LIMESTONE RDWILMINGTONDE
9072 MIDDLEFORD RD,,SEAFORD,DE,199737855,,9072 MIDDLEFORD RDSEAFORDDE
1661 PULASKI HWY,,BEAR,DE,197011453,,1661 PULASKI HWYBEARDE
108 2ND ST STE 1,,LEWES,DE,199581342,,108 2ND ST STE 1LEWESDE
760 WALKER RD,,DOVER,DE,199042725,,760 WALKER RDDOVERDE
16 SALEM VILLAGE SQ,,NEWARK,DE,197132976,,16 SALEM VILLAGE SQNEWARKDE
17254 FIVE POINTS SQ,,LEWES,DE,199586289,,17254 FIVE POINTS SQLEWESDE
101 COASTAL HWY UNIT 6,,FENWICK ISLAND,DE,199444463,,101 COASTAL HWY UNIT 6FENWICK ISLANDDE
21248 IRON THRONE DR UNIT 2,,MILTON,DE,199683100,,21248 IRON THRONE DR UNIT 2MILTONDE
923 N DUPONT BLVD,,MILFORD,DE,199631045,,923 N DUPONT BLVDMILFORDDE
310 GROVE LN,,NEWARK,DE,197115492,,310 GROVE LNNEWARKDE
19526 PINE RD,,LINCOLN,DE,199603016,,19526 PINE RDLINCOLNDE
786 GARFIELD PKWY,,BETHANY BEACH,DE,199309219,,786 GARFIELD PKWYBETHANY BEACHDE
16 CHARRING LN,,NEW CASTLE,DE,197202308,,16 CHARRING LNNEW CASTLEDE
202 LOGANBERRY LN,,REHOBOTH BCH,DE,199719531,,202 LOGANBERRY LNREHOBOTH BCHDE
202 LOGANBERRY LN,,REHOBOTH BCH,DE,199719531,,202 LOGANBERRY LNREHOBOTH BCHDE
32175 DUPONT BLVD,,DAGSBORO,DE,199394443,,32175 DUPONT BLVDDAGSBORODE
4 TORONTO CIR,,NEWARK,DE,197022710,,4 TORONTO CIRNEWARKDE
40 LAWSON AVE,,CLAYMONT,DE,197032032,,40 LAWSON AVECLAYMONTDE
2300 COASTAL HWY,,DEWEY BEACH,DE,199712314,,2300 COASTAL HWYDEWEY BEACHDE
474 W MAIN ST,,MIDDLETOWN,DE,197091063,,474 W MAIN STMIDDLETOWNDE
4732 LIMESTONE RD,,WILMINGTON,DE,198081928,,4732 LIMESTONE RDWILMINGTONDE
945 N DUPONT BLVD,,MILFORD,DE,199631047,,945 N DUPONT BLVDMILFORDDE
BUILDING 1  UNIT 11 50 N. DUPONT HIGHWAY,,DOVER,DE,19901,,BUILDING 1  UNIT 11 50 N. DUPONT HIGHWAYDOVERDE
4590 S DUPONT HWY,,CAMDEN,DE,199341363,,4590 S DUPONT HWYCAMDENDE
127 STERLING AVE,,CLAYMONT,DE,197036001,,127 STERLING AVECLAYMONTDE
1204 CENTERVILLE RD,,WILMINGTON,DE,198086218,,1204 CENTERVILLE RDWILMINGTONDE
1014 N LINCOLN ST,,WILMINGTON,DE,198052742,,1014 N LINCOLN STWILMINGTONDE
4931 DUPONT PKWY,,SMYRNA,DE,199779607,,4931 DUPONT PKWYSMYRNADE
1247 CHURCHMANS RD,,NEWARK,DE,197132149,,1247 CHURCHMANS RDNEWARKDE
192 CHRISTIANA RD,,NEW CASTLE,DE,197203007,,192 CHRISTIANA RDNEW CASTLEDE
59 GRAVELLY RUN BRANCH RD,,CLAYTON,DE,199383934,,59 GRAVELLY RUN BRANCH RDCLAYTONDE
18675 COASTAL HWY,,REHOBOTH BEACH,DE,199716146,,18675 COASTAL HWYREHOBOTH BEACHDE
37234 LIGHTHOUSE RD,,SELBYVILLE,DE,199753981,,37234 LIGHTHOUSE RDSELBYVILLEDE
16331 SENECA ST,,LEWES,DE,199582956,,16331 SENECA STLEWESDE
25938 PLAZA DR UNIT 5,,MILLSBORO,DE,199666290,,25938 PLAZA DR UNIT 5MILLSBORODE
212 S GOVERNORS AVE,,DOVER,DE,199046704,,212 S GOVERNORS AVEDOVERDE
110 DAVID HOLLOWELL DR,,NEWARK,DE,197167400,,110 DAVID HOLLOWELL DRNEWARKDE
305 TULIP PL,,SEAFORD,DE,199731338,,305 TULIP PLSEAFORDDE
89 MYERS DR,,HARTLY,DE,199533048,,89 MYERS DRHARTLYDE
1715 DELAWARE AVE,,WILMINGTON,DE,198062329,,1715 DELAWARE AVEWILMINGTONDE
204 OAKWOOD RD,,WILMINGTON,DE,198033133,,204 OAKWOOD RDWILMINGTONDE
111 QUINCE DR,,NEWARK,DE,197024128,,111 QUINCE DRNEWARKDE
144 KINGS HWY,,DOVER,DE,199017308,,144 KINGS HWYDOVERDE
16 CALIFORNIA PKWY,,HARRINGTON,DE,199522222,,16 CALIFORNIA PKWYHARRINGTONDE
5600B CONCORD PIKE,,WILMINGTON,DE,198031425,,5600B CONCORD PIKEWILMINGTONDE
226 W MARKET ST,,NEWPORT,DE,198043152,,226 W MARKET STNEWPORTDE
226 W MARKET ST,,NEWPORT,DE,198043152,,226 W MARKET STNEWPORTDE
140 CARTER RD,,DOVER,DE,199015569,,140 CARTER RDDOVERDE
7 LOBLOLLY DR,,SEAFORD,DE,199739000,,7 LOBLOLLY DRSEAFORDDE
VINEYARDS @NASSAU VALLEY/STORE A 24120 ZINFANDEL LANE,,LEWES,DE,19958,,VINEYARDS @NASSAU VALLEY/STORE A 24120 ZINFANDEL LANELEWESDE
401 7TH AVE,,WILMINGTON,DE,198054767,,401 7TH AVEWILMINGTONDE
250 S MAIN ST STE 110,,NEWARK,DE,197114552,,250 S MAIN ST STE 110NEWARKDE
203 HIGHLAND DR,,SEAFORD,DE,199734834,,203 HIGHLAND DRSEAFORDDE
3230 FASHION CENTER BLVD,,NEWARK,DE,197023254,,3230 FASHION CENTER BLVDNEWARKDE
5609 CONCORD PIKE,,WILMINGTON,DE,198031428,,5609 CONCORD PIKEWILMINGTONDE
6021 CONNERY PL,,MIDDLETOWN,DE,197096625,,6021 CONNERY PLMIDDLETOWNDE
58 E MAIN ST,,NEWARK,DE,197114667,,58 E MAIN STNEWARKDE
1211 N DUPONT HWY,,DOVER,DE,199012250,,1211 N DUPONT HWYDOVERDE
1600 S GOVERNORS AVE,,DOVER,DE,19904,,1600 S GOVERNORS AVEDOVERDE
1 WILMINGTON AVE,,REHOBOTH BEACH,DE,199712925,,1 WILMINGTON AVEREHOBOTH BEACHDE
2 E MAIN ST,,MIDDLETOWN,DE,197091427,,2 E MAIN STMIDDLETOWNDE
212 BOXWOOD RD STE 200,,WILMINGTON,DE,198041825,,212 BOXWOOD RD STE 200WILMINGTONDE
227 S HARRISON ST,,WILMINGTON,DE,198054004,,227 S HARRISON STWILMINGTONDE
1205 COASTAL HWY,,DEWEY BEACH,DE,199712406,,1205 COASTAL HWYDEWEY BEACHDE
5 W CHURCH ST,,SELBYVILLE,DE,199752003,,5 W CHURCH STSELBYVILLEDE
928 BEAR CORBITT RD,,BEAR,DE,197011322,,928 BEAR CORBITT RDBEARDE
620 N MARKET ST,,WILMINGTON,DE,198013007,,620 N MARKET STWILMINGTONDE
13 CHESTNUT HILL PLZ,,NEWARK,DE,197132701,,13 CHESTNUT HILL PLZNEWARKDE
610 N UNION ST WATER ICE STAND,,WILMINGTON,DE,198053030,,610 N UNION ST WATER ICE STANDWILMINGTONDE
35507 ATLANTIC AVE,,MILLVILLE,DE,19967,,35507 ATLANTIC AVEMILLVILLEDE
820 N FRENCH ST,,WILMINGTON,DE,198013509,,820 N FRENCH STWILMINGTONDE
1 WESTHAMPTON DR,,WILMINGTON,DE,198081355,,1 WESTHAMPTON DRWILMINGTONDE
200 CONCORD AVE,,WILMINGTON,DE,198024034,,200 CONCORD AVEWILMINGTONDE
195 APPLE BLOSSOM DR,,CAMDEN WYOMING,DE,199341970,,195 APPLE BLOSSOM DRCAMDEN WYOMINGDE
851 NORMAN ESKRIDGE HWY,,SEAFORD,DE,199731717,,851 NORMAN ESKRIDGE HWYSEAFORDDE
206 N DUPONT HWY,,DOVER,DE,199017510,,206 N DUPONT HWYDOVERDE
8375 NYLON AVE,,SEAFORD,DE,199735842,,8375 NYLON AVESEAFORDDE
95 HORSE TRAIL LN,,FELTON,DE,199436635,,95 HORSE TRAIL LNFELTONDE
720 KINGS HWY,,LEWES,DE,199581725,,720 KINGS HWYLEWESDE
230 EAST MAIN STREET,,NEWARK,DE,19711,,230 EAST MAIN STREETNEWARKDE
1132 PULASKI HWY UNIT 3A,,BEAR,DE,197011305,,1132 PULASKI HWY UNIT 3ABEARDE
1225 N DUPONT HWY UNIT D,,DOVER,DE,199012264,,1225 N DUPONT HWY UNIT DDOVERDE
511 W 22ND ST,,WILMINGTON,DE,198024009,,511 W 22ND STWILMINGTONDE
4723 CONCORD PIKE,,WILMINGTON,DE,198031446,,4723 CONCORD PIKEWILMINGTONDE
6531 DECOU DR,,MILFORD,DE,199633479,,6531 DECOU DRMILFORDDE
801 N UNION ST,,WILMINGTON,DE,198055323,,801 N UNION STWILMINGTONDE
4526B KIRKWOOD HWY,,WILMINGTON,DE,198085118,,4526B KIRKWOOD HWYWILMINGTONDE
14 E MAIN ST,,MIDDLETOWN,DE,197091427,,14 E MAIN STMIDDLETOWNDE
33103 MAIN ST,,DAGSBORO,DE,199393801,,33103 MAIN STDAGSBORODE
313 JUSTISON ST,,WILMINGTON,DE,198015164,,313 JUSTISON STWILMINGTONDE
204 NE FRONT ST # 1,,MILFORD,DE,199631432,,204 NE FRONT ST # 1MILFORDDE
1639 PULASKI HWY,,BEAR,DE,197011453,,1639 PULASKI HWYBEARDE
1812 MARSH RD,,WILMINGTON,DE,198104581,,1812 MARSH RDWILMINGTONDE
6 WESLEY ST,,CAMDEN,DE,199341343,,6 WESLEY STCAMDENDE
825 HALLTOWN RD UNIT 3,,MARYDEL,DE,199642184,,825 HALLTOWN RD UNIT 3MARYDELDE
30447 CEDAR NECK RD UNIT 4,,OCEAN VIEW,DE,199704129,,30447 CEDAR NECK RD UNIT 4OCEAN VIEWDE
4600 OGLETOWN STANTON RD,,NEWARK,DE,197132007,,4600 OGLETOWN STANTON RDNEWARKDE
10 ELIZABETH CT,,NEWARK,DE,197115682,,10 ELIZABETH CTNEWARKDE
225 W LOOCKERMAN ST,,DOVER,DE,199043247,,225 W LOOCKERMAN STDOVERDE
342 BUCKLEY MILL RD STE 200,,GREENVILLE,DE,198073035,,342 BUCKLEY MILL RD STE 200GREENVILLEDE
4723 KIRKWOOD HWY STE B,,WILMINGTON,DE,198085014,,4723 KIRKWOOD HWY STE BWILMINGTONDE
401 GARASCHES LN,,WILMINGTON,DE,198015522,,401 GARASCHES LNWILMINGTONDE
3256 FASHION CENTER BLVD,,NEWARK,DE,197023254,,3256 FASHION CENTER BLVDNEWARKDE
16 ROBINSON CIR,,SEAFORD,DE,199731534,,16 ROBINSON CIRSEAFORDDE
17063 S BRANDT ST UNIT 4301,,LEWES,DE,199587216,,17063 S BRANDT ST UNIT 4301LEWESDE
3201 CONCORD PIKE,,WILMINGTON,DE,198035014,,3201 CONCORD PIKEWILMINGTONDE
38613 BENRO DR UNIT 7&8,,DELMAR,DE,199403571,,38613 BENRO DR UNIT 7&8DELMARDE
84 MAHOPAC DR,,BEAR,DE,197013822,,84 MAHOPAC DRBEARDE
4138 OGLETOWN STANTON RD,,NEWARK,DE,197134169,,4138 OGLETOWN STANTON RDNEWARKDE
1031 S MARKET ST,,WILMINGTON,DE,198015227,,1031 S MARKET STWILMINGTONDE
1309 WHEATLEYS POND RD,,SMYRNA,DE,19977,,1309 WHEATLEYS POND RDSMYRNADE
20750 JOHN J WILLIAMS HWY UNIT 8,,LEWES,DE,199584399,,20750 JOHN J WILLIAMS HWY UNIT 8LEWESDE
139 S MAIN ST,,NEWARK,DE,197117982,,139 S MAIN STNEWARKDE
561 N DUPONT HWY STE B,,DOVER,DE,199013960,,561 N DUPONT HWY STE BDOVERDE
92 SMYRNA AVE,,CLAYTON,DE,199387743,,92 SMYRNA AVECLAYTONDE
300 BUCKLEY MILL RD,,WILMINGTON,DE,198073035,,300 BUCKLEY MILL RDWILMINGTONDE
325 CHRISTIANA MALL SPC 1325,,NEWARK,DE,197023205,,325 CHRISTIANA MALL SPC 1325NEWARKDE
315 CHRISTIANA MALL SPC 1332,,NEWARK,DE,197023205,,315 CHRISTIANA MALL SPC 1332NEWARKDE
17 W 27TH ST,,WILMINGTON,DE,198023553,,17 W 27TH STWILMINGTONDE
681 E CHESTNUT HILL RD,,NEWARK,DE,197131827,,681 E CHESTNUT HILL RDNEWARKDE
228 REHOBOTH AVE,,REHOBOTH BEACH,DE,199712134,,228 REHOBOTH AVEREHOBOTH BEACHDE
29887 JOHN J WILLIAMS HWY,,MILLSBORO,DE,199663922,,29887 JOHN J WILLIAMS HWYMILLSBORODE
1005 NORMAN ESKRIDGE HWY,,SEAFORD,DE,199731721,,1005 NORMAN ESKRIDGE HWYSEAFORDDE
810 NORMAN ESKRIDGE HWY,,SEAFORD,DE,199731718,,810 NORMAN ESKRIDGE HWYSEAFORDDE
179 N THISTLE WAY,,NEWARK,DE,197024091,,179 N THISTLE WAYNEWARKDE
19 CURLEW CIR,,NEWARK,DE,197024211,,19 CURLEW CIRNEWARKDE
314 MAIN ST,,CLAYTON,DE,199387701,,314 MAIN STCLAYTONDE
188 PENN MART SHOPPING CTR,,NEW CASTLE,DE,197204209,,188 PENN MART SHOPPING CTRNEW CASTLEDE
2 N MAIN ST,,SMYRNA,DE,199771427,,2 N MAIN STSMYRNADE
412 W 25TH ST,,WILMINGTON,DE,198023405,,412 W 25TH STWILMINGTONDE
214 PEOPLES PLZ,,NEWARK,DE,197024795,,214 PEOPLES PLZNEWARKDE
12461 DUPONT BLVD,,ELLENDALE,DE,199412830,,12461 DUPONT BLVDELLENDALEDE
211 S MAIN ST LOT ELCS,,NEWARK,DE,197114527,,211 S MAIN ST LOT ELCSNEWARKDE
600 CENTER BLVD,,NEWARK,DE,197023200,,600 CENTER BLVDNEWARKDE
1130 CAPITOL TRL,,NEWARK,DE,197113955,,1130 CAPITOL TRLNEWARKDE
683 YORKLYN RD UNIT 3,,HOCKESSIN,DE,197079712,,683 YORKLYN RD UNIT 3HOCKESSINDE
33034 COASTAL HWY,,BETHANY BEACH,DE,199303754,,33034 COASTAL HWYBETHANY BEACHDE
470 CHRISTIANA MALL SPC 1697,,NEWARK,DE,197023208,,470 CHRISTIANA MALL SPC 1697NEWARKDE
1255 QUINTILIO DR,,BEAR,DE,197016005,,1255 QUINTILIO DRBEARDE
1247 QUINTILIO DR,,BEAR,DE,197016005,,1247 QUINTILIO DRBEARDE
300 N ORANGE ST,,WILMINGTON,DE,19801,,300 N ORANGE STWILMINGTONDE
20843 COUNTRY RD,,GEORGETOWN,DE,199474954,,20843 COUNTRY RDGEORGETOWNDE
2316 BAYNARD BLVD,,WILMINGTON,DE,198023944,,2316 BAYNARD BLVDWILMINGTONDE
170 E MAIN ST,,NEWARK,DE,197117318,,170 E MAIN STNEWARKDE
270 UNIVERSITY DR,,NEWARK,DE,197131180,,270 UNIVERSITY DRNEWARKDE
103 N DUPONT BLVD,,SMYRNA,DE,199771545,,103 N DUPONT BLVDSMYRNADE
1818 COASTAL HWY,,DEWEY BEACH,DE,199712332,,1818 COASTAL HWYDEWEY BEACHDE
65 E VIOLETTE DR,,NEW CASTLE,DE,197207611,,65 E VIOLETTE DRNEW CASTLEDE
558 N DUPONT HWY,,DOVER,DE,199013961,,558 N DUPONT HWYDOVERDE
37031 OLD MILL BRIDGE RD UNIT B,,SELBYVILLE,DE,199753940,,37031 OLD MILL BRIDGE RD UNIT BSELBYVILLEDE
1317 MCKENNANS CHURCH RD,,WILMINGTON,DE,198082132,,1317 MCKENNANS CHURCH RDWILMINGTONDE
919 N MARKET,,WILMINGTON,DE,19801,,919 N MARKETWILMINGTONDE
203 E. SAVANNAH ROAD,,LEWES,DE,19958,,203 E. SAVANNAH ROADLEWESDE
1721 W GILPIN DR,,WILMINGTON,DE,198051261,,1721 W GILPIN DRWILMINGTONDE
38223 DUPONT BLVE UNIT 8,,SELBYVILLE,DE,19975,,38223 DUPONT BLVE UNIT 8SELBYVILLEDE
4825 KENNETT PIKE,,WILMINGTON,DE,198071813,,4825 KENNETT PIKEWILMINGTONDE
4209 CONCORD PIKE UNIT 4327,,WILMINGTON,DE,198031403,,4209 CONCORD PIKE UNIT 4327WILMINGTONDE
40 GEOFFREY DR,,NEWARK,DE,197133603,,40 GEOFFREY DRNEWARKDE
304 BUCKLEY MILL RD BARLEY MILL PLAZA,,GREENVILLE,DE,198073035,,304 BUCKLEY MILL RD BARLEY MILL PLAZAGREENVILLEDE
100-800 EDEN CIRCLE 15,,BEAR,DE,19701,,100-800 EDEN CIRCLE 15BEARDE
5409 N DUPONT HWY,,DOVER,DE,19901,,5409 N DUPONT HWYDOVERDE
155 HONORA DR,,BEAR,DE,197012044,,155 HONORA DRBEARDE
123 2ND ST,,REHOBOTH BEACH,DE,199712283,,123 2ND STREHOBOTH BEACHDE
1612 N DUPONT HWY,,NEW CASTLE,DE,197201904,,1612 N DUPONT HWYNEW CASTLEDE
41 ANDOVER BRANCH RD,,CLAYTON,DE,199383947,,41 ANDOVER BRANCH RDCLAYTONDE
70 REHOBOTH AVE,,REHOBOTH BEACH,DE,199712171,,70 REHOBOTH AVEREHOBOTH BEACHDE
24739 SPRINGFIELD RD,,GEORGETOWN,DE,199476360,,24739 SPRINGFIELD RDGEORGETOWNDE
4017 KENNETT PIKE,,GREENVILLE,DE,198072018,,4017 KENNETT PIKEGREENVILLEDE
304 KELLY CT,,NEWARK,DE,197022075,,304 KELLY CTNEWARKDE
5731 GRIFFITH LAKE DR,,MILFORD,DE,199633519,,5731 GRIFFITH LAKE DRMILFORDDE
22822 SUSSEX HWY,,SEAFORD,DE,199735862,,22822 SUSSEX HWYSEAFORDDE
1325 CHURCHMANS RD,,NEWARK,DE,197132100,,1325 CHURCHMANS RDNEWARKDE
204 CHURCHMANS RD,,NEW CASTLE,DE,197203110,,204 CHURCHMANS RDNEW CASTLEDE
19022 COASTAL HWY,,REHOBOTH BEACH,DE,199716135,,19022 COASTAL HWYREHOBOTH BEACHDE
39 N WALNUT ST,,MILFORD,DE,199631467,,39 N WALNUT STMILFORDDE
50 N DUPONT HWY STE 1,,DOVER,DE,199014292,,50 N DUPONT HWY STE 1DOVERDE
3100 NAAMANS RD STE 1,,WILMINGTON,DE,198102100,,3100 NAAMANS RD STE 1WILMINGTONDE
1841 PULASKI HWY,,BEAR,DE,197011731,,1841 PULASKI HWYBEARDE
99 OCEAN VIEW PKWY,,BETHANY BEACH,DE,199309262,,99 OCEAN VIEW PKWYBETHANY BEACHDE
883 PULASKI HWY,,BEAR,DE,197011252,,883 PULASKI HWYBEARDE
404 BEDFORD LN,,NEW CASTLE,DE,197203936,,404 BEDFORD LNNEW CASTLEDE
1516 W 4TH ST,,WILMINGTON,DE,198053511,,1516 W 4TH STWILMINGTONDE
1502 BEAVER BROOK PLZ STE 102,,NEW CASTLE,DE,197208633,,1502 BEAVER BROOK PLZ STE 102NEW CASTLEDE
900 N WASHINGTON ST,,WILMINGTON,DE,198011512,,900 N WASHINGTON STWILMINGTONDE
3 W MARKET ST,,GREENWOOD,DE,19950,,3 W MARKET STGREENWOODDE
71 REHOBOTH AVE,,REHOBOTH BEACH,DE,199712119,,71 REHOBOTH AVEREHOBOTH BEACHDE
9634 HICKORY LN,,GREENWOOD,DE,199505406,,9634 HICKORY LNGREENWOODDE
4723 KIRKWOOD HWY STE B,,WILMINGTON,DE,198085014,,4723 KIRKWOOD HWY STE BWILMINGTONDE
17323 OCEAN ONE PLZ,,LEWES,DE,199581898,,17323 OCEAN ONE PLZLEWESDE
11290 TRUSSUM POND RD,,LAUREL,DE,199564592,,11290 TRUSSUM POND RDLAURELDE
92 N WEST ST,,DOVER,DE,199043130,,92 N WEST STDOVERDE
307 S BOOTH DR,,NEW CASTLE,DE,197204329,,307 S BOOTH DRNEW CASTLEDE
332 HIGH ST,,SEAFORD,DE,199733931,,332 HIGH STSEAFORDDE
1053 N DUPONT HWY,,DOVER,DE,199012006,,1053 N DUPONT HWYDOVERDE
430 EDEN CIR,,BEAR,DE,197014304,,430 EDEN CIRBEARDE
697 E CHESTNUT HILL RD,,NEWARK,DE,197131827,,697 E CHESTNUT HILL RDNEWARKDE
3544 WILLIAMSVILLE RD,,HOUSTON,DE,199542427,,3544 WILLIAMSVILLE RDHOUSTONDE
251 REHOBOTH AVE,,REHOBOTH BEACH,DE,199712137,,251 REHOBOTH AVEREHOBOTH BEACHDE
38131 TERRACE RD,,REHOBOTH BEACH,DE,199712074,,38131 TERRACE RDREHOBOTH BEACHDE
3 S 1ST ST,,REHOBOTH BEACH,DE,199712243,,3 S 1ST STREHOBOTH BEACHDE
32 KING STREET,,CAMDEN,DE,19934,,32 KING STREETCAMDENDE
2392 DUPONT PKWY,,MIDDLETOWN,DE,197099351,,2392 DUPONT PKWYMIDDLETOWNDE
230 E MAIN ST #614,,NEWARK,DE,19711,,230 E MAIN ST #614NEWARKDE
476 MIDDLETOWN WARWICK RD,,MIDDLETOWN,DE,197099192,,476 MIDDLETOWN WARWICK RDMIDDLETOWNDE
532 LEWES LANDING RD,,MIDDLETOWN,DE,197090028,,532 LEWES LANDING RDMIDDLETOWNDE
36932 SILICATO DR,,MILLSBORO,DE,199665003,,36932 SILICATO DRMILLSBORODE
67 GREENTREE DR,,DOVER,DE,199047646,,67 GREENTREE DRDOVERDE
345 STARBOARD DR,,BEAR,DE,197012299,,345 STARBOARD DRBEARDE
1454 FREDERICA RD,,FREDERICA,DE,199462089,,1454 FREDERICA RDFREDERICADE
141 STONE RIDGE DR,,DOVER,DE,199018204,,141 STONE RIDGE DRDOVERDE
3100 NAAMANS RD STE 5,,WILMINGTON,DE,198102100,,3100 NAAMANS RD STE 5WILMINGTONDE
28521 DUPONT BLVD,,MILLSBORO,DE,199663751,,28521 DUPONT BLVDMILLSBORODE
8 TH GREEN SUITE A,,DOVER,DE,19901,,8 TH GREEN SUITE ADOVERDE
2606 CLEVELAND AVE,,CLAYMONT,DE,197032448,,2606 CLEVELAND AVECLAYMONTDE
1585 CALDWELL CORNER RD,,TOWNSEND,DE,197349258,,1585 CALDWELL CORNER RDTOWNSENDDE
108 E MAIN ST STE 101,,NEWARK,DE,197117385,,108 E MAIN ST STE 101NEWARKDE
101 KARINS BLVD,,TOWNSEND,DE,197343021,,101 KARINS BLVDTOWNSENDDE
2011 KIRKWOOD HWY,,WILMINGTON,DE,198054921,,2011 KIRKWOOD HWYWILMINGTONDE
3421 KIRKWOOD HWY UNIT A-D,,WILMINGTON,DE,198086159,,3421 KIRKWOOD HWY UNIT A-DWILMINGTONDE
18701 COASTAL HWY UNIT 9,,REHOBOTH BEACH,DE,199716190,,18701 COASTAL HWY UNIT 9REHOBOTH BEACHDE
74 E MAIN ST,,NEWARK,DE,197114640,,74 E MAIN STNEWARKDE
2001 COASTAL HWY,,DEWEY BEACH,DE,199712318,,2001 COASTAL HWYDEWEY BEACHDE
30758 BUTCHER LN,,LEWES,DE,199585593,,30758 BUTCHER LNLEWESDE
1223 W 4TH ST,,WILMINGTON,DE,198053605,,1223 W 4TH STWILMINGTONDE
111 GARFIELD PKWY,,BETHANY BEACH,DE,199307706,,111 GARFIELD PKWYBETHANY BEACHDE
34 KING BOULEVARD,,CAMDEN,DE,19934,,34 KING BOULEVARDCAMDENDE
47A REHOBOTH AVE,,REHOBOTH BEACH,DE,199712119,,47A REHOBOTH AVEREHOBOTH BEACHDE
721 W 7TH ST,,WILMINGTON,DE,198012024,,721 W 7TH STWILMINGTONDE
88 MASSEY BRANCH RD,,CLAYTON,DE,199383937,,88 MASSEY BRANCH RDCLAYTONDE
611 HILLS MARKET RD,,HARRINGTON,DE,199525859,,611 HILLS MARKET RDHARRINGTONDE
1009 W 4TH ST,,WILMINGTON,DE,198053601,,1009 W 4TH STWILMINGTONDE
315 N KING ST,,WILMINGTON,DE,198012523,,315 N KING STWILMINGTONDE
36908 SILICATO DR UNIT 13,,MILLSBORO,DE,199665006,,36908 SILICATO DR UNIT 13MILLSBORODE
520 N UNION ST,,WILMINGTON,DE,198053028,,520 N UNION STWILMINGTONDE
230 EAST MAIN STREET STE 205,,NEWARK,DE,19711,,230 EAST MAIN STREET STE 205NEWARKDE
10 N 1ST ST,,REHOBOTH BEACH,DE,199712116,,10 N 1ST STREHOBOTH BEACHDE
2114 S DUPONT HWY STE 2,,CAMDEN,DE,199341258,,2114 S DUPONT HWY STE 2CAMDENDE
318 PARK LN,,WILMINGTON,DE,198042353,,318 PARK LNWILMINGTONDE
150 N DUPONT HWY,,DOVER,DE,199014264,,150 N DUPONT HWYDOVERDE
105 DELAWARE DR,,NEW CASTLE,DE,197202713,,105 DELAWARE DRNEW CASTLEDE
35715 ATLANTIC AVE,,MILLVILLE,DE,199676944,,35715 ATLANTIC AVEMILLVILLEDE
263 WALMART DR,,CAMDEN,DE,199341308,,263 WALMART DRCAMDENDE
722 PHILADELPHIA PIKE,,BELLEFONTE,DE,198092541,,722 PHILADELPHIA PIKEBELLEFONTEDE
701 N BROAD ST,,MIDDLETOWN,DE,19709,,701 N BROAD STMIDDLETOWNDE
1 EASTON CT APT 636A,,NEWARK,DE,197117538,,1 EASTON CT APT 636ANEWARKDE
13747 WOLF RD,,GREENWOOD,DE,199505533,,13747 WOLF RDGREENWOODDE
11 N 1ST ST,,REHOBOTH BEACH,DE,199712115,,11 N 1ST STREHOBOTH BEACHDE
33156 LIGHTHOUSE RD,,SELBYVILLE,DE,199754018,,33156 LIGHTHOUSE RDSELBYVILLEDE
1800 CONCORD PIKE,,WILMINGTON,DE,198970001,,1800 CONCORD PIKEWILMINGTONDE
6900 LANCASTER PIKE,,HOCKESSIN,DE,197078719,,6900 LANCASTER PIKEHOCKESSINDE
101 SCHOOL RD,,WILMINGTON,DE,198034522,,101 SCHOOL RDWILMINGTONDE
641 N DUPONT BLVD,,MILFORD,DE,199631098,,641 N DUPONT BLVDMILFORDDE
127 GROVE LN,,NEWARK,DE,197115488,,127 GROVE LNNEWARKDE
18541 S MAIN ST,,BRIDGEVILLE,DE,199333807,,18541 S MAIN STBRIDGEVILLEDE
400 MAIN ST,,CLAYTON,DE,199387700,,400 MAIN STCLAYTONDE
39413 INLET RD,,REHOBOTH BEACH,DE,199712600,,39413 INLET RDREHOBOTH BEACHDE
1232 KYNLYN DR,,WILMINGTON,DE,198092419,,1232 KYNLYN DRWILMINGTONDE
22518 LEWES GEORGETOWN HWY,,GEORGETOWN,DE,199475533,,22518 LEWES GEORGETOWN HWYGEORGETOWNDE
46 BLUEBERRY DR,,MAGNOLIA,DE,199621933,,46 BLUEBERRY DRMAGNOLIADE
617 E LOOCKERMAN ST,,DOVER,DE,199017415,,617 E LOOCKERMAN STDOVERDE
115 SHERIDAN LN,,SMYRNA,DE,199771735,,115 SHERIDAN LNSMYRNADE
1700 COASTAL HIGHWAY,,DEWEY BEACH,DE,19971,,1700 COASTAL HIGHWAYDEWEY BEACHDE
1500 COASTAL HWY SUITE 1,,FENWICK ISLAND,DE,19944,,1500 COASTAL HWY SUITE 1FENWICK ISLANDDE
600 N BROAD ST STE 9,,MIDDLETOWN,DE,197091032,,600 N BROAD ST STE 9MIDDLETOWNDE
42 ATLANTIC AVE,,OCEAN VIEW,DE,19970,,42 ATLANTIC AVEOCEAN VIEWDE
30391 PEPPER TRL,,FRANKFORD,DE,199453034,,30391 PEPPER TRLFRANKFORDDE
1041 N DUPONT HWY #1456,,DOVER,DE,19901,,1041 N DUPONT HWY #1456DOVERDE
18701 COASTAL HWY UNIT 12,,REHOBOTH BEACH,DE,199716190,,18701 COASTAL HWY UNIT 12REHOBOTH BEACHDE
1156 S BAY RD,,DOVER,DE,199014633,,1156 S BAY RDDOVERDE
173 PINE CONE DR,,DOVER,DE,199011976,,173 PINE CONE DRDOVERDE
2800 LANCASTER AVE STE 3,,WILMINGTON,DE,198055200,,2800 LANCASTER AVE STE 3WILMINGTONDE
2303 CONCORD PIKE,,WILMINGTON,DE,198032911,,2303 CONCORD PIKEWILMINGTONDE
8 FRANKLIN AVE,,CLAYMONT,DE,197032034,,8 FRANKLIN AVECLAYMONTDE
3614 CONCORD PIKE,,WILMINGTON,DE,198035022,,3614 CONCORD PIKEWILMINGTONDE
218 S WASHINGTON ST APT B,,MILFORD,DE,199632813,,218 S WASHINGTON ST APT BMILFORDDE
1730 MARSH RD,,WILMINGTON,DE,198104606,,1730 MARSH RDWILMINGTONDE
64 E MAIN ST,,NEWARK,DE,197114670,,64 E MAIN STNEWARKDE
316 FULTON ST,,DOVER,DE,199043136,,316 FULTON STDOVERDE
18226 COASTAL HWY,,LEWES,DE,199584774,,18226 COASTAL HWYLEWESDE
16967 S DUPONT HWY,,HARRINGTON,DE,199522487,,16967 S DUPONT HWYHARRINGTONDE
1204 N WASHINGTON ST,,WILMINGTON,DE,198011020,,1204 N WASHINGTON STWILMINGTONDE
110 JENNIFER LN,,FELTON,DE,199439304,,110 JENNIFER LNFELTONDE
110 JENNIFER LN,,FELTON,DE,199439304,,110 JENNIFER LNFELTONDE
1700 KIRKWOOD HWY,,WILMINGTON,DE,198054919,,1700 KIRKWOOD HWYWILMINGTONDE
64 GEOFFREY DR,,NEWARK,DE,197133603,,64 GEOFFREY DRNEWARKDE
400 MARTIN LUTHER KING BLVD,,WILMINGTON,DE,198012410,,400 MARTIN LUTHER KING BLVDWILMINGTONDE
10 SHERIE ST,,BEAR,DE,197016374,,10 SHERIE STBEARDE
10 GEOFFREY DR,,NEWARK,DE,197133603,,10 GEOFFREY DRNEWARKDE
1810 ARLENE DR,,WILMINGTON,DE,198044002,,1810 ARLENE DRWILMINGTONDE
132 HALCYON DR,,NEW CASTLE,DE,197201241,,132 HALCYON DRNEW CASTLEDE
7313 LANCASTER PIKE STE 5,,HOCKESSIN,DE,197079278,,7313 LANCASTER PIKE STE 5HOCKESSINDE
21068 W MAYHEW DR,,LINCOLN,DE,199602730,,21068 W MAYHEW DRLINCOLNDE
8 E HIGH ST,,SEAFORD,DE,199734139,,8 E HIGH STSEAFORDDE
36 N WALNUT ST,,MILFORD,DE,199631446,,36 N WALNUT STMILFORDDE
453 S BARRINGTON CT,,NEWARK,DE,19702,,453 S BARRINGTON CTNEWARKDE
2307 W NEWPORT PIKE STE B,,WILMINGTON,DE,198043848,,2307 W NEWPORT PIKE STE BWILMINGTONDE
211 S MAIN ST UNIT 106,,NEWARK,DE,197114528,,211 S MAIN ST UNIT 106NEWARKDE
205 COASTAL HWY UNTI 2,,FENWICK ISLAND,DE,199444466,,205 COASTAL HWY UNTI 2FENWICK ISLANDDE
699 BETHANY LOOP,,BETHANY BEACH,DE,199309035,,699 BETHANY LOOPBETHANY BEACHDE
806 E 13TH ST,,WILMINGTON,DE,198025002,,806 E 13TH STWILMINGTONDE
26 N PENNSYLVANIA AVE,,BETHANY BEACH,DE,199309263,,26 N PENNSYLVANIA AVEBETHANY BEACHDE
133 N HUNTER FORGE RD,,NEWARK,DE,197131108,,133 N HUNTER FORGE RDNEWARKDE
970 CHRISTIANA MALL,,NEWARK,DE,197023218,,970 CHRISTIANA MALLNEWARKDE
35308 ATLANTIC AVE,,MILLVILLE,DE,199676903,,35308 ATLANTIC AVEMILLVILLEDE
102 S UNION ST,,WILMINGTON,DE,198053829,,102 S UNION STWILMINGTONDE
19565 W PINEY GROVE RD,,GEORGETOWN,DE,199475819,,19565 W PINEY GROVE RDGEORGETOWNDE
1430 S GOVERNORS AVE,,DOVER,DE,199047018,,1430 S GOVERNORS AVEDOVERDE
3 GERMAY DR STE 4,,WILMINGTON,DE,198041127,,3 GERMAY DR STE 4WILMINGTONDE
16 N MARKET ST,,BLADES,DE,199733900,,16 N MARKET STBLADESDE
16397 SENECA ST # C2,,LEWES,DE,199582956,,16397 SENECA ST # C2LEWESDE
1905 COASTAL HWY STE 5,,DEWEY BEACH,DE,199712344,,1905 COASTAL HWY STE 5DEWEY BEACHDE
4015 CONCORD PIKE,,WILMINGTON,DE,198031717,,4015 CONCORD PIKEWILMINGTONDE
17 RED MILL RD,,NEWARK,DE,197116665,,17 RED MILL RDNEWARKDE
2435 PULASKI HWY,,NEWARK,DE,197023905,,2435 PULASKI HWYNEWARKDE
227 W 8TH ST,,WILMINGTON,DE,198011768,,227 W 8TH STWILMINGTONDE
100 SE FRONT ST,,MILFORD,DE,199631944,,100 SE FRONT STMILFORDDE
1215 MAPLE ST,,WILMINGTON,DE,198054311,,1215 MAPLE STWILMINGTONDE
28533 CAVE NECK RD,,MILTON,DE,199683043,,28533 CAVE NECK RDMILTONDE
2625 PULASKI HWY,,NEWARK,DE,197023909,,2625 PULASKI HWYNEWARKDE
3624 CONCORD PIKE STE O,,WILMINGTON,DE,198035022,,3624 CONCORD PIKE STE OWILMINGTONDE
400 S RIDGE AVE,,MIDDLETOWN,DE,197094687,,400 S RIDGE AVEMIDDLETOWNDE
3138 FASHION CENTER BLVD,,NEWARK,DE,197023246,,3138 FASHION CENTER BLVDNEWARKDE
4 MECHANIC ST,,HARRINGTON,DE,199521125,,4 MECHANIC STHARRINGTONDE
242 SYKES RD,,NEW CASTLE,DE,197201845,,242 SYKES RDNEW CASTLEDE
2399 LIMESTONE RD,,WILMINGTON,DE,198084100,,2399 LIMESTONE RDWILMINGTONDE
1 CHESMAR PLZ,,NEWARK,DE,197132461,,1 CHESMAR PLZNEWARKDE
38909 SANDPIPER CIR,,FRANKFORD,DE,199454767,,38909 SANDPIPER CIRFRANKFORDDE
100 SANDHILL DR,,MIDDLETOWN,DE,197095806,,100 SANDHILL DRMIDDLETOWNDE
222 DELAWARE ST,,HISTORIC NEW CASTLE,DE,19720,,222 DELAWARE STHISTORIC NEW CASTLEDE
601 MARYLAND AVE,,WILMINGTON,DE,198054428,,601 MARYLAND AVEWILMINGTONDE
70 REHOBOTH AVE STE 105,,REHOBOTH BEACH,DE,199712127,,70 REHOBOTH AVE STE 105REHOBOTH BEACHDE
2452 W PALLADIO PLACE,,MIDDLETOWN,DE,197091032,,2452 W PALLADIO PLACEMIDDLETOWNDE
3660 CONCORD PIKE,,WILMINGTON,DE,198035022,,3660 CONCORD PIKEWILMINGTONDE
3115 NEW CASTLE AVE LOT 2,,NEW CASTLE,DE,197202195,,3115 NEW CASTLE AVE LOT 2NEW CASTLEDE
18814 COASTAL HWY,,REHOBOTH BEACH,DE,199716150,,18814 COASTAL HWYREHOBOTH BEACHDE
165 CHARLIES CT,,FELTON,DE,199435272,,165 CHARLIES CTFELTONDE
320 BUCKLEY MILL RD,,WILMINGTON,DE,198073035,,320 BUCKLEY MILL RDWILMINGTONDE
192 N DUPONT HWY,,NEW CASTLE,DE,197203103,,192 N DUPONT HWYNEW CASTLEDE
1006 W FOUNDS ST,,TOWNSEND,DE,197343005,,1006 W FOUNDS STTOWNSENDDE
133 N DUPONT BLVD UNIT 101,,SMYRNA,DE,199771545,,133 N DUPONT BLVD UNIT 101SMYRNADE
2 S CONGRESS ST,,PORT PENN,DE,197313104,,2 S CONGRESS STPORT PENNDE
3086 LEIPSIC RD,,DOVER,DE,199011419,,3086 LEIPSIC RDDOVERDE
516 JEFFERIC BLVD,,DOVER,DE,199012023,,516 JEFFERIC BLVDDOVERDE
102 S UNION ST,,WILMINGTON,DE,198053829,,102 S UNION STWILMINGTONDE
28243 DUPONT BLVD,,MILLSBORO,DE,199664747,,28243 DUPONT BLVDMILLSBORODE
8 THE GRN STE 8448,,DOVER,DE,199013618,,8 THE GRN STE 8448DOVERDE
803 PHILADELPHIA PIKE  SUITE B   PMB 7096,,CLAYMONT,DE,19703,,803 PHILADELPHIA PIKE  SUITE B   PMB 7096CLAYMONTDE
707 S UNION ST A-1,,WILMINGTON,DE,19805,,707 S UNION ST A-1WILMINGTONDE
1101 CHURCHMANS RD UNIT 1125,,NEWARK,DE,197132112,,1101 CHURCHMANS RD UNIT 1125NEWARKDE
226 MAIN ST,,MILLSBORO,DE,199668530,,226 MAIN STMILLSBORODE
20 N DUPONT HWY STE 1,,DOVER,DE,199014209,,20 N DUPONT HWY STE 1DOVERDE
714 GREENBANK RD,,WILMINGTON,DE,198083168,,714 GREENBANK RDWILMINGTONDE
1200 N DUPONT HWY,,DOVER,DE,199012202,,1200 N DUPONT HWYDOVERDE
132 CHRISTIANA MALL,,NEWARK,DE,197023202,,132 CHRISTIANA MALLNEWARKDE
610 CAPITOL TRL,,NEWARK,DE,197113869,,610 CAPITOL TRLNEWARKDE
27 S WALNUT ST STE 104,,MILFORD,DE,199631953,,27 S WALNUT ST STE 104MILFORDDE
108 LAKE ARROWHEAD CIR,,BEAR,DE,197011794,,108 LAKE ARROWHEAD CIRBEARDE
1607 MIDDLEFORD RD,,SEAFORD,DE,199733617,,1607 MIDDLEFORD RDSEAFORDDE
18388 COASTAL HWY UNIT 7,,LEWES,DE,199584204,,18388 COASTAL HWY UNIT 7LEWESDE
1724 W NEWPORT PIKE,,WILMINGTON,DE,198043540,,1724 W NEWPORT PIKEWILMINGTONDE
109 NW FRONT ST,,MILFORD,DE,199631022,,109 NW FRONT STMILFORDDE
22267 LESTER LN,,GEORGETOWN,DE,199475558,,22267 LESTER LNGEORGETOWNDE
18 O ROURKE CT,,NEWARK,DE,197026844,,18 O ROURKE CTNEWARKDE
132 CHRISTIANA MALL,,NEWARK,DE,197023202,,132 CHRISTIANA MALLNEWARKDE
37232 LIGHTHOUSE RD,,SELBYVILLE,DE,199753981,,37232 LIGHTHOUSE RDSELBYVILLEDE
7788 LANCASTER PIKE,,HOCKESSIN,DE,19707,,7788 LANCASTER PIKEHOCKESSINDE
129 OLGA RD,,WILMINGTON,DE,198052041,,129 OLGA RDWILMINGTONDE
606 W 9TH ST,,WILMINGTON,DE,198011420,,606 W 9TH STWILMINGTONDE
2 MYERS RD,,NEWARK,DE,197132317,,2 MYERS RDNEWARKDE
18949 COASTAL HWY,,REHOBOTH BEACH,DE,199716216,,18949 COASTAL HWYREHOBOTH BEACHDE
32612 LONG NECK RD,,MILLSBORO,DE,199666676,,32612 LONG NECK RDMILLSBORODE
62 LYNBROOK RD,,WILMINGTON,DE,198042670,,62 LYNBROOK RDWILMINGTONDE
699 BETHANY LOOP UNIT 2,,S BETHANY,DE,199309035,,699 BETHANY LOOP UNIT 2S BETHANYDE
303 N RACE ST,,GEORGETOWN,DE,199471165,,303 N RACE STGEORGETOWNDE
104 SILICATO PKWY,,MILFORD,DE,199631266,,104 SILICATO PKWYMILFORDDE
1038 GREARS CORNER RD,,TOWNSEND,DE,197349534,,1038 GREARS CORNER RDTOWNSENDDE
30739 SUSSEX HWY,,LAUREL,DE,199564425,,30739 SUSSEX HWYLAURELDE
16192 COASTAL HWY,,LEWES,DE,199583608,,16192 COASTAL HWYLEWESDE
10912 COUNTY SEAT HWY,,LAUREL,DE,199563688,,10912 COUNTY SEAT HWYLAURELDE
333 S DUPONT HWY,,NEW CASTLE,DE,197204641,,333 S DUPONT HWYNEW CASTLEDE
31023 N POPLAR ST,,LAUREL,DE,199563992,,31023 N POPLAR STLAURELDE
900 PALMER STREET EXT STE B,,MILTON,DE,199681064,,900 PALMER STREET EXT STE BMILTONDE
648 BUCKSON DR,,DOVER,DE,199012582,,648 BUCKSON DRDOVERDE
8 THE GRN STE A,,DOVER,DE,199013618,,8 THE GRN STE ADOVERDE
130 TROUBADOR WAY,,NEWARK,DE,197024460,,130 TROUBADOR WAYNEWARKDE
320 AUTO PARK DR,,MIDDLETOWN,DE,197099194,,320 AUTO PARK DRMIDDLETOWNDE
1672 S GOVERNORS AVE,,DOVER,DE,199047004,,1672 S GOVERNORS AVEDOVERDE
38 S MARKET ST,,SEAFORD,DE,199731997,,38 S MARKET STSEAFORDDE
1329 THISTLEWOOD RD,,HOUSTON,DE,199542557,,1329 THISTLEWOOD RDHOUSTONDE
2703 PHILADELPHIA PIKE STE C,,CLAYMONT,DE,197032571,,2703 PHILADELPHIA PIKE STE CCLAYMONTDE
PO BOX 452,,GREENWOOD,DE,199500452,,PO BOX 452GREENWOODDE
7 CHESMAR PLZ,,NEWARK,DE,197132461,,7 CHESMAR PLZNEWARKDE
804 BRANDYWINE BLVD,,WILMINGTON,DE,198092962,,804 BRANDYWINE BLVDWILMINGTONDE
5 STIRLING DR,,NEWARK,DE,197022048,,5 STIRLING DRNEWARKDE
209 E MAIN ST,,NEWARK,DE,197117387,,209 E MAIN STNEWARKDE
2518 N DUPONT PKWY,,MIDDLETOWN,DE,197099616,,2518 N DUPONT PKWYMIDDLETOWNDE
205 EXECUTIVE DR,,NEWARK,DE,197023316,,205 EXECUTIVE DRNEWARKDE
422 SEQUOIA DR,,SMYRNA,DE,199772542,,422 SEQUOIA DRSMYRNADE
30447 CEDAR NECK RD UNIT 4,,OCEAN VIEW,DE,199704124,,30447 CEDAR NECK RD UNIT 4OCEAN VIEWDE
100 COASTAL HWY UNIT 4,,FENWICK ISLAND,DE,199444474,,100 COASTAL HWY UNIT 4FENWICK ISLANDDE
2000 PENNSYLVANIA AVE,,WILMINGTON,DE,198062450,,2000 PENNSYLVANIA AVEWILMINGTONDE
109 LLANGOLLEN BLVD,,NEW CASTLE,DE,197204709,,109 LLANGOLLEN BLVDNEW CASTLEDE
22990 SUSSEX HWY,,SEAFORD,DE,199735861,,22990 SUSSEX HWYSEAFORDDE
1903 LAKE SEYMOUR DR,,MIDDLETOWN,DE,197094648,,1903 LAKE SEYMOUR DRMIDDLETOWNDE
145 GROVE LN,,NEWARK,DE,19711,,145 GROVE LNNEWARKDE
7288 LANCASTER PIKE,,HOCKESSIN,DE,197079296,,7288 LANCASTER PIKEHOCKESSINDE
739 FERRY CUT OFF ST,,HISTORIC NEW CASTLE,DE,197205063,,739 FERRY CUT OFF STHISTORIC NEW CASTLEDE
1407 THATCHER ST,,WILMINGTON,DE,198025141,,1407 THATCHER STWILMINGTONDE
45 GREENTREE DR,,DOVER,DE,199042685,,45 GREENTREE DRDOVERDE
200 BANNING ST STE 120,,DOVER,DE,199043486,,200 BANNING ST STE 120DOVERDE
105 WOODEN CARRIAGE DR,,HOCKESSIN,DE,197071430,,105 WOODEN CARRIAGE DRHOCKESSINDE
2050 TELEGRAPH RD,,WILMINGTON,DE,198085230,,2050 TELEGRAPH RDWILMINGTONDE
415 ANN MOORE ST,,DOVER,DE,199044058,,415 ANN MOORE STDOVERDE
758 CHRISTIANA RD APT 508,,NEWARK,DE,197134239,,758 CHRISTIANA RD APT 508NEWARKDE
18766 JOHN J WILLIAMS HWY UNIT 1,,REHOBOTH BEACH,DE,199714417,,18766 JOHN J WILLIAMS HWY UNIT 1REHOBOTH BEACHDE
512 EDWARD ST,,ELLENDALE,DE,199412001,,512 EDWARD STELLENDALEDE
36450 TIDAL RD UNIT 1,,SELBYVILLE,DE,19975,,36450 TIDAL RD UNIT 1SELBYVILLEDE
150 S DUPONT HWY,,NEW CASTLE,DE,197204149,,150 S DUPONT HWYNEW CASTLEDE
230 LODER DR,,SMYRNA,DE,199776811,,230 LODER DRSMYRNADE
31178 OLNEY WAY,,MILLSBORO,DE,199661810,,31178 OLNEY WAYMILLSBORODE
1222 BEAVER BROOK PLZ,,NEW CASTLE,DE,197208632,,1222 BEAVER BROOK PLZNEW CASTLEDE
1819 LANCASTER AVE,,WILMINGTON,DE,198053805,,1819 LANCASTER AVEWILMINGTONDE
5502 S DUPONT HWY STE 1,,DOVER,DE,199016440,,5502 S DUPONT HWY STE 1DOVERDE
70 REHOBOTH AVE,,REHOBOTH BEACH,DE,199712171,,70 REHOBOTH AVEREHOBOTH BEACHDE
717 PULASKI HWY,,BEAR,DE,197011236,,717 PULASKI HWYBEARDE
3205 CONCORD PIKE,,WILMINGTON,DE,198035014,,3205 CONCORD PIKEWILMINGTONDE
800 W 4TH ST STE 402,,WILMINGTON,DE,198012045,,800 W 4TH ST STE 402WILMINGTONDE
38223 DUPONT BLVD UNIT 15,,SELBYVILLE,DE,199753052,,38223 DUPONT BLVD UNIT 15SELBYVILLEDE
2801 LANCASTER AVE STE F,,WILMINGTON,DE,198055232,,2801 LANCASTER AVE STE FWILMINGTONDE
1059 S. MARKET STREET,,WILMINGTON,DE,19801,,1059 S. MARKET STREETWILMINGTONDE
318 N DUPONT HWY,,DOVER,DE,199013935,,318 N DUPONT HWYDOVERDE
2808 CREEKSIDE DR,,NEWARK,DE,197116765,,2808 CREEKSIDE DRNEWARKDE
1833 MARSH RD,,WILMINGTON,DE,198104505,,1833 MARSH RDWILMINGTONDE
716 NIGHTSHADE WAY,,TOWNSEND,DE,197341100,,716 NIGHTSHADE WAYTOWNSENDDE
312 S CENTRAL AVE,,LAUREL,DE,199561525,,312 S CENTRAL AVELAURELDE
700 CAPITOL TRL,,NEWARK,DE,197113951,,700 CAPITOL TRLNEWARKDE
32497 LONG NECK RD,,MILLSBORO,DE,199666672,,32497 LONG NECK RDMILLSBORODE
1415 N DUPONT HWY,,NEW CASTLE,DE,197201843,,1415 N DUPONT HWYNEW CASTLEDE
4704 LIMESTONE RD,,WILMINGTON,DE,198081928,,4704 LIMESTONE RDWILMINGTONDE
58 GARDEN CIR,,GEORGETOWN,DE,199475619,,58 GARDEN CIRGEORGETOWNDE
1416 N VAN BUREN ST APT 3,,WILMINGTON,DE,198063278,,1416 N VAN BUREN ST APT 3WILMINGTONDE
4435 CONCORD PIKE,,WILMINGTON,DE,198031489,,4435 CONCORD PIKEWILMINGTONDE
139 E MARKET ST,,GEORGETOWN,DE,199471405,,139 E MARKET STGEORGETOWNDE
758 CHRISTIANA RD APT 103,,NEWARK,DE,197134225,,758 CHRISTIANA RD APT 103NEWARKDE
4817 GOVERNOR PRINTZ BLVD,,WILMINGTON,DE,198093409,,4817 GOVERNOR PRINTZ BLVDWILMINGTONDE
305 N MARKET ST,,SEAFORD,DE,199732611,,305 N MARKET STSEAFORDDE
501 MERRIMAC AVE,,MIDDLETOWN,DE,19709,,501 MERRIMAC AVEMIDDLETOWNDE
28723 WOODCREST DR,,HARBESON,DE,199512956,,28723 WOODCREST DRHARBESONDE
10 WILMINGTON AVE,,REHOBOTH BEACH,DE,199712926,,10 WILMINGTON AVEREHOBOTH BEACHDE
50 N DUPONT HWY STE 10,,DOVER,DE,199014292,,50 N DUPONT HWY STE 10DOVERDE
10 GEOFFREY DR,,NEWARK,DE,197133603,,10 GEOFFREY DRNEWARKDE
301 E CAMDEN WYOMING AVE,,CAMDEN,DE,199341210,,301 E CAMDEN WYOMING AVECAMDENDE
1213 CHURCHMANS RD,,NEWARK,DE,197132149,,1213 CHURCHMANS RDNEWARKDE
20 BALFOUR AVE,,CLAYMONT,DE,197032706,,20 BALFOUR AVECLAYMONTDE
101 W FAIRWAYS CIR,,SMYRNA,DE,199771829,,101 W FAIRWAYS CIRSMYRNADE
507 THOMPSON STATION RD,,NEWARK,DE,197117504,,507 THOMPSON STATION RDNEWARKDE
3804 N MARKET ST,,WILMINGTON,DE,198022216,,3804 N MARKET STWILMINGTONDE
33707 SKIFF ALY UNIT 203,,LEWES,DE,199585474,,33707 SKIFF ALY UNIT 203LEWESDE
25 JEROME DRIVE,,DOVER,DE,19901,,25 JEROME DRIVEDOVERDE
322 W 9TH ST,,WILMINGTON,DE,198011502,,322 W 9TH STWILMINGTONDE
101 E HAZELDELL AVE,,NEW CASTLE,DE,197201346,,101 E HAZELDELL AVENEW CASTLEDE
98 GARFIELD PKWY UNIT 102,,BETHANY BEACH,DE,199307755,,98 GARFIELD PKWY UNIT 102BETHANY BEACHDE
3150 N DUPONT HWY,,DOVER,DE,19901,,3150 N DUPONT HWYDOVERDE
1701 W 4TH ST,,WILMINGTON,DE,198053591,,1701 W 4TH STWILMINGTONDE
701 N BROAD ST,,MIDDLETOWN,DE,197091166,,701 N BROAD STMIDDLETOWNDE
19 WILMINGTON AVE,,REHOBOTH BEACH,DE,199712925,,19 WILMINGTON AVEREHOBOTH BEACHDE
204 N MARYLAND AVE,,WILMINGTON,DE,198041338,,204 N MARYLAND AVEWILMINGTONDE
500 N BI STATE BLVD STE 102,,DELMAR,DE,199401104,,500 N BI STATE BLVD STE 102DELMARDE
414 N UNION ST,,WILMINGTON,DE,198053026,,414 N UNION STWILMINGTONDE
1126 CAPITOL TRL STE D,,NEWARK,DE,197113927,,1126 CAPITOL TRL STE DNEWARKDE
2715 GOVERNOR PRINTZ BLVD,,WILMINGTON,DE,198023701,,2715 GOVERNOR PRINTZ BLVDWILMINGTONDE
207 N CHURCH AVE,,MILFORD,DE,199631122,,207 N CHURCH AVEMILFORDDE
207 N CHURCH AVE,,MILFORD,DE,199631122,,207 N CHURCH AVEMILFORDDE
936 JUSTISON ST,,WILMINGTON,DE,198015150,,936 JUSTISON STWILMINGTONDE
140 E MAIN ST,,NEWARK,DE,197117308,,140 E MAIN STNEWARKDE
4493 HIGHWAY ONE,,REHOBOTH BEACH,DE,199716134,,4493 HIGHWAY ONEREHOBOTH BEACHDE
1901 LAKE SEYMOUR DR,,MIDDLETOWN,DE,197094648,,1901 LAKE SEYMOUR DRMIDDLETOWNDE
6 NORTH ST,,NEW CASTLE,DE,197201417,,6 NORTH STNEW CASTLEDE
929 N DUPONT BLVD,,MILFORD,DE,199631045,,929 N DUPONT BLVDMILFORDDE
382 PAUL DR,,SMYRNA,DE,199771063,,382 PAUL DRSMYRNADE
307 N KING ST,,WILMINGTON,DE,198012523,,307 N KING STWILMINGTONDE
4456 SUMMIT BRIDGE RD,,MIDDLETOWN,DE,197099344,,4456 SUMMIT BRIDGE RDMIDDLETOWNDE
504 GREENHILL AVE,,WILMINGTON,DE,198051851,,504 GREENHILL AVEWILMINGTONDE
2401 KIRKWOOD HWY,,WILMINGTON,DE,198054906,,2401 KIRKWOOD HWYWILMINGTONDE
2136 W NEWPORT PIKE,,WILMINGTON,DE,198043720,,2136 W NEWPORT PIKEWILMINGTONDE
241 N DUPONT HWY,,NEW CASTLE,DE,197206454,,241 N DUPONT HWYNEW CASTLEDE
17222 HOOD RD,,REHOBOTH BEACH,DE,199714494,,17222 HOOD RDREHOBOTH BEACHDE
6 WINGATE NORTH CT,,WYOMING,DE,199341297,,6 WINGATE NORTH CTWYOMINGDE
520 ASHTON LN,,NEW CASTLE,DE,197203960,,520 ASHTON LNNEW CASTLEDE
989 N DUPONT BLVD,,MILFORD,DE,199631072,,989 N DUPONT BLVDMILFORDDE
3 SABRINA DR,,REHOBOTH BEACH,DE,199719727,,3 SABRINA DRREHOBOTH BEACHDE
33 WILMINGTON AVE,,REHOBOTH BEACH,DE,199712218,,33 WILMINGTON AVEREHOBOTH BEACHDE
102 FEDERAL ST,,MILTON,DE,199681603,,102 FEDERAL STMILTONDE
370 WALMART DR STE 3,,CAMDEN,DE,199341365,,370 WALMART DR STE 3CAMDENDE
PO BOX 215,,BEAR,DE,197010215,,PO BOX 215BEARDE
24808 JOHN J WILLIAMS HWY,,MILLSBORO,DE,199664983,,24808 JOHN J WILLIAMS HWYMILLSBORODE
32056 ROBIN HOODS LOOP,,MILLSBORO,DE,199666204,,32056 ROBIN HOODS LOOPMILLSBORODE
31 W LOOCKERMAN ST,,DOVER,DE,199047350,,31 W LOOCKERMAN STDOVERDE
200 BEECHWOOD AVE TRLR 56,,DOVER,DE,199015247,,200 BEECHWOOD AVE TRLR 56DOVERDE
202 E 6TH ST,,HISTORIC NEW CASTLE,DE,197204566,,202 E 6TH STHISTORIC NEW CASTLEDE
22920 SUSSEX HWY,,SEAFORD,DE,199735868,,22920 SUSSEX HWYSEAFORDDE
28A TROLLEY SQ,,WILMINGTON,DE,19806,,28A TROLLEY SQWILMINGTONDE
900 SE 5TH ST,,MILFORD,DE,199632610,,900 SE 5TH STMILFORDDE
8 THE GRN STE A,,DOVER,DE,199013618,,8 THE GRN STE ADOVERDE
700 N KING ST,,WILMINGTON,DE,198013504,,700 N KING STWILMINGTONDE
1012-1016 NORTH LINCOLN ST,,WILMINGTON,DE,19805,,1012-1016 NORTH LINCOLN STWILMINGTONDE
340 GROVE LN,,NEWARK,DE,197115494,,340 GROVE LNNEWARKDE
60 N COLLEGE AVE,,NEWARK,DE,197112246,,60 N COLLEGE AVENEWARKDE
2425 PULASKI HWY,,NEWARK,DE,197023905,,2425 PULASKI HWYNEWARKDE
20 SALEM VILLAGE SQ,,NEWARK,DE,197132976,,20 SALEM VILLAGE SQNEWARKDE
4528 KIRKWOOD HWY STE C,,WILMINGTON,DE,198085126,,4528 KIRKWOOD HWY STE CWILMINGTONDE
401 S MARKET ST,,WILMINGTON,DE,19801,,401 S MARKET STWILMINGTONDE
4416 SUMMIT BRIDGE RD,,MIDDLETOWN,DE,197099344,,4416 SUMMIT BRIDGE RDMIDDLETOWNDE
7465 LANCASTER PIKE,,HOCKESSIN,DE,197079583,,7465 LANCASTER PIKEHOCKESSINDE
2472 S DUPONT PKWY,,MIDDLETOWN,DE,19709,,2472 S DUPONT PKWYMIDDLETOWNDE
504 KIRKWOOD HWY,,WILMINGTON,DE,19805,,504 KIRKWOOD HWYWILMINGTONDE
12 POLLY DRUMMOND HILL RD,,NEWARK,DE,197115703,,12 POLLY DRUMMOND HILL RDNEWARKDE
1204 DELAWARE ST,,HISTORIC NEW CASTLE,DE,197206060,,1204 DELAWARE STHISTORIC NEW CASTLEDE
751 PULASKI HWY STE A,,BEAR,DE,19701,,751 PULASKI HWY STE ABEARDE
1728 MARSH RD,,WILMINGTON,DE,198104606,,1728 MARSH RDWILMINGTONDE
620 PLAZA DR UNIT 10-B,,NEWARK,DE,197026368,,620 PLAZA DR UNIT 10-BNEWARKDE
400 FOULK RD APT 2B5,,WILMINGTON,DE,198033814,,400 FOULK RD APT 2B5WILMINGTONDE
11879 HICKMAN DR,,LAUREL,DE,199562024,,11879 HICKMAN DRLAURELDE
26145 JOHN J WILLIAMS HWY,,MILLSBORO,DE,199664951,,26145 JOHN J WILLIAMS HWYMILLSBORODE
601 BENNETT ST,,MILTON,DE,199681003,,601 BENNETT STMILTONDE
263 WALMART DR,,CAMDEN,DE,199341308,,263 WALMART DRCAMDENDE
1013 CENTRE RD STE 403S,,WILMINGTON,DE,198051270,,1013 CENTRE RD STE 403SWILMINGTONDE
824 N MARKET ST STE 104,,WILMINGTON,DE,198014937,,824 N MARKET ST STE 104WILMINGTONDE
140 S STATE ST,,DOVER,DE,199017314,,140 S STATE STDOVERDE
1518 W 4TH ST,,WILMINGTON,DE,198053553,,1518 W 4TH STWILMINGTONDE
4837 LIMESTONE RD,,WILMINGTON,DE,198081902,,4837 LIMESTONE RDWILMINGTONDE
147 S GOVERNORS AVE,,DOVER,DE,199043205,,147 S GOVERNORS AVEDOVERDE
36740 SEASIDE OUTLET DRIVE,,REHOBOTH BEACH,DE,19971,,36740 SEASIDE OUTLET DRIVEREHOBOTH BEACHDE
110 S WEST ST,,WILMINGTON,DE,198015015,,110 S WEST STWILMINGTONDE
124 CLINTON ST,,DELAWARE CITY,DE,197067706,,124 CLINTON STDELAWARE CITYDE
6 COLLEGE PARK LN STE 6,,GEORGETOWN,DE,199472179,,6 COLLEGE PARK LN STE 6GEORGETOWNDE
19819 COASTAL HWY,,REHOBOTH BEACH,DE,199716115,,19819 COASTAL HWYREHOBOTH BEACHDE
7175 CAYDEN DR,,NEWARK,DE,197028154,,7175 CAYDEN DRNEWARKDE
950 N STATE ST,,DOVER,DE,199013903,,950 N STATE STDOVERDE
3517 OLD CAPITOL TRL,,WILMINGTON,DE,198086125,,3517 OLD CAPITOL TRLWILMINGTONDE
31010 THORNTON BLVD,,DELMAR,DE,199403599,,31010 THORNTON BLVDDELMARDE
311 PRICE DR,,MIDDLETOWN,DE,197099899,,311 PRICE DRMIDDLETOWNDE
30759 SUSSEX HWY,,LAUREL,DE,199564425,,30759 SUSSEX HWYLAURELDE
30759 SUSSEX HWY,,LAUREL,DE,199564425,,30759 SUSSEX HWYLAURELDE
337 S DUPONT HWY,,NEW CASTLE,DE,197204641,,337 S DUPONT HWYNEW CASTLEDE
2405 KIRKWOOD HWY,,WILMINGTON,DE,198054906,,2405 KIRKWOOD HWYWILMINGTONDE
181 E MAIN ST,,NEWARK,DE,197117339,,181 E MAIN STNEWARKDE
531 E BASIN RD,,NEW CASTLE,DE,197204230,,531 E BASIN RDNEW CASTLEDE
29 ATLANTIC AVE STE C,,OCEAN VIEW,DE,199709155,,29 ATLANTIC AVE STE COCEAN VIEWDE
4140 OGLETOWN STANTON RD,,NEWARK,DE,197134169,,4140 OGLETOWN STANTON RDNEWARKDE
1 OLIVE AVE,,REHOBOTH BEACH,DE,199712805,,1 OLIVE AVEREHOBOTH BEACHDE
2114 MARSH RD,,WILMINGTON,DE,198103914,,2114 MARSH RDWILMINGTONDE
3403 LANCASTER PIKE,,WILMINGTON,DE,198055533,,3403 LANCASTER PIKEWILMINGTONDE
6152 SOUTH DUPONT HIGHWAY,,MILFORD,DE,19963,,6152 SOUTH DUPONT HIGHWAYMILFORDDE
16388 SAMUEL PAYNTER BLVD,,MILTON,DE,199683559,,16388 SAMUEL PAYNTER BLVDMILTONDE
304 W 9TH ST,,WILMINGTON,DE,198011502,,304 W 9TH STWILMINGTONDE
100 GARFIELD PKWY UNIT 5,,BETHANY BEACH,DE,199307705,,100 GARFIELD PKWY UNIT 5BETHANY BEACHDE
2000 COASTAL HWY STE 101,,DEWEY BEACH,DE,199712355,,2000 COASTAL HWY STE 101DEWEY BEACHDE
165 HUBBARD AVE,,FREDERICA,DE,199461246,,165 HUBBARD AVEFREDERICADE
1294 FORREST AVE,,DOVER,DE,199043311,,1294 FORREST AVEDOVERDE
1162 PULASKI HWY,,BEAR,DE,19701,,1162 PULASKI HWYBEARDE
480 PEOPLES PLZ,,NEWARK,DE,197024797,,480 PEOPLES PLZNEWARKDE
222 LANTANA DR,,HOCKESSIN,DE,197078805,,222 LANTANA DRHOCKESSINDE
386 E MAIN ST,,MIDDLETOWN,DE,197091482,,386 E MAIN STMIDDLETOWNDE
17 WOOD ST,,MIDDLETOWN,DE,197091048,,17 WOOD STMIDDLETOWNDE
366 POSSUM PARK RD,,NEWARK,DE,197113851,,366 POSSUM PARK RDNEWARKDE
300 DELAWARE AVE STE 210,388,WILMINGTON,DE,198016601,,300 DELAWARE AVE STE 210WILMINGTONDE
500 DELAWARE AVE BBIRD,,WILMINGTON,DE,198011980,,500 DELAWARE AVE BBIRDWILMINGTONDE
1257 CHURCHMANS RD,,NEWARK,DE,197132149,,1257 CHURCHMANS RDNEWARKDE
17040 S DUPONT HWY,,HARRINGTON,DE,19952,,17040 S DUPONT HWYHARRINGTONDE
335 APPLEFORD CIR,,BEAR,DE,197012319,,335 APPLEFORD CIRBEARDE
110 E GLENWOOD AVE # 3,,SMYRNA,DE,199771003,,110 E GLENWOOD AVE # 3SMYRNADE
1932 SPEARFISH CT,,NEWARK,DE,197023685,,1932 SPEARFISH CTNEWARKDE
328 NEW RD UNIT 2,,WILMINGTON,DE,198051914,,328 NEW RD UNIT 2WILMINGTONDE
19366 COASTAL HWY,,REHOBOTH BEACH,DE,199716119,,19366 COASTAL HWYREHOBOTH BEACHDE
129 E MAIN ST,,NEWARK,DE,197117561,,129 E MAIN STNEWARKDE
2913 N WASHINGTON ST,,WILMINGTON,DE,198023114,,2913 N WASHINGTON STWILMINGTONDE
115 E MAIN ST,,NEWARK,DE,197117312,,115 E MAIN STNEWARKDE
1 PENN MART CTR,,NEW CASTLE,DE,197204206,,1 PENN MART CTRNEW CASTLEDE
810 N BARRETT LN,,NEWARK,DE,197026905,,810 N BARRETT LNNEWARKDE
37169 REHOBOTH AVENUE EXT,,REHOBOTH BEACH,DE,199711683,,37169 REHOBOTH AVENUE EXTREHOBOTH BEACHDE
ROSA PARKS DRIVE,,WILMINGTON,DE,19801,,ROSA PARKS DRIVEWILMINGTONDE
20998 ATLANTA RD,,SEAFORD,DE,199736517,,20998 ATLANTA RDSEAFORDDE
4715 KIRKWOOD HWY,,WILMINGTON,DE,198085007,,4715 KIRKWOOD HWYWILMINGTONDE
1007 S COLLEGE AVE,,NEWARK,DE,197132305,,1007 S COLLEGE AVENEWARKDE
92 CLINTON ST,,DELAWARE CITY,DE,197067702,,92 CLINTON STDELAWARE CITYDE
2227 JESSUP ST,,WILMINGTON,DE,198024343,,2227 JESSUP STWILMINGTONDE
759C GARFIELD PKWY,,BETHANY BEACH,DE,199309717,,759C GARFIELD PKWYBETHANY BEACHDE
243 CHESTNUT RIDGE DR,,MAGNOLIA,DE,199621643,,243 CHESTNUT RIDGE DRMAGNOLIADE
3125 NEW CASTLE AVE,,NEW CASTLE,DE,197202174,,3125 NEW CASTLE AVENEW CASTLEDE
24 ANDERSON ST,,MIDDLETOWN,DE,197091101,,24 ANDERSON STMIDDLETOWNDE
900 N WASHINGTON ST,,WILMINGTON,DE,198011512,,900 N WASHINGTON STWILMINGTONDE
627 N KING ST,,WILMINGTON,DE,198013721,,627 N KING STWILMINGTONDE
5712 KENNETT PIKE,,WILMINGTON,DE,198071312,,5712 KENNETT PIKEWILMINGTONDE
329 JUSTISON ST,,WILMINGTON,DE,198015164,,329 JUSTISON STWILMINGTONDE
5417 PETERSON RD,,MIDDLETOWN,DE,197098953,,5417 PETERSON RDMIDDLETOWNDE
1 W MAIN ST,,MIDDLETOWN,DE,197091017,,1 W MAIN STMIDDLETOWNDE
600 NE FRONT STREET EXT STE 5,,MILFORD,DE,199631395,,600 NE FRONT STREET EXT STE 5MILFORDDE
305 N MARKET ST,,SEAFORD,DE,199732611,,305 N MARKET STSEAFORDDE
12967 TRUSSUM POND RD,,LAUREL,DE,199563426,,12967 TRUSSUM POND RDLAURELDE
501 GROVE LN,,NEWARK,DE,197115697,,501 GROVE LNNEWARKDE
19 W COMMERCE ST,,SMYRNA,DE,199771463,,19 W COMMERCE STSMYRNADE
1225 N DUPONT HWY STE E,,DOVER,DE,199012264,,1225 N DUPONT HWY STE EDOVERDE
7288 LANCASTER PIKE,,HOCKESSIN,DE,197079296,,7288 LANCASTER PIKEHOCKESSINDE
900 N WASHINGTON ST,,WILMINGTON,DE,198011512,,900 N WASHINGTON STWILMINGTONDE
1904 JULIAN RD,,WILMINGTON,DE,198033141,,1904 JULIAN RDWILMINGTONDE
26581 LEWES GEORGETOWN HWY,,HARBESON,DE,199512861,,26581 LEWES GEORGETOWN HWYHARBESONDE
9 CHESMAR PLAZA,,NEWARK,DE,19713,,9 CHESMAR PLAZANEWARKDE
19-21 WEST COMMERCE STEE,,SMYRNA,DE,19977,,19-21 WEST COMMERCE STEESMYRNADE
505 LEAHY ST,,ODESSA,DE,197302017,,505 LEAHY STODESSADE
100 WEST AVE,,NEW CASTLE,DE,197205949,,100 WEST AVENEW CASTLEDE
1707 DELAWARE AVE,,WILMINGTON,DE,198062329,,1707 DELAWARE AVEWILMINGTONDE
59 LAKE AVE,,REHOBOTH BEACH,DE,199712107,,59 LAKE AVEREHOBOTH BEACHDE
107 SAVANNAH RD,,LEWES,DE,199581437,,107 SAVANNAH RDLEWESDE
4117 HIGHWAY ONE,,REHOBOTH BEACH,DE,19971,,4117 HIGHWAY ONEREHOBOTH BEACHDE
19598 COASTAL HWY,,REHOBOTH BEACH,DE,199716109,,19598 COASTAL HWYREHOBOTH BEACHDE
39413 INLET RD,,REHOBOTH BEACH,DE,199712600,,39413 INLET RDREHOBOTH BEACHDE
50 WILMINGTON AVE # UNITSF-J,,REHOBOTH BEACH,DE,199712217,,50 WILMINGTON AVE # UNITSF-JREHOBOTH BEACHDE
720 JUSTISON ST,,WILMINGTON,DE,198015141,,720 JUSTISON STWILMINGTONDE
1232 N KING ST,,WILMINGTON,DE,198013226,,1232 N KING STWILMINGTONDE
600 JUSTISON ST,,WILMINGTON,DE,198015153,,600 JUSTISON STWILMINGTONDE
2038 FOULK RD,,WILMINGTON,DE,198103665,,2038 FOULK RDWILMINGTONDE
35272 ATLANTIC AVE,,MILLVILLE,DE,199676902,,35272 ATLANTIC AVEMILLVILLEDE
90 CLIMBING VINE AVE,,SMYRNA,DE,199773953,,90 CLIMBING VINE AVESMYRNADE
780 OLD BALTIMORE PIKE,,NEWARK,DE,197021396,,780 OLD BALTIMORE PIKENEWARKDE
601 N WINDING BROOKE DR,,SEAFORD,DE,199734849,,601 N WINDING BROOKE DRSEAFORDDE
5350 SUMMIT BRIDGE RD STE 12,,MIDDLETOWN,DE,197094801,,5350 SUMMIT BRIDGE RD STE 12MIDDLETOWNDE
15 REDDEN CT,,BEAR,DE,197013828,,15 REDDEN CTBEARDE
1847 PULASKI HWY,,BEAR,DE,197011731,,1847 PULASKI HWYBEARDE
38016 FENWICK SHOALS BLVD UNIT 2,,SELBYVILLE,DE,199753986,,38016 FENWICK SHOALS BLVD UNIT 2SELBYVILLEDE
165 S DUPONT HWY,,NEW CASTLE,DE,197204190,,165 S DUPONT HWYNEW CASTLEDE
22 STRAWBRIDGE AVE,,NEW CASTLE,DE,197201501,,22 STRAWBRIDGE AVENEW CASTLEDE
11A TROLLEY SQ,,WILMINGTON,DE,198063334,,11A TROLLEY SQWILMINGTONDE
22751 RED BAY LN,,MILTON,DE,199684509,,22751 RED BAY LNMILTONDE
3256 FASHION CENTER BLVD,,NEWARK,DE,197023254,,3256 FASHION CENTER BLVDNEWARKDE
247 LAKESIDE DR,,LEWES,DE,199588993,,247 LAKESIDE DRLEWESDE
8 THE GRN STE 20810,,DOVER,DE,199013618,,8 THE GRN STE 20810DOVERDE
3 S ORANGE ST,,WILMINGTON,DE,198015006,,3 S ORANGE STWILMINGTONDE
3044 NEW CASTLE AVE,,NEW CASTLE,DE,197202248,,3044 NEW CASTLE AVENEW CASTLEDE
1007 N ORANGE ST,,WILMINGTON,DE,198011239,,1007 N ORANGE STWILMINGTONDE
1104 S STATE ST,,DOVER,DE,199016926,,1104 S STATE STDOVERDE
1141 SAVANNAH RD,,LEWES,DE,199581524,,1141 SAVANNAH RDLEWESDE
121 DURSO DR,,NEWARK,DE,197116903,,121 DURSO DRNEWARKDE
312 HETHERTON LN,,NEW CASTLE,DE,197206753,,312 HETHERTON LNNEW CASTLEDE
3604 KIRKWOOD HWY,,WILMINGTON,DE,19808,,3604 KIRKWOOD HWYWILMINGTONDE
228 LANTANA DR,,HOCKESSIN,DE,197078805,,228 LANTANA DRHOCKESSINDE
35 LORDSHIP LN,,DOVER,DE,199016130,,35 LORDSHIP LNDOVERDE
195 W PEMBROOKE DR,,SMYRNA,DE,199774098,,195 W PEMBROOKE DRSMYRNADE
18585 COASTAL HWY UNIT 14,,REHOBOTH BEACH,DE,199716147,,18585 COASTAL HWY UNIT 14REHOBOTH BEACHDE
31221 AMERICANA PKWY,,SELBYVILLE,DE,199753785,,31221 AMERICANA PKWYSELBYVILLEDE
19730 COASTAL HWY,,REHOBOTH BEACH,DE,199716197,,19730 COASTAL HWYREHOBOTH BEACHDE
24120 ZINFANDEL LN,,LEWES,DE,199581928,,24120 ZINFANDEL LNLEWESDE
820 NE FRONT STREET EXT,,MILFORD,DE,199631377,,820 NE FRONT STREET EXTMILFORDDE
66 ROBERTS AVE,,DOVER,DE,199015527,,66 ROBERTS AVEDOVERDE
18910 REHOBOTH MALL BLVD,,REHOBOTH BEACH,DE,199716132,,18910 REHOBOTH MALL BLVDREHOBOTH BEACHDE
503 MERRIMAC AVENUE,,MIDDLETOWN,DE,19709,,503 MERRIMAC AVENUEMIDDLETOWNDE
707 PULASKI HWY STE 105,,BEAR,DE,197011200,,707 PULASKI HWY STE 105BEARDE
724 KENT WAY,,SMYRNA,DE,199771300,,724 KENT WAYSMYRNADE
3526 PHILADELPHIA PIKE,,CLAYMONT,DE,197033109,,3526 PHILADELPHIA PIKECLAYMONTDE
28 ROLLING RD,,CLAYMONT,DE,197032464,,28 ROLLING RDCLAYMONTDE
102 E MAIN ST UNIT 100,,NEWARK,DE,197117374,,102 E MAIN ST UNIT 100NEWARKDE
4305 KIRKWOOD HWY,,WILMINGTON,DE,198085113,,4305 KIRKWOOD HWYWILMINGTONDE
714 W 11TH ST,,WILMINGTON,DE,198011315,,714 W 11TH STWILMINGTONDE
47 ROBINSON CIR,,SEAFORD,DE,19973,,47 ROBINSON CIRSEAFORDDE
22041 PINE HAVEN RD,,LINCOLN,DE,199603804,,22041 PINE HAVEN RDLINCOLNDE
400 N CATHERINE ST APT 8,,MIDDLETOWN,DE,197091108,,400 N CATHERINE ST APT 8MIDDLETOWNDE
700 CAPITOL TRL UNIT 8,,NEWARK,DE,197113951,,700 CAPITOL TRL UNIT 8NEWARKDE
1305 RADFORD RD,,WILMINGTON,DE,198035133,,1305 RADFORD RDWILMINGTONDE
281 VINCENT CIRCLE,,MIDDLETOWN,DE,19709,,281 VINCENT CIRCLEMIDDLETOWNDE
1128 FORREST AVE UNIT C,,DOVER,DE,199043309,,1128 FORREST AVE UNIT CDOVERDE
8988 GREENTOP RD,,LINCOLN,DE,199602907,,8988 GREENTOP RDLINCOLNDE
310 GLASGOW DR,,NEWARK,DE,197024113,,310 GLASGOW DRNEWARKDE
604 RIDGEVIEW RD,,HOCKESSIN,DE,197079741,,604 RIDGEVIEW RDHOCKESSINDE
1037 N DUPONT HWY,,DOVER,DE,199012006,,1037 N DUPONT HWYDOVERDE
143 GROVE LN,,NEWARK,DE,197115488,,143 GROVE LNNEWARKDE
1531 MARYLAND AVE,,WILMINGTON,DE,198054770,,1531 MARYLAND AVEWILMINGTONDE
17252 N VILLAGE MAIN BLVD UNIT 5,,LEWES,DE,199586292,,17252 N VILLAGE MAIN BLVD UNIT 5LEWESDE
3616 KIRKWOOD HWY STE C,,WILMINGTON,DE,198085124,,3616 KIRKWOOD HWY STE CWILMINGTONDE
3 SILSBEE RD,,NEW CASTLE,DE,197203227,,3 SILSBEE RDNEW CASTLEDE
174 E MAIN ST,,NEWARK,DE,197117309,,174 E MAIN STNEWARKDE
37 CARLISLE RD,,NEWARK,DE,197132504,,37 CARLISLE RDNEWARKDE
3226 KIRKWOOD HWY,,WILMINGTON,DE,198086130,,3226 KIRKWOOD HWYWILMINGTONDE
4 CURLEW CT,,REHOBOTH BEACH,DE,19971,,4 CURLEW CTREHOBOTH BEACHDE
610 NEWARK SHOPPING CTR,,NEWARK,DE,197117326,,610 NEWARK SHOPPING CTRNEWARKDE
280 E MAIN ST,,NEWARK,DE,197117333,,280 E MAIN STNEWARKDE
18757 U.S. HIGHWAY 13,,BRIDGEVILLE,DE,19933,,18757 U.S. HIGHWAY 13BRIDGEVILLEDE
1855 S DUPONT HWY,,DOVER,DE,199015128,,1855 S DUPONT HWYDOVERDE
1716 ECKINGTON DR,,MIDDLETOWN,DE,197091532,,1716 ECKINGTON DRMIDDLETOWNDE
2308A CONCORD PIKE,,WILMINGTON,DE,198032912,,2308A CONCORD PIKEWILMINGTONDE
4008 N DUPONT HWY,,NEW CASTLE,DE,197206314,,4008 N DUPONT HWYNEW CASTLEDE
212 HOSIER STREET EXT,,SELBYVILLE,DE,199759480,,212 HOSIER STREET EXTSELBYVILLEDE
850 NEW BURTON RD STE 201,,DOVER,DE,199045786,,850 NEW BURTON RD STE 201DOVERDE
1139 W 7TH ST APT A,,WILMINGTON,DE,198053267,,1139 W 7TH ST APT AWILMINGTONDE
100 SE FRONT ST,,MILFORD,DE,199631944,,100 SE FRONT STMILFORDDE
515 E KING ST APT A,,SEAFORD,DE,199732701,,515 E KING ST APT ASEAFORDDE
303 MAIN STREET,,MILLSBORO,DE,19966,,303 MAIN STREETMILLSBORODE
1012 KIRKWOOD HWY  SUITE 1,,ELSMERE,DE,19805,,1012 KIRKWOOD HWY  SUITE 1ELSMEREDE
242 ANN DR,,MIDDLETOWN,DE,197092606,,242 ANN DRMIDDLETOWNDE
421 WYOMING AVE,,DOVER,DE,199046916,,421 WYOMING AVEDOVERDE
17 DECIDEDLY LN,,BEAR,DE,197013347,,17 DECIDEDLY LNBEARDE
8 THE GRN STE B,,DOVER,DE,199013618,,8 THE GRN STE BDOVERDE
PO BOX 709,,SELBYVILLE,DE,199750709,,PO BOX 709SELBYVILLEDE
200 MAIN ST,,WILMINGTON,DE,198043905,,200 MAIN STWILMINGTONDE
800 W 4TH ST STE 503,,WILMINGTON,DE,198012054,,800 W 4TH ST STE 503WILMINGTONDE
9 N 1ST ST,,REHOBOTH BEACH,DE,199712115,,9 N 1ST STREHOBOTH BEACHDE
129 E MAIN ST,,NEWARK,DE,197117561,,129 E MAIN STNEWARKDE
1 SALEM VILLAGE SQ,,NEWARK,DE,197132976,,1 SALEM VILLAGE SQNEWARKDE
3302 ALTAMONT DR,,WILMINGTON,DE,198102102,,3302 ALTAMONT DRWILMINGTONDE
9 W MAIN ST,,MIDDLETOWN,DE,197091017,,9 W MAIN STMIDDLETOWNDE
307 W 7TH ST FRNT,,WILMINGTON,DE,198012182,,307 W 7TH ST FRNTWILMINGTONDE
1919 SAINT AUGUSTINE RD,,MIDDLETOWN,DE,197092185,,1919 SAINT AUGUSTINE RDMIDDLETOWNDE
1300 CAPITOL TRL,,NEWARK,DE,197113926,,1300 CAPITOL TRLNEWARKDE
131 UPPER VALLEY LN,,NEWARK,DE,197118720,,131 UPPER VALLEY LNNEWARKDE
4866 NORTH DUPONT HIGHWAY,,SMYRNA,DE,19977,,4866 NORTH DUPONT HIGHWAYSMYRNADE
4412 LIMESTONE RD UNIT 11,,WILMINGTON,DE,198081904,,4412 LIMESTONE RD UNIT 11WILMINGTONDE
507 BRIDGEVILLE HWY,,SEAFORD,DE,199731521,,507 BRIDGEVILLE HWYSEAFORDDE
3 S ORANGE ST,,WILMINGTON,DE,198015006,,3 S ORANGE STWILMINGTONDE
3 S ORANGE ST,,WILMINGTON,DE,198015006,,3 S ORANGE STWILMINGTONDE
656G N DUPONT BLVD,,MILFORD,DE,199631002,,656G N DUPONT BLVDMILFORDDE
45 S DUPONT RD,,WILMINGTON,DE,198041322,,45 S DUPONT RDWILMINGTONDE
142 BRYANTS CORNER RD,,HARTLY,DE,199531965,,142 BRYANTS CORNER RDHARTLYDE
3200 AVENUE NORTH BLVD,BLDG 9,WILMINGTON,DE,19809,,3200 AVENUE NORTH BLVDWILMINGTONDE
